id,location,address_line1,address_line2,ar_name,city,country,en_name,slug,status,type,created_at,updated_at,deleted_at,is_deleted
7a1dc9f6-88aa-4442-ae4a-963688446cab,0101000020E61000007784D38217254240184339D1AEC24040,Arnous,عرنوس,موز ولوز,Moz & Loz,damascus,syria,moz-loz,draft,restaurant,2023-10-25 08:57:27.858491 +00:00,,,false
e008b4db-59d8-4fae-9a5b-a3c53a21607b,0101000020E61000004DDBBFB2D224424022AB5B3D27C14040,Al Baramkeh,البرامكة,سويف,Suave,damascus,syria,suave,draft,restaurant,2023-10-25 08:57:27.858491 +00:00,,,false
543c172f-843d-4c95-96a7-e5e3700f7c3c,0101000020E61000007E4DFF27392342403D9D0A3C20C04040,"تنظيم كفرسوسة دامسكينو مول
",تنظيم كفرسوسة دامسكينو مول الطابق بي 3 تحت الأرض,كينغ اوف وينغز,Crepe & Saj Station,damascus,syria,crepe-saj-station,draft,restaurant,2023-10-12 11:07:53.518423 +00:00,,,false
6506ad45-c879-4570-9f04-b297fb1ff37c,0101000020E610000074445B21EE2442401BA842F204C34040,"Telyani Street, on the right.",الجسر الابيض - نزلة الطلياني على اليمين ,باتيسري امبريس ,President,damascus,syria,president,draft,restaurant,2023-10-12 11:07:53.518423 +00:00,,,false
22508853-0d0a-45ca-8c3c-b29770e4075f,0101000020E61000001A9CD20B882642406DECE9552AC14040,باب الجابية الشارع العام جانب المخفر,باب الجابية الشارع العام جانب المخفر قبل مفرق مدحت باشا,عصير ابو صلاح,Tanta Sweets & Qatayef,damascus,syria,tanta-sweets-qatayef,draft,restaurant,2023-10-12 11:07:53.518423 +00:00,,,false
b8a15431-528f-4a25-bf39-22c4f20b94ea,0101000020E61000008639208D33254240D4C6C7DDD6C24040,Arnous Square opposite the Finance,ساحة عرنوس مقابل المالية,فيسبا,Abu Essam,damascus,syria,abu-essam,draft,restaurant,2023-10-12 11:07:53.518423 +00:00,,,false
dc4c6699-dec2-4f45-8070-29335e37d5a5,0101000020E610000077ACC6D039234240643D73DE18C04040,Damasquino Mall - B2,الدامسكينو مول- B2,ايفا,King of Wings,damascus,syria,king-of-wings,draft,restaurant,2023-10-12 11:07:53.518423 +00:00,,,false
53718ee1-4aa5-42a5-83e7-daec54f9759d,0101000020E61000009FF133E40E1C4240253A9181B8C24040,الجزيرة 10 خلف الكنيسة جانب سوبر ماركت العامر,الجزيرة 10 خلف الكنيسة جانب سوبر ماركت العامر,حلويات مراد,Vespa,damascus,syria,vespa,draft,restaurant,2023-10-12 11:07:53.518423 +00:00,,,false
bd83bcd0-689a-49a6-887b-af0967f5ec2e,0101000020E61000001CA1762AA6244240984638D23EC24040,ابو رمانة,ابو رمانة بعد موقف نورا,شاورما وفروج القصور,Eva,damascus,syria,eva,draft,restaurant,2023-10-12 11:07:53.518423 +00:00,,,false
b937096a-1c0d-470c-a0b3-ef31f661dea9,0101000020E61000002BE03BBD14244240058074FB76C24040,"Damascus, malki, in front of aura restaurant",ابو رمانة_حديقة الجاحظ_دخلة مطعم اورا,هوت دوغتي,Hotdogty,damascus,syria,hotdogty,draft,restaurant,2023-10-12 11:07:53.518423 +00:00,,,false
dd26bf80-4d10-44e4-a3d6-efcfe9e418bd,0101000020E6100000FC219111AB234240EB4C463A28C24040,"Abu Rummaneh ,  Restaurants Square",ابو رمانة ساحة المطاعم,د.فريز,Dr.Frez,damascus,syria,dr-frez,draft,restaurant,2023-10-12 11:07:53.518423 +00:00,,,false
cededa7e-51ba-40fa-9a1b-60fbc6bc0947,0101000020E61000003391A9EDEC2442407B1A28D731C24040,ابو رمانة - جاحظ - جانب سويركيز,"ابو رمانة - جاحظ - جانب سويركيز
الرجاء استلام الطلب من داخل المحل فور الوصول ",ستيم,Steam,damascus,syria,steam,draft,restaurant,2023-10-12 11:07:53.518423 +00:00,,,false
bd2a1f3c-dc7f-4cea-a637-40939b76067c,0101000020E6100000B7FFF1F3992542402F75CA828DC34040,جانب جلديات النجار,جانب جلديات النجار,لقمة الملك,Luqmet Al Malek,damascus,syria,luqmet-al-malek,draft,restaurant,2023-10-12 11:07:53.518423 +00:00,,,false
57ba3434-f5f2-4704-8a2b-9faea96e3f2f,0101000020E6100000D9C23DE0CB1F424003A18A5562BF4040,"Al Maysat Street, under the building of the Ministry of Endowments",شارع الميسات تحت بناء وزارة الاوقاف,بلو كلافر ,Blue Clover,damascus,syria,blue-clover,draft,restaurant,2023-10-12 11:07:53.518423 +00:00,,,false
87bb9df6-f53a-42ac-b50b-4597a06f7ddc,0101000020E6100000F357A74E301F424056B0B6F7E3BF4040,مزة دوار الشرقية مجمع هيك شي,مزة دوار الشرقية مجمع هيك شي,بيليفول,Bellyful,damascus,syria,bellyful,draft,restaurant,2023-10-12 11:07:53.518423 +00:00,,,false
de931fe6-2d86-4d1c-9434-5942351f6855,0101000020E6100000DB8E0475252642401407120CCEC14040,"Muhajerin - Al Maaraba Mosque, opposite the Adila Beyhem School",مهاجرين الطريق العام جامع المرابطة مواجه مدرسة عادلة بيهم,لمسات بلاس,Lamasat Plus,damascus,syria,lamasat-plus,draft,restaurant,2023-10-12 11:07:53.518423 +00:00,,,false
20b380d4-47d4-4b34-90db-b121f3e61e1e,0101000020E61000006E343E9BEE234240EB84C05F86C24040,Al Thawra Street Yalbugha Complex,شارع الثورة مجمع يلبغا,مكاني سناك,Mkani Snack,damascus,syria,mkani-snack,draft,restaurant,2023-10-12 11:07:53.518423 +00:00,,,false
44780ae9-1100-4210-9a52-88abe4808a0f,0101000020E610000037A2412BAC23424047FA59D10BC34040,ابو رمانة - جانب الصليب الاحمر و كافيه اوبون,ابو رمانة - جانب الصليب الاحمر و كافيه اوبون,ايبك تشيز كيك,Epic Cheesecake,damascus,syria,epic-cheesecake,draft,restaurant,2023-10-12 11:07:53.518423 +00:00,,,false
69bfa152-da8e-43a4-a644-28af441f828b,0101000020E6100000AC0449A74728424070F2F84977C34040,السكة الشارع العام مواجه موقف شمسية,السكة الشارع العام مواجه موقف شمسية,فلفلجي,Falfalji,damascus,syria,falfalji,draft,restaurant,2023-10-12 11:07:53.518423 +00:00,,,false
791d3881-9363-4fc4-9bd3-d9f09e3b3768,0101000020E61000007F4523449E24424032B949F364C24040,غربي التجارة مواجه حديقة التجارة,غربي التجارة مواجه حديقة التجارة,كيك ميرا,Mira Cake,damascus,syria,mira-cake,draft,restaurant,2023-10-12 11:07:53.518423 +00:00,,,false
a6f0ad45-1904-47db-8ea6-014f4cfe3c93,0101000020E6100000532E01B68B244240392F460BEDC14040,المزة - ساحة الهدى جانب معجنات المحبة,المزة - ساحة الهدى جانب معجنات المحبة,ماستر كيك,Master Cake,damascus,syria,master-cake,draft,restaurant,2023-10-12 11:07:53.518423 +00:00,,,false
1eb2b98e-4cf2-4e51-b378-038d2c035b90,0101000020E61000004BCDFD599C1C424087D6B3B578C34040,Behind The Church,جادة الحسن خلف الداما روز على امتداد جامع الحسن,ست الشام,Set Al Sham,damascus,syria,set-al-sham,draft,restaurant,2023-10-12 11:07:53.518423 +00:00,,,false
410a93a8-acd9-406b-9f3b-8f7efd78ecb5,0101000020E6100000681248CBF92442409950B9703DC04040,مشروع دمر جانب بوظة امية,مشروع دمر جانب بوظة امية سوق الجزيرة السابعة,بون جوس,Bon Jos,damascus,syria,bon-jos,draft,restaurant,2023-10-12 11:07:53.518423 +00:00,,,false
82c02f65-e04e-410c-94dd-9c7595822e19,0101000020E610000020D3FB421F204240EC6FA69584C04040,مزة-ساحة المواساة,مزة-ساحة المواساة,فروت بوكس,Fruit Box,damascus,syria,fruit-box,draft,restaurant,2023-10-12 11:07:53.518423 +00:00,,,false
9de0f7d2-6770-4dd6-86c8-bb4a42446eca,0101000020E6100000E8B1FBC88C244240E0ECBD9578C24040,مزة جبل عند موقف الفتح,مزة جبل عند موقف الفتح - نفس عنوان مطعم صاجيات محمرة وقشقوان,فلافل الدمشقي,Falafel Al Dimashqi,damascus,syria,falafel-al-dimashqi,draft,restaurant,2023-10-12 11:07:53.518423 +00:00,,,false
a1ce952d-388d-4035-ba36-bb5f7fddaf1e,0101000020E6100000AD2271C950264240268F23ADE3BF4040,"Facing  Madfaa Garden, Fransabank Entrance, next to Al Ruwad Institute.",مواجه حديقة المدفع، دخلة فرانسبنك ، بجانب معهد الرواد .,سناك الرواد,Al Ruwad Snack,damascus,syria,al-ruwad-snack,draft,restaurant,2023-10-12 11:07:53.518423 +00:00,,,false
ca542a55-7d1a-4ae9-b348-92886257f3a0,0101000020E610000038BCFF134C244240887A66EE46C04040,Bab Musalla Roundabout - the beginning of Al-Mujtahid Road,دوار باب مصلى - اول طريق المجتهد,عصير الجود,Jood Juice,damascus,syria,jood-juice,draft,restaurant,2023-10-12 11:07:53.518423 +00:00,,,false
60511ce1-0716-4b65-81a2-42b844b5283b,0101000020E6100000B5FBB8AAAA234240A78F65660BC34040,Next to Kafarsouseh park,تنظيم كفرسوسة مقابل حديقة التنظيم,بيت الشرق,Orient House,damascus,syria,orient-house,draft,restaurant,2023-10-12 11:07:53.518423 +00:00,,,false
a6a4dcbb-2a8f-418c-94cf-f6f782021bec,0101000020E6100000264BB568E41C42409CAFAB2CFEC24040,مهاجرين سكة موقف الشمسية,مهاجرين سكة موقف الشمسية,فلافل شمسية,Falafel Shamsieh,damascus,syria,falafel-shamsieh,draft,restaurant,2023-10-12 11:07:53.518423 +00:00,,,false
d477fc6a-0fed-4515-a498-b7853d13c04a,0101000020E6100000A2CEFD512B2542402B634BA843C24040,جزيرة 10 مواجه الاب تاون نفس عنوان مطعم بيتزا وسجق,جزيرة 10 مواجه الاب تاون نفس عنوان مطعم بيتزا وسجق,جست هوت دوغ,Just Hot Dog,damascus,syria,just-hot-dog,draft,restaurant,2023-10-12 11:07:53.518423 +00:00,,,false
087ebf6b-3fe0-4edc-bb2a-ebf571d4bd62,0101000020E61000009A7E0540C72242404C34CCF977C24040,Kafarsouseh - Damascino mall,كفرسوسة - دامسكينو مول - جانب باب المول - على الشارع العام ,نارة,Nara,damascus,syria,nara,draft,restaurant,2023-10-12 11:07:53.518423 +00:00,,,false
3954dd92-e3ad-4a8b-be2e-2389bca55f28,0101000020E6100000DB8E0475252642401407120CCEC14040,المالكي - افينيو مول,المالكي - افينيو مول,ابو راتب,Casper & Gambini's,damascus,syria,casper-gambini-s,draft,restaurant,2023-10-12 11:07:53.518423 +00:00,,,false
f466b1ab-470f-4c0d-afc9-9ba7c22e7dc4,0101000020E6100000232802C55D254240D7BC4FFA67BF4040,Al-Thawra Street - Yalbagha Complex,شارع الثورة - مجمع يلبغى,كاسبر اند ﻏﺎﻣﺒﻴﻨﻴﺰ,Mkani Restaurant,damascus,syria,mkani-restaurant,draft,restaurant,2023-10-12 11:07:53.518423 +00:00,,,false
f247e686-0ed5-4d85-8c7f-bad3e5005875,0101000020E610000062237B4AEF24424074EBDA8335C24040,"Al-Shaalan Haboubi, next to Dar Al-Salaam School",الشعلان حبوبي ثاني جانب مدرسة دار السلام,رود هاوس اكسبريس ,Bait Fairouz,damascus,syria,bait-fairouz,draft,restaurant,2023-10-12 11:07:53.518423 +00:00,,,false
8a55c225-8947-4f9d-82f6-87a77d7d6fd7,0101000020E6100000819F275426254240528BB9526CC24040,شعلان مقابل جلديات نجار,شعلان مقابل جلديات نجار,بيت فيروز,Baguette,damascus,syria,baguette,draft,restaurant,2023-10-12 11:07:53.518423 +00:00,,,false
6b9f30d5-48e5-405d-8221-20ff63f43878,0101000020E61000002E3DF5A3BC28424097883B07E4C54040,شعلان مقابل صيدلية الشعلان سوق التنابل,شعلان مقابل صيدلية الشعلان ومطعم الدي فود سوق التنابل,باغيت,Crepe de Paris,damascus,syria,crepe-de-paris,draft,restaurant,2023-10-12 11:07:53.518423 +00:00,,,false
9d2c945a-97b0-481b-bdcb-06decf17532c,0101000020E61000009AD12C5C182342402186A96F11C04040,مساكن برزة شارع العام بعد جامع الحسنين,مساكن برزة شارع العام بعد جامع الحسنين,كريب دو باريس,Mr Fruit,damascus,syria,mr-fruit,draft,restaurant,2023-10-12 11:07:53.518423 +00:00,,,false
5fc40b73-61cc-4a4f-b970-6ef006b88574,0101000020E6100000ADFF6B27E7254240F8C47C7190C24040,Cham City Center - floor 3,مول شام سنتر طابق 3,مستر فروت,Cham Grill Restaurant,damascus,syria,cham-grill-restaurant,draft,restaurant,2023-10-12 11:07:53.518423 +00:00,,,false
c068e7ea-494e-4b9f-b8c5-304a5fc29e7a,0101000020E610000063EEBD6CF91D4240DBD020476BBF4040,At the Julia Dumna Hotel,شارع 29 أيار فندق جوليا دومينا,شام غريل : مطعم ,Moscow,damascus,syria,moscow,draft,restaurant,2023-10-12 11:07:53.518423 +00:00,,,false
6364b635-f725-468a-ac3b-3436f142a53e,0101000020E6100000B6C70378282142401B3599D028C14040,"Mazzeh, Western Villas, next to Al-Mohammadi Mosque",فيلات غربية، جانب جامع المحمدي,موسكو,Big Tasty,damascus,syria,big-tasty,draft,restaurant,2023-10-12 11:07:53.518423 +00:00,,,false
6951c3f3-5335-46bd-91c1-270752ee1115,0101000020E6100000BA9F53901F20424063075B0D85C04040,مزة شيخ سعد جانب شاورما الربيع,مزة شيخ سعد جانب شاورما الربيع,بيغ تيستي,Falafel Ayash ,damascus,syria,falafel-ayash-,draft,restaurant,2023-10-12 11:07:53.518423 +00:00,,,false
73bfe688-539e-4bb1-ad13-e51170bb99b0,0101000020E6100000075C99E8DA2042400FA7A34E86C04040,"Mazze Jabal - after the police station at the Al-Fateh parking lot, next to the rose of Joury Rose",مزة جبل - بعد المخفر عند موقف الفتح جانب ورد جوري روز,فلافل عياش,Sajiat Muhammara & Kashkaval ,damascus,syria,sajiat-muhammara-kashkaval-,draft,restaurant,2023-10-12 11:07:53.518423 +00:00,,,false
6f7adb35-c18a-4d09-8844-5b4bd737983c,0101000020E610000099F948296C224240F9A4B0DEEAC14040,مزة-فيلات غربية-طلعة الاسكان-بناء الاسكان,مزة-فيلات غربية-طلعة الاسكان-بناء الاسكان,صاجيات محمرة وقشقوان,Cube Burger,damascus,syria,cube-burger,draft,restaurant,2023-10-12 11:07:53.518423 +00:00,,,false
640ec190-6a4c-41a7-9e2e-40244b9329f6,0101000020E6100000CC53CA29092842402663295013C34040,ساحة الامويين طريق الربوة باب حديقة تشرين,ساحة الامويين طريق الربوة باب حديقة تشرين,مقرمش ,Snack Alooush,damascus,syria,snack-alooush,draft,restaurant,2023-10-12 11:07:53.518423 +00:00,,,false
4b062aea-1cdc-4369-8def-f03fb2317989,0101000020E6100000E30B0700162342405F71C49C18C04040,ساحة القصور بجانب اكشن بيتزا,ساحة القصور بجانب اكشن بيتزا,كيوب برغر,Mulberry Juice,damascus,syria,mulberry-juice,draft,restaurant,2023-10-12 11:07:53.518423 +00:00,,,false
8713bee8-443b-49ad-802c-4b60a6e21879,0101000020E61000002688FC2B12284240E107086230C64040,"Kafarsouseh - Cham City Center, Floor E",كفرسوسة - شام سيتي سنتر، الطابق E,سناك علّوش,Domo Pizza,damascus,syria,domo-pizza,draft,restaurant,2023-10-12 11:07:53.518423 +00:00,,,false
9692f1d9-8e88-4f87-8cf3-1b15a8a67b3b,0101000020E6100000CD07A10FD82442405998322E24C34040,Qasioun Mall,حاميش قاسيون مول,عصائر ميلبوري,Charlees Plus,damascus,syria,charlees-plus,draft,restaurant,2023-10-12 11:07:53.518423 +00:00,,,false
ad0f8909-cdd6-4fe7-afdc-707bd150850b,0101000020E6100000BA9D433AB82442402F1F41D846C24040,"Al-Afif, Next to ""Al-jisr Center""","أول طلعة العفيف، مقابل ""سنتر الجسر""",دومو بيتزا ,Nutella House,damascus,syria,nutella-house,draft,restaurant,2023-10-12 11:07:53.518423 +00:00,,,false
bbe5943e-ec48-41ac-875b-4cdf0611c6b6,0101000020E6100000B2AC4555DD2542401EADA4F450C24040,Shaalan In front of Byblos Bank,شعلان  مقابل بنك بيبلوس,تشارليز بلس,Dolce Forno ,damascus,syria,dolce-forno-,draft,restaurant,2023-10-12 11:07:53.518423 +00:00,,,false
77cb8333-a40e-495a-ae85-5d587ba45d0d,0101000020E61000000CA8BBDB8A214240812AA8876CC14040,May 29 Street,شارع 29 ايار,نوتيلا هاوس,Abu Hasan,damascus,syria,abu-hasan,draft,restaurant,2023-10-12 11:07:53.518423 +00:00,,,false
e813b9e3-3786-459e-a146-ab01e2994833,0101000020E6100000435187B2C3244240A6C24C9923C24040,Al-Mouwasat Roundabout - Near Nabil Nafisa,دوار المواساة - جانب نبيل نفيسة,دولشه فورنو ,Hamdan,damascus,syria,hamdan,draft,restaurant,2023-10-12 11:07:53.518423 +00:00,,,false
5658d25d-61c0-4812-b47d-f1909576eb25,0101000020E610000052E7BC8C03254240976DE9C963C24040,Malki,جانب مول المالكي مول الحلواني,حمدان ,Gusto,damascus,syria,gusto,draft,restaurant,2023-10-12 11:07:53.518423 +00:00,,,false
1c0fd7aa-3415-4348-9638-ab5df6fea2f2,0101000020E610000073B89897AA20424002DBDA251EC04040,Opposite to Al Sobky Park,شعلان-مقابل حديقة السبكي,تريسيز كافيه ,Heny,damascus,syria,heny,draft,restaurant,2023-10-12 11:07:53.518423 +00:00,,,false
cfab3d09-ac25-4a92-8750-25dd7eba3530,0101000020E6100000FE2A02946D2842406AA78348C8C24040,"Highway, Opposite to  AlJalaa Hotel","Damascus, Mezzeh , Highway, Opposite to  AlJalaa Hotel",غوستو,Shish & Kafta,damascus,syria,shish-kafta,draft,restaurant,2023-10-12 11:07:53.518423 +00:00,,,false
25868468-787f-4665-bfa2-0c235fc7286f,0101000020E61000007AE084BECB1F42403177F37515C04040,مقابل نادي الجلاء - اتستراد المزة,مقابل نادي الجلاء - اتستراد المزة,شيش وكفتة,Julia Dumna,damascus,syria,julia-dumna,draft,restaurant,2023-10-12 11:07:53.518423 +00:00,,,false
4275d362-d026-4dca-a62c-8be669c23917,0101000020E6100000FC2603F6071D4240A14BF6D744C34040,باب شرقي حارة الزيتون,باب شرقي حارة الزيتون,جوليا دومنا,Oriental,damascus,syria,oriental,draft,restaurant,2023-10-12 11:07:53.518423 +00:00,,,false
d991d8ef-2bc7-4fa4-bc1d-75ecacbff300,0101000020E6100000BC87F84591254240AC8EFBDA23C24040,الاب تاون,الاب تاون,السماح عربشة اخوان,Wing Over,damascus,syria,wing-over,draft,restaurant,2023-10-12 11:07:53.518423 +00:00,,,false
715f3bac-edc8-4e9c-a2b3-7f3613c861ae,0101000020E61000005D33D858B2234240FF452B523CC24040,فندق الشام شارع ميسلون,فندق الشام شارع ميسلون جانب بنك بيمو,اورينتال,Planta,damascus,syria,planta,draft,restaurant,2023-10-12 11:07:53.518423 +00:00,,,false
9630a056-3cd2-4b34-a737-327f549c212b,0101000020E61000003B8B41D4BB1D4240D320DCCFEFC34040,"Al-Jahiz Al-Nazla Park, opposite the Badr Mosque",حديقة الجاحظ النزلة المقابلة لجامع بدر,وينغ اوفر,AL Khanom,damascus,syria,al-khanom,draft,restaurant,2023-10-12 11:07:53.518423 +00:00,,,false
8f755b2a-744f-46c4-bcdf-93b9021b4885,0101000020E6100000388D0653C1244240ECBC110633C24040,مجتهد-مدرسة ابن زيدون,مجتهد-مدرسة ابن زيدون,الخانم,Beans House,damascus,syria,beans-house,draft,restaurant,2023-10-12 11:07:53.518423 +00:00,,,false
077eca85-b87a-4ed2-8279-7b4e469c7618,0101000020E61000007ABF55C7BF1F42401BE7A17C62BF4040,Shaalan opposite Gimni,شعلان مقابل جيميني,نورسين,Frio,damascus,syria,frio,draft,restaurant,2023-10-12 11:07:53.518423 +00:00,,,false
47ca54f4-247a-43a9-8bcc-1109bc7af89a,0101000020E61000008643888E11284240234808030DC34040,مزة - دوار الشرقية - مجمع هيك شي,مزة شرقية - مجمع هيك شي -  طابق اول,بيت الفول,Chocolate Bar,damascus,syria,chocolate-bar,draft,restaurant,2023-10-12 11:07:53.518423 +00:00,,,false
3d842da3-a0cb-4ec7-b3ca-2c5774ab3ff4,0101000020E6100000B823F7CF2E244240149D3C976FC24040,Across from the Saudi Arabia Embassy,أبو رمانة  مقابل السفارة السعودية,شوكليت بار,Cali,damascus,syria,cali,draft,restaurant,2023-10-12 11:07:53.518423 +00:00,,,false
a86e5991-8913-4e74-8c80-48ce728678e9,0101000020E61000000113FA910925424096A5E727E6C14040,"Saudi embassy street, near restaurants square",طلعة السفارة السعودية قبل ساحة المطاعم                                                                                                                                                                                                   مطعم الفاروق,النبيل ,AL Basha,damascus,syria,al-basha,draft,restaurant,2023-10-12 11:07:53.518423 +00:00,,,false
4a568cfb-3225-4138-9ca8-ff3ca61a3935,0101000020E6100000045A78661B28424074E27A2DCBC24040,Extension of Blutower Hotel in front of Pop One Restaurant,امتداد فندق بلوتاور دخلة مطعم البوب ون,الباشا,Maamoul & Knafeh Jaara,damascus,syria,maamoul-knafeh-jaara,draft,restaurant,2023-10-12 11:07:53.518423 +00:00,,,false
8f634f38-001b-4e8b-82d8-3457291d971d,0101000020E6100000D459773DE224424037727A6A37C24040,The field under the bridge complex Big 5,الميدان تحت الجسر مجمع بيغ 5,بيتوتوا,Abou Abdo Juice World,damascus,syria,abou-abdo-juice-world,draft,restaurant,2023-10-12 11:07:53.518423 +00:00,,,false
14b73e0f-e773-4912-b9e0-7b03bf16c3c1,0101000020E6100000EDB0B24B0E25424006CDD7FA5CC24040,Al-Shaalan opposite the Fine Arts Library,الشعلان مقابل مكتبة الفنون الجميلة,معمول و كنافة جعارة,ZigZag Saj,damascus,syria,zigzag-saj,draft,restaurant,2023-10-12 11:07:53.518423 +00:00,,,false
7fb47a30-ca6c-4ccd-87f0-fe580e4ccb8a,0101000020E6100000768E5C92DE25424070AB49856BC24040,Shaalan opposite the Royal Restaurant,شعلان مقابل مطعم رويال,زيك زاك صاج,Tamari Almazaq Altayeb,damascus,syria,tamari-almazaq-altayeb,draft,restaurant,2023-10-12 11:07:53.518423 +00:00,,,false
8cb801fb-7dc4-4d51-bf7a-8a5fe8a43f34,0101000020E6100000A6AAF9BFDD224240A00027676AC04040,كفرسوسة - جانب نادي محافظة دمشق,"انتباه -  تم تعديل عنوان المطعم الى منطقة كفرسوسة 
كفرسوسة - جانب نادي محافظة دمشق- بناء اسود 
يرجى الانتظار امام البناء حصراً والتواصل مع الانترفون داخل البناء لتسليمك الطلب من قبل المطعم ",شوكو سوامب  ,Sakbeh,damascus,syria,sakbeh,draft,restaurant,2023-10-12 11:07:53.518423 +00:00,,,false
f7964aab-e223-4ea9-ba03-1b65cde26f03,0101000020E6100000B8F7BA560C2442404301FCCF71C24040,May 29 Street in front of Al Sharq Hospital,شارع 29 ايار مقابل مشفى الشرق,تماري المذاق الطيب,Ayar Foods,damascus,syria,ayar-foods,draft,restaurant,2023-10-12 11:07:53.518423 +00:00,,,false
996d5099-41c5-4740-b9d6-ca8f256f60dd,0101000020E6100000571995ED2625424075871C746CC24040,فرع التنظيم اول دخلة بعد الدوار جانب مطعم رمان,فرع التنظيم اول دخلة بعد الدوار جانب مطعم رمان,سكبة,Fireman Burger,damascus,syria,fireman-burger,draft,restaurant,2023-10-12 11:07:53.518423 +00:00,,,false
528a832e-1b55-4909-93eb-c8b585c33799,0101000020E6100000A84A84DB14234240488577DA16C04040,الشعلان سوق التنابل الدي فود سابقا,الشعلان سوق التنابل الدي فود سابقا,ابو عبدو الروضة,Bopeyes,damascus,syria,bopeyes,draft,restaurant,2023-10-12 11:07:53.518423 +00:00,,,false
09fad4e3-0f95-4a7a-a02e-f9c07bcf1a6c,0101000020E61000009FE5BB8CC9224240B727486C77C24040,عند مفرق الجمالة,عند مفرق الجمالة,فايرمان,Foul & Tamees,damascus,syria,foul-tamees,draft,restaurant,2023-10-12 11:07:53.518423 +00:00,,,false
a8e7c3dd-c25b-4e8c-a741-0e906196c080,0101000020E61000000A0962EAF82342409A877E3352C24040,شام سيتي سنتر طابق قبو,شام سيتي سنتر طابق قبو,اي كيز,Wazzup Burger,damascus,syria,wazzup-burger,draft,restaurant,2023-10-12 11:07:53.518423 +00:00,,,false
ff15f0b0-a868-4be8-8496-c4f93e04b0a2,0101000020E6100000D32058974B244240992D380778C24040,ساحة القصور مقابل جامع الحسن,ساحة القصور مقابل جامع الحسن,فريو,Al Nabil,damascus,syria,al-nabil,draft,restaurant,2023-10-12 11:07:53.518423 +00:00,,,false
25462c5f-5fcc-4f9c-8495-6cfcce8b5ed1,0101000020E6100000D275FAA407284240511C384E27C34040,مول المالكي الطابق الارضي,مول المالكي الطابق الارضي,بابايز,Pizza Di Roma,damascus,syria,pizza-di-roma,draft,restaurant,2023-10-12 11:07:53.518423 +00:00,,,false
ec2fb707-3c3e-4c35-9777-3bf274cc9ec8,0101000020E6100000F7E78113FA234240E0645DD455C24040,مقابل المدرسة الاميركية بجانب الاسدي العقارية,مقابل المدرسة الاميركية بجانب الاسدي العقارية,فول و تميس,Sajal,damascus,syria,sajal,draft,restaurant,2023-10-12 11:07:53.518423 +00:00,,,false
ee62514c-031a-41c8-8dd0-c2c029fbc207,0101000020E610000059541FA317234240CF0CC9661AC04040,Abu Rummaneh - next to Al-Jahez Park,ابو رمانة - حديقة الجاحظ - جانب دو آند كو,بيتزا دي روما,Spazzio Pizza,damascus,syria,spazzio-pizza,draft,restaurant,2023-10-12 11:07:53.518423 +00:00,,,false
1b06725c-2e0d-467e-98fb-4efe19407a75,0101000020E6100000DC91FB6717234240CA008A7017C04040,Al-Qusour Square opposite Cake Art,ساحة القصور مقابل كيك ارت,صاجال,Dopamine,damascus,syria,dopamine,draft,restaurant,2023-10-12 11:07:53.518423 +00:00,,,false
a329319c-e35a-4dcb-b107-8d93e64c4307,0101000020E61000006E8A8529E32442402AB9377D45C24040,"Cham City Center, Floor E",شام سنتر مول ، طابق E,الركن الفرنسي,D2ue,damascus,syria,d2ue,draft,restaurant,2023-10-12 11:07:53.518423 +00:00,,,false
1ee355d6-6047-4579-ad45-b5fa562d05a6,0101000020E6100000773361033B234240578CE35510C04040,"Cham City Center, Floor E",كفرسوسة - شام سيتي سنتر، الطابق E,سبازيو بيتزا,Charlees,damascus,syria,charlees,draft,restaurant,2023-10-12 11:07:53.518423 +00:00,,,false
ce9ef465-70d1-4688-8a45-0fbeb24353e3,0101000020E61000006B2BF6975D25424054FDCE1F68BF4040,Tanzeem Kafarsoseh - Damsqino mall - 2th floor,تنظيم كفرسوسة - دامسكينو مول - طابق B2,عرانيس المشروع,Beit Al Mukhtar,damascus,syria,beit-al-mukhtar,draft,restaurant,2023-10-12 11:07:53.518423 +00:00,,,false
8d83eb37-487d-4e31-869b-14b9ef10e3ad,0101000020E6100000B85749D87523424028C7F01A6CC24040,"ميدان , مول ماسا بلازا , طابق ارضي","ميدان , مول ماسا بلازا, طابق ارضي",دويه,Wingo,damascus,syria,wingo,draft,restaurant,2023-10-12 11:07:53.518423 +00:00,,,false
b9e5ee65-70ea-4985-9c12-79dde780f28f,0101000020E6100000F86DA9FF03214240F329196354C04040,"Malki, Restaurant Square","المالكي - مقابل جامع أنس بن مالك
الدخول من الباب الخلفي والانتظار بالصالة الخلفية / الرجاء الوقوف امام المطعم لانتظار الطلب",بوماريا,Duomo Milan,damascus,syria,duomo-milan,draft,restaurant,2023-10-12 11:07:53.518423 +00:00,,,false
783b874c-22d9-4a4c-b1cb-1765513c5a22,0101000020E6100000EA5055BA1E234240FCF5338A1FC04040,مساكن برزة حاميش قاسيون مول,مساكن برزة حاميش قاسيون مول,بيت المختار,Al Sultan Palace,damascus,syria,al-sultan-palace,draft,restaurant,2023-10-12 11:07:53.518423 +00:00,,,false
b31327bf-2c96-4dc5-a950-d65d8fdc5c62,0101000020E6100000E68DF6ECF71E4240303AACB2E7BF4040,Mazzeh Highway - opposite the al iscan sortie at the signal,مزة اتستراد - مقابل طلعة الإسكان عند الإشارة,وينجو ,Al Tayeb,damascus,syria,al-tayeb,draft,restaurant,2023-10-12 11:07:53.518423 +00:00,,,false
1f82b286-f377-462b-b0bf-e141cecb47bb,0101000020E61000003A8401B6C92242404CBCA88276C24040,شام سيتي سنتر، الطابق E,شام سيتي سنتر، الطابق E,مالتي كالتي ,Cook Door,damascus,syria,cook-door,draft,restaurant,2023-10-12 11:07:53.518423 +00:00,,,false
76c99e7e-7836-490c-889b-9ed483ad25ce,0101000020E6100000BEE2250FF6244240A1B227A2DBC24040,ساحة الهدى,ساحة الهدى,دومو ميلان,Makulat AlMahata,damascus,syria,makulat-almahata,draft,restaurant,2023-10-12 11:07:53.518423 +00:00,,,false
b8c528ba-5664-4290-be86-6ad61f097608,0101000020E6100000F0C69B5FC12342401C73E83E4AC24040,Maleki - Avenue Mall,مالكي - أفينو مول - طابق  اول,قصر السلطان,Caspresso By Casper & Gambini's,damascus,syria,caspresso-by-casper-gambini-s,draft,restaurant,2023-10-12 11:07:53.518423 +00:00,,,false
d7375fe8-e366-4825-a7dd-f089b93498f9,0101000020E6100000EE6216B1BA2542406D0613DA4DC24040,Behind Lewan Sweets,"يجب الوقوف امام المطعم لانتظار الطلب حصرا 
عنوان المطعم الجسر الابيض -الطلياني - قرب الليوان",الطيب ,Kaza Miza,damascus,syria,kaza-miza,draft,restaurant,2023-10-12 11:07:53.518423 +00:00,,,false
94947c23-37f6-493d-8e5d-67193a36f632,0101000020E610000033D8BBDCB32442409F417DAA8EC24040,Abu Rummaneh -Al jahez Parking,أبو رمانة - كراج الجاحظ,كوك دور,Hassoun,damascus,syria,hassoun,draft,restaurant,2023-10-12 11:07:53.518423 +00:00,,,false
6fac0e73-b6a0-4bc3-a2d2-102749ea2924,0101000020E6100000B6099C11CA224240A6CE693776C24040,May 29 Street next to Abu Shaker juice,شارع 29 ايار جانب عصير ابو شاكر,ماكولات المحطة,Bity Bite,damascus,syria,bity-bite,draft,restaurant,2023-10-12 11:07:53.518423 +00:00,,,false
a537ca3c-1027-48ea-94ae-f51941dee142,0101000020E6100000473D65B12427424017ADAB1BD2BF4040,بعد مشفى بديع حمودة,بعد مشفى بديع حمودة مواجه مطعم فيرست آند بيست,كاسبريسو,Romero,damascus,syria,romero,draft,restaurant,2023-10-12 11:07:53.518423 +00:00,,,false
02ff7402-1395-4013-be55-127de35eb55f,0101000020E61000008BA120A1FB244240053D691BDEC24040,المالكي مول المالكي افينو مول -طابق قبو -1 ,المالكي مول المالكي افينو مول -طابق قبو -1 ,كزا ميزا,Big Tasty Express,damascus,syria,big-tasty-express,draft,restaurant,2023-10-12 11:07:53.518423 +00:00,,,false
20213246-3f16-4cdc-aa14-faafc968df34,0101000020E6100000E720853E1A2342404B0EF17205C04040,Bab Musala,باب مصلى  مفرق الصناعة,بايتي بايت,Al Zain Chicken ,damascus,syria,al-zain-chicken-,draft,restaurant,2023-10-12 11:07:53.518423 +00:00,,,false
f3723995-39e1-4983-85eb-1b4c362ab87b,0101000020E6100000C8A55CA7B225424036065BF467C24040,Taliani - Next to Kaza Miza Restaurant,طلياني - جانب مطعم كزا ميزا - خلف بوظة وحلويات الليوان,روميرو,Al Sahloul,damascus,syria,al-sahloul,draft,restaurant,2023-10-12 11:07:53.518423 +00:00,,,false
572d9817-dc25-46d8-949d-93ea2906e728,0101000020E61000002D923CF885224240EB9A7FAA40C24040,Behind Cham Center Mall,خلف الشام سنتر، مجمع المطاعم,بيغ تيستي اكسبريس,Nino,damascus,syria,nino,draft,restaurant,2023-10-12 11:07:53.518423 +00:00,,,false
b17d1d4c-0414-46f3-9c7f-3266a3dcc8a4,0101000020E61000004D6A26E7DD2442402505F5B12BC24040,شارع 29 ايار دخلة شاورما ابو العبد ، منتصف دخلة المطعم الصحي ,شارع 29 ايار دخلة شاورما ابو العبد ، منتصف دخلة المطعم الصحي ,دجاج الزين,Zain Al Sham Kitchen,damascus,syria,zain-al-sham-kitchen,draft,restaurant,2023-10-12 11:07:53.518423 +00:00,,,false
c561589f-8035-48e2-8dec-f504e6ee55e8,0101000020E6100000A65389780C254240CA641F01AFC24040,حديقة تشرين مجمع شام ستون,حديقة تشرين مجمع شام ستون,السحلول,Naughty Burger,damascus,syria,naughty-burger,draft,restaurant,2023-10-12 11:07:53.518423 +00:00,,,false
cecd6b64-f5e8-4658-a142-e7e75c759b49,0101000020E6100000C487A79175254240E488EFA31EC24040,ساحة عرنوس خلف كافيتيريا يامرحبا,ساحة عرنوس خلف كافيتيريا يامرحبا,مطبخ زين الشام,Luqmah Al Mashi,damascus,syria,luqmah-al-mashi,draft,restaurant,2023-10-12 11:07:53.518423 +00:00,,,false
ce2b77a6-9387-4d7f-8d73-5fa5a50d4f7c,0101000020E61000000E6A5C8B5826424080588000E3BF4040,Kafarsouseh,كفرسوسة تنظيم، مقابل المدرسة الايرانية,نوتي برغر,Mauve K,damascus,syria,mauve-k,draft,restaurant,2023-10-12 11:07:53.518423 +00:00,,,false
7a0e0acb-429a-45ce-9f9e-64b652de420c,0101000020E6100000FDB50600D82442403864872107C24040,"Brazil Street, along Hamra Street, next to the Charitable Relief Society, facing the Ministry of Industry",شارع البرازيل امتداد شارع الحمرا جانب جمعية الاسعاف الخيري مواجه وزارة الصناعة,ميرلان,Aroma Cafe,damascus,syria,aroma-cafe,draft,restaurant,2023-10-12 11:07:53.518423 +00:00,,,false
b8c04b82-d1d5-49ea-999e-6c42441bc00b,0101000020E610000079C0C80D37254240561276DD1DC24040,Bab Mousalla roundabout - Almoujtahed St.,دوار باب مصلى اول طريق المجتهد - باب خلفي,موف ك,Al Taj Sweets,damascus,syria,al-taj-sweets,draft,restaurant,2023-10-12 11:07:53.518423 +00:00,,,false
a690affe-0857-4d1b-bd70-a72cd09ad410,0101000020E6100000AD6684545D254240159DFA7A1DC24040,"Opposite Marina Shop,Beside Japanese Embassy","Damascus, Abu Remaneh, Opposite Marina Shop,Beside Japanese Embassy",اروما كافيه,Hanabi Sushi Bar,damascus,syria,hanabi-sushi-bar,draft,restaurant,2023-10-12 11:07:53.518423 +00:00,,,false
33f1e5b1-882b-41a5-8525-b125750ba9e4,0101000020E6100000AF807CE806244240B9F5818173C24040,ساحة النجمة مقابل دار السلام,ساحة النجمة مقابل دار السلام,حلويات التاج,Bait Yaqut,damascus,syria,bait-yaqut,draft,restaurant,2023-10-12 11:07:53.518423 +00:00,,,false
08a8e2fb-03b1-460c-817c-54434a0a6ed1,0101000020E6100000E672E6CBC9244240F0C063EC42C24040,"امتداد فندق الشام مقابل دامر للحلويات
العنوان للسائق : مواجه فندق امية _جانب صالة امية للعرض والبيع _دخلة سيرونيكس للصيانة",مواجه فندق امية _جانب صالة امية للعرض والبيع _دخلة سيرونيكس للصيانة / الباب الخلفي للمطعم,هنابي سوشي بار,Fabilos,damascus,syria,fabilos,draft,restaurant,2023-10-12 11:07:53.518423 +00:00,,,false
43ae1e07-b110-4018-bdc2-9a64ac0710a6,0101000020E6100000E30B0700162342405F71C49C18C04040,شعلان - حبوبي ثاني,شعلان - حبوبي ثاني,فابيلوس,Doors,damascus,syria,doors,draft,restaurant,2023-10-12 11:07:53.518423 +00:00,,,false
423d0fa2-2995-46ef-a8cf-f43a8ef4ab86,0101000020E61000003CF0F7AC67244240F66228275AC24040,"Damascus, Malki , Abdul Mun'em Riad Street",المالكي - شارع عبد المنعم رياض ، جانب ماسة بلازا,بيتزارو ,Diwan Al Muhanna,damascus,syria,diwan-al-muhanna,draft,restaurant,2023-10-12 11:07:53.518423 +00:00,,,false
6e3e9f49-57a7-4253-a977-5e819a673df2,0101000020E61000005D9C42F861264240FAA70AFC17C24040,"Kafarsouseh Mall, Cham City Center",كفرسوسة مول شام سيتي سنتر,دورز,Tik Tok,damascus,syria,tik-tok,draft,restaurant,2023-10-12 11:07:53.518423 +00:00,,,false
446de0d2-64d9-49c8-af84-98857585acd1,0101000020E6100000CB7C8B771524424080764D6979C24040,Abu Rummaneh - UAE Embassy Quarter - Health Organization entrance,ابو رمانة - حارة السفارة الاماراتية - دخلة منظمة الصحة,ديوان المهنا ,Choco Lounge,damascus,syria,choco-lounge,draft,restaurant,2023-10-12 11:07:53.518423 +00:00,,,false
c1683bf7-29d1-4a08-8f35-2ced83c73d72,0101000020E610000069CC1C79BD264240184F4EFEB8C04040,شارع الثورة - سوق الخجا,شارع الثورة - سوق الخجا,تيك توك,Jalal Sandwich,damascus,syria,jalal-sandwich,draft,restaurant,2023-10-12 11:07:53.518423 +00:00,,,false
a27ef16e-55bd-4d71-b1af-a9633e0975df,0101000020E6100000D352371F7020424017C38B7475C04040,Bab Al-Jabiya - Al-Bayt Street - opposite the Bab Al-Saghir cemetery,باب الجابية-شارع ال البيت-مقابل مقبرة باب الصغير,لذيذ ساندويش  ,Nefa Abu Al-Fouz,damascus,syria,nefa-abu-al-fouz,draft,restaurant,2023-10-12 11:07:53.518423 +00:00,,,false
5d9877dc-0ac1-4ba3-aa6f-87e706881537,0101000020E6100000DC91FB6717234240488577DA16C04040,"Opposite to Al-Sebki Park, next to Bologna Embassy",مقابل حديقة السبكي جانب السفارة البولونية,نيفا ابو الفوز,Choco Swamp,damascus,syria,choco-swamp,draft,restaurant,2023-10-12 11:07:53.518423 +00:00,,,false
3a610c65-fce5-4679-b502-7da1e20d86de,0101000020E6100000DF7C13D8D6244240C074200C38C24040,مزة فيلات غربية -  مجمع السندباد لاند-  بالقرب من محل عصائر توت شامي,"انتباه يمنع الوقوف في الاماكن المأجورة ، وعدم التجمع امام المطعم 
يرجى الوقوف امام مطعم توت شامي عند العامود الذي عليه لافتة طب اسنان
مزة فيلات غربية -  مجمع السندباد لاند-  بالقرب من محل عصائر توت شامي
",شوكو سوامب,Baflay Bros,damascus,syria,baflay-bros,draft,restaurant,2023-10-12 11:07:53.518423 +00:00,,,false
1a3b147e-ac97-4f38-98d2-7ee8bc57c7a2,0101000020E61000004E577F9D7E1F4240DD37A559ACBF4040,Kafar Sousah - Cham City Center 4rd Floor,كفرسوسة - شام سيتي سنتر طابق رابع,بفلاي بروز ,Roadhouse American Diner,damascus,syria,roadhouse-american-diner,draft,restaurant,2023-10-12 11:07:53.518423 +00:00,,,false
eea3512d-2e65-4d21-9fe8-c4558f83e89d,0101000020E6100000C6FCFDDEFD2542401F0069E6E6C14040,Shaalan - Across Sebki Park,شعلان الدخلة التي قبل مطعم شوكو سوامب مواجه حديقة السبكي ، ثالث حارة على اليمين,رود هاوس مطعم اميركي,Moto BURGER,damascus,syria,moto-burger,draft,restaurant,2023-10-12 11:07:53.518423 +00:00,,,false
e0c00ca6-b3ec-4eca-a099-d8fae3881331,0101000020E6100000AA5F6DB51C2342401E6482AF22C04040,"Inside the Damascus International Hotel, Al-Bahsa Street, towards the governorate",داخل اوتيل دمشق الدولي شارع البحصة باتجاه المحافظة,فروت كاب ,Terrace Pizza,damascus,syria,terrace-pizza,draft,restaurant,2023-10-12 11:07:53.518423 +00:00,,,false
f9da89f5-2680-426b-a7a7-8b859fe660db,0101000020E61000005E12252902254240AF9EAC7BD8C24040,The end of Sheikh Mohieldin Street,"اخر موقف الشيخ محي الدين , جانب جامع الحاجبية",تراس بيتزا,Maakulat Alzaim,damascus,syria,maakulat-alzaim,draft,restaurant,2023-10-12 11:07:53.518423 +00:00,,,false
66586c8b-ca60-4d4a-b7ae-326450bb7fea,0101000020E6100000530DF3CCE82442407D83A3A239C34040,مول الشام سيتي سنتر - ساحة المطاعم جانب فطيرة ومنقوشة,مول الشام سيتي سنتر - ساحة المطاعم جانب فطيرة و منقوشة,مأكولات الزعيم ,Kumpir King,damascus,syria,kumpir-king,draft,restaurant,2023-10-12 11:07:53.518423 +00:00,,,false
d7de5db2-30ca-45a8-be75-bacaf40dc26e,0101000020E6100000AC04078BF51D4240157CCB8311C44040,الطلياني جانب بوظة الليوان,الطلياني جانب بوظة الليوان,كومبير كينغ,Eureka,damascus,syria,eureka,draft,restaurant,2023-10-12 11:07:53.518423 +00:00,,,false
2779f400-a29a-40bb-88ad-4e19aca1e7d1,0101000020E61000006307F8E2C92242404002145D76C24040,خلف الركن الفرنسي شارع نسيب البكري,خلف الركن الفرنسي شارع نسيب البكري,يوريكا,Dr. Shawarma,damascus,syria,dr-shawarma,draft,restaurant,2023-10-12 11:07:53.518423 +00:00,,,false
21d02cd1-375a-45ff-b0ad-e1bcba0d73ba,0101000020E6100000D4BF5E40332542403D995EE6E4C14040,Island 3 Nazlat Al-Taqwa Mosque in front of the public park,جزيرة3 نزلة جامع التقوى مقابل الحديقة العامة,دكتور شاورما ,Kaza Chef,damascus,syria,kaza-chef,draft,restaurant,2023-10-12 11:07:53.518423 +00:00,,,false
431fc17c-922e-4e8b-bc47-b9d5bec5e799,0101000020E610000011F7FD40DE2842406A04136677C34040,Al Maliki - Avenue Mall,المالكي - أفينيو مول - طابق قبو,كزا شيف,Chicky,damascus,syria,chicky,draft,restaurant,2023-10-12 11:07:53.518423 +00:00,,,false
1c6da2e3-9218-47bf-95d3-68a15b829bb9,0101000020E6100000D17AF832511E4240B2683A3B99BF4040,Across from Four Seasons Hotel,أبو رمانة دخلة نادي الشرق,تشيكي,Umami,damascus,syria,umami,draft,restaurant,2023-10-12 11:07:53.518423 +00:00,,,false
f44f3dc8-3529-4ec8-aa82-f0d5aa3b74c4,0101000020E6100000F790CFAFD625424072EB0303E7C14040,"Al-Tijaria Corniche, the entrance to Al-Hamza and Al-Abbas, opposite Al-Hamza and Al-Abbas Park",كورنيش التجارة دخلة الحمزة والعباس مقابل حديقة الحمزة والعباس,اومامي,Super Star,damascus,syria,super-star,draft,restaurant,2023-10-12 11:07:53.518423 +00:00,,,false
95c9d1eb-d8ae-4756-bcf1-a3297bfa8fa8,0101000020E610000021297D7C1D1F4240082DDAD2D9BF4040,"Western Villas, next to the Lebanese Embassy","مزة فيلات غربية, جانب السفارة اللبنانية",سوبر ستار,Pizza Bite,damascus,syria,pizza-bite,draft,restaurant,2023-10-12 11:07:53.518423 +00:00,,,false
599b2d5f-088a-43ae-a2ce-a434005b4c47,0101000020E6100000C73C1B87B42342404DE5A37B0CC34040,بحصة شارع بور سعيد جانب الادارة العامة للتأمينات,بحصة شارع بور سعيد جانب الادارة العامة للتأمينات,بيتزا بايت,Falafel Al Masri,damascus,syria,falafel-al-masri,draft,restaurant,2023-10-12 11:07:53.518423 +00:00,,,false
6958a2fe-1bc5-45da-a6ff-cd05b058aa3f,0101000020E610000006CB0150FF254240082BE31913BF4040,"Mezzeh jabal, last line beside Al-Huda Mosque",مزة جبل اخر الخط جانب جامع الهدى,فلافل المصري,Mandi Star of Hadramout,damascus,syria,mandi-star-of-hadramout,draft,restaurant,2023-10-12 11:07:53.518423 +00:00,,,false
98609003-e9ad-44d9-a11d-e26566f56b1a,0101000020E6100000A6949D9F5E254240F4763A4668BF4040,muhajirin next to the Skill of the Grill,مهاجرين سكة بجانب سكيل اوف ذاغريل,مندي نجمة حضرموت ,Mazmzh,damascus,syria,mazmzh,draft,restaurant,2023-10-12 11:07:53.518423 +00:00,,,false
79cc0b31-b734-4d16-820e-cb99afb680ca,0101000020E610000006F7031E98244240D9FF29EA86C24040,Midan - Big 5 - 3rd floor,ميدان- بيغ5 - طابق3,مزمزة,Ohio Pizza,damascus,syria,ohio-pizza,draft,restaurant,2023-10-12 11:07:53.518423 +00:00,,,false
0bca5cff-11d6-4863-a8d7-1573158df569,0101000020E61000005869185FB024424063DD4FF832C24040,Midan- Massa Plaza mall  - behind Al-Hassan Mosque - opposite the Bank of Syria and Overseas,ميدان - مول الماسة بلازا (الطابق الثاني تحت الارضي ) - المول يقع خلف جامع الحسن - مقابل بنك سورية والمهجر,بيتزا اوهايو,Action pizza ,damascus,syria,action-pizza-,draft,restaurant,2023-10-12 11:07:53.518423 +00:00,,,false
be2c2fb8-4a2c-4238-ba9e-27f616b95193,0101000020E61000003A6D746B251C4240106E5B293EC34040,الروضة بعد مشفى بديع حمودة,الروضة المحاربين القدماء امام فيرست اند بيست بعد مشفى بديع حمودة,اكشن بيتزا,Nizos,damascus,syria,nizos,draft,restaurant,2023-10-12 11:07:53.518423 +00:00,,,false
b91dfdee-3205-406a-9dda-adeedde5dbef,0101000020E6100000B94DFA7338234240DCF5B10618C04040,"Mazzeh Villas, Al Huda Mosque - next to Dahbour's food",مزة فيلات جامع الهدى - بجانب مأكولات دحبور,الداغر,Abo Samhar,damascus,syria,abo-samhar,draft,restaurant,2023-10-12 11:07:53.518423 +00:00,,,false
ea89c322-556a-47c6-86a4-3a537b30d36a,0101000020E61000007E4DFF27392342403D9D0A3C20C04040,مجتهد/جانب صيدلية ماهر كبب,مجتهد/جانب صيدلية ماهر كبب,ابو سمهر,Mr Sandwich,damascus,syria,mr-sandwich,draft,restaurant,2023-10-12 11:07:53.518423 +00:00,,,false
29d310f7-8a7f-468e-a2a8-240d0f8be35e,0101000020E610000004E0027DE0264240CC6FE2F5AAC44040,"Damascus, Kafarsouseh, Damasquino Mall, B2","كفرسوسة, دامسكينو مول ، B2",مستر ساندويش,Hollywood Doughnuts,damascus,syria,hollywood-doughnuts,draft,restaurant,2023-10-12 11:07:53.518423 +00:00,,,false
b884524b-bea9-4f37-96de-9492733aff49,0101000020E6100000201573CED7244240D03582435EC24040,Abu Rummaneh  Restaurant's Square,ابو رمانة ساحة المطاعم,شوكو لانج ,Laziz Sandwich,damascus,syria,laziz-sandwich,draft,restaurant,2023-10-12 11:07:53.518423 +00:00,,,false
7b6bb12e-a551-41f3-865c-0d4178b1950c,0101000020E61000008D197652BE244240E91E650622C24040,دامسكينو ب2 كفرسوسة,دامسكينو ب2 كفرسوسة,هوليود دوناتس ,Choco Swamp Plus,damascus,syria,choco-swamp-plus,draft,restaurant,2023-10-12 11:07:53.518423 +00:00,,,false
25e64bfd-ef63-46ee-ab26-ba212bd23519,0101000020E6100000769A9A3E1A26424052B5402F1ABF4040,"East Rukn Al-Din, next to Tariq Ibn Ziyad Mosque",شرقي ركن الدين جانب جامع طارق بن زياد,شوكو سوامب بلس,Aroka,damascus,syria,aroka,draft,restaurant,2023-10-12 11:07:53.518423 +00:00,,,false
7e62a2ea-b9ab-4220-8285-e5ebcb4b8469,0101000020E61000001AB4809EC01D4240968C4A87DAC34040,Abu Rummaneh - Noura bus stop,ابو رمانة موقف نورا,اروكا,Nora,damascus,syria,nora,draft,restaurant,2023-10-12 11:07:53.518423 +00:00,,,false
121a6478-0f0f-4f8b-bf13-109d3c489089,0101000020E6100000B8697DDB5D2542408FC8D2E267BF4040,"جزماتية, مقابل حمام الرفاعي","جزماتية, مقابل حمام الرفاعي",نورا,Kweider,damascus,syria,kweider,draft,restaurant,2023-10-12 11:07:53.518423 +00:00,,,false
304cf30b-f610-41ff-9931-44f61a21aee5,0101000020E6100000415D49972323424036A650AB22C04040,Mashroaa Dummar - Sham market - ground level,مشروع دمر - سوق الشام - المنسوب الأرضي,قويدر,Fatera,damascus,syria,fatera,draft,restaurant,2023-10-12 11:07:53.518423 +00:00,,,false
f4cf8bd3-e1df-4f36-93bf-a4c3a7ffcb9e,0101000020E6100000734DFD932A204240DE2A3EF493BF4040,"Cham City Center , floor E","Damascus, Kafarsouseh, Cham City Center , floor E",شام غريل: اكسبريس,Cham Grill: Express,damascus,syria,cham-grill-express,draft,restaurant,2023-10-12 11:07:53.518423 +00:00,,,false
28371bf7-6622-415f-b22f-e1e69522f6c8,0101000020E6100000A1BAB9F8DB1C42402FE0025CD2C34040,Shaalan - Nora Station second habubi,شعلان موقف نورا حبوبي ثاني,جيميني,Gemini,damascus,syria,gemini,draft,restaurant,2023-10-12 11:07:53.518423 +00:00,,,false
00682be6-1011-407f-81ae-717a6cfc45c6,0101000020E6100000C34C3679A5244240921780E33EC24040,"Mazzeh Eastern villas, Farabi Street",مزة فيلات شرقية شارع الفارابي,باباي ,Popay,damascus,syria,popay,draft,restaurant,2023-10-12 11:07:53.518423 +00:00,,,false
f7367b27-5ae6-4891-97a5-ed1ab0c944c2,0101000020E6100000EE597CAFC6244240C71D46732AC24040,"Mashrou Dummar  Al-Trassat Street, next to Muhannad Pharmacy",مشروع دمر- شارع التراسات- جانب صيدلية مهند,ترويئة,Tarweaa,damascus,syria,tarweaa,draft,restaurant,2023-10-12 11:07:53.518423 +00:00,,,false
856c4f65-ea39-4f43-8f88-ebbed7e49a38,0101000020E61000005D9C42F861264240BC046522BEBF4040,بعد موقف نورا,"بعد موقف نورا, مقابل حديقة المدفع, نفس مطعم ايفا, الباب على اليمين مقابل حديقة المدفع",ايفا سكول باص,Eva School Bus,damascus,syria,eva-school-bus,draft,restaurant,2023-10-12 11:07:53.518423 +00:00,,,false
dea5bb5e-1b88-47ce-a7d7-e0b6f7605b42,0101000020E61000009D30FE097028424001F2CA9AFDC14040,Next to Doors Cafe,يجب الوقوف بالمكان التالي لانتظار الطلب : عند اول دخلة بفلاي عل طرف التاني المكان يلي ما في محلات قرب الشجر حصرا  _ الشعلان خلف موقف نورا ,مندي تنور و حطب,BAFLAY BURGER,damascus,syria,baflay-burger,draft,restaurant,2023-10-12 11:07:53.518423 +00:00,,,false
1a40820f-907a-462a-959a-c7c187e7c0c5,0101000020E610000070FCFD201A1C42402A4A956A17C34040,Midan - Jazmatiyeh - before the Al-Sahaba Mosque,ميدان-  جزماتية - قبل جامع الصحابة,طحين و عجين,Mandi Tanour & Hatab,damascus,syria,mandi-tanour-hatab,draft,restaurant,2023-10-12 11:07:53.518423 +00:00,,,false
b8499f50-a3e4-4058-9841-416a9808030d,0101000020E6100000069D103AE8244240904B1C7920C24040,Abou Roummaneh,ابو رمانة,33 chocolate,33 chocolate,damascus,syria,33-chocolate,draft,restaurant,2023-10-25 08:57:27.858491 +00:00,,,false
1b8056aa-416f-4430-9343-0749d9836aa8,0101000020E61000004D327216F62442408E40BCAE5FC24040,Shalaan,الشعلان,على عيني,3la 3eni,damascus,syria,3la-3eni,draft,restaurant,2023-10-25 08:57:27.858491 +00:00,,,false
433c3a8e-1434-459e-9e09-a36f0a24e3d3,0101000020E61000009352D0ED25254240A6D0798D5DC24040,Shalaan,الشعلان,85C Tea,85C Tea,damascus,syria,85c-tea,draft,restaurant,2023-10-25 08:57:27.858491 +00:00,,,false
e95cefeb-87fb-438f-af5e-81f06fec4945,0101000020E61000007B2E5393E02542403ACE6DC2BDBE4040,Midan,الميدان,ابو الجدي,Abo Al Jidi,damascus,syria,abo-al-jidi,draft,restaurant,2023-10-25 08:57:27.858491 +00:00,,,false
a1ec9e91-3f4b-411a-a424-8f9a65f95c5a,0101000020E61000002F9B6B5EF6254240130A117008BF4040,برج الروس جانب نوبار,برج الروس جانب نوبار,روندو,Tahin w Ajin,damascus,syria,tahin-w-ajin,draft,restaurant,2023-10-12 11:07:53.518423 +00:00,,,false
f6552364-46d2-460b-a2d9-816cf4d0411e,0101000020E61000000B75DC19BB23424017B0AA7F0CC34040,"M. Bash office, offices of the Nafez Effendi mosque",مهاجرين باشكاتب جانب جامع نافذ افندي,عصائر ابو عادل ,Shawarma Abo Obayda,damascus,syria,shawarma-abo-obayda,draft,restaurant,2023-10-12 11:07:53.518423 +00:00,,,false
9b917dde-b9bb-4ced-bdaa-899985e85edb,0101000020E61000004582EB82282542405FDDA9675EC24040,Al-Shaalan - Al-Khadra Market,الشعلان - سوق الخضرا - جانب عرق سوس الشعلان,كينغ اوفر,Abo Adel,damascus,syria,abo-adel,draft,restaurant,2023-10-12 11:07:53.518423 +00:00,,,false
2ff4c463-d7db-423f-a17e-2da785e55f85,0101000020E61000007D0E87003B234240F7B94EE110C04040,Kafarsouseh - Damasquino mall - 4,كفرسوسة - الدامسكينو مول - الطابق الرابع,ديب ان ديب,King Over,damascus,syria,king-over,draft,restaurant,2023-10-12 11:07:53.518423 +00:00,,,false
d46cd963-1c39-4b28-a56a-73c2e63f38a6,0101000020E6100000FA9C16172224424017205DAE76C24040,"Damascus, Abo Ramaneh, Mataem Square","ابو رمانة ساحة المطاعم, يرجى انتظار الطلب خارج المطعم ",كباية وبركاية,dipndip,damascus,syria,dipndip,draft,restaurant,2023-10-12 11:07:53.518423 +00:00,,,false
472acebf-3b0c-4e88-b51c-ef1fe9fc8233,0101000020E6100000650B188F182642406BDDFE4317C14040,"Khaled Bin Al Waleed Street, the entrance to Al Kindi Hospital - opposite Nour Al Huda Sweets",شارع خالد بن الوليد جانب فرن شريبيشات - مقابل حلويات نور الهدى,بيت التاكو,Kibbeh & Burakya,damascus,syria,kibbeh-burakya,draft,restaurant,2023-10-12 11:07:53.518423 +00:00,,,false
e5405839-eef1-4f4d-adfe-d63605d1daee,0101000020E6100000357CC9CEF42042402393210102C14040,Sheikh Saad,مزة  شيخ سعد,توتي فروتي,Tutti Fruity,damascus,syria,tutti-fruity,draft,restaurant,2023-10-12 11:07:53.518423 +00:00,,,false
9d3728e0-c989-447d-8ae4-aa8c9bc0a8e4,0101000020E610000064D384CC99254240548482EF89C34040,"Al Maysat Square, directly after the Ministry of Endowments",ساحة الميسات بعد وزارة الاوقاف مباشرة,زوربا,Zorba,damascus,syria,zorba,draft,restaurant,2023-10-12 11:07:53.518423 +00:00,,,false
506e3ab5-66bb-40d6-9a9b-e0113840d055,0101000020E61000007BF2F26CBD24424074C6626129C14040,"Al-Baramkeh - opposite the College of Fine Arts
",البرامكة - مقابل كلية الفنون الجميلة,مطعم كيو,Bassam Snack,damascus,syria,bassam-snack,draft,restaurant,2023-10-12 11:07:53.518423 +00:00,,,false
1070d4ce-3184-44da-b15b-fd8fd97c52c8,0101000020E610000091374C76E41F42405C11670BA9BF4040,مفرق الشعلان مقابل حديقة المدفع,مفرق الشعلان مقابل حديقة المدفع,سيفنتيس ,Seventies,damascus,syria,seventies,draft,restaurant,2023-10-12 11:07:53.518423 +00:00,,,false
0e22bd48-ce8c-4942-a0db-5d1be1a5e917,0101000020E61000006B5BDE66BB1F42407A03484463BF4040,Mazzeh ,مزة-دوار الشرقية - مجمع هيك شي - ط.ارضي,مأكولات الحمراء,Tartar By Merlan Sea Food,damascus,syria,tartar-by-merlan-sea-food,draft,restaurant,2023-10-12 11:07:53.518423 +00:00,,,false
2c92c437-1cb5-4a47-b5f5-f72bb87e762d,0101000020E61000007A55048B05244240191F873D44C24040,اتستراد المزة مقابل قصر العدل طابق 1+2,اتستراد المزة مقابل قصر العدل طابق 1+2,سينسز,Senses Restaurant Syria,damascus,syria,senses-restaurant-syria,draft,restaurant,2023-10-12 11:07:53.518423 +00:00,,,false
a0c1e7d3-3953-4d99-a264-63407367019d,0101000020E61000002D017CE0782342404ED965CF50C24040,Tanzim Kafarsouseh,تنظيم كفرسوسة - خلف وزارة الخارجية,مطعم رمان,Rman Restaurant ,damascus,syria,rman-restaurant-,draft,restaurant,2023-10-12 11:07:53.518423 +00:00,,,false
180814e7-7538-4124-b10c-4c4c0c7dd657,0101000020E6100000D16200137E2042401DB08ABB6AC04040,"Al-Maliki Restaurant Square, Al-Maliki Mall Road","مالكي , ساحة المطاعم طريق مول المالكي , جانب لافييت بيتزا",ار هاوس كوفي,R House Coffee,damascus,syria,r-house-coffee,draft,restaurant,2023-10-12 11:07:53.518423 +00:00,,,false
7635eaf9-7777-497d-aac7-69cf81728a28,0101000020E610000064D7EE058328424073190EB61EC24040,مزة - مجمع السندباد,مزة - مجمع السندباد,توت شامي,Mulberry,damascus,syria,mulberry,draft,restaurant,2023-10-12 11:07:53.518423 +00:00,,,false
a0a7e228-1aaa-4d4b-a976-a1cda3ec57f1,0101000020E61000001757859B461B42404FBAC2F507C64040,"Al-Rus Tower, opposite Al-Derwan, next to Adidas",برج الروس مقابل الديروان بجانب اديداس,عصير هاواي,Hawaii juice,damascus,syria,hawaii-juice,draft,restaurant,2023-10-12 11:07:53.518423 +00:00,,,false
d14ef480-68c9-49bc-880a-20ead9b3b7a1,0101000020E6100000AC787EACBB23424096FF14B71FC24040,طلعة مسجد العمري مقابل فرن الخيمة,طلعة مسجد العمري مقابل فرن الخيمة,تاتيان,Tatyan,damascus,syria,tatyan,draft,restaurant,2023-10-12 11:07:53.518423 +00:00,,,false
f4237790-2f7f-472a-bd6e-d24358af1e61,0101000020E6100000B8DE3EC4692542406157EE609FC24040,"Abu Rummaneh, Jahez Park","ابو رمانة, جانب حديقة الجاحظ",Aura by Dina Debs,Aura by Dina Debs,damascus,syria,aura-by-dina-debs,draft,restaurant,2023-10-12 11:07:53.518423 +00:00,,,false
671f0a25-799f-4bc0-ba9f-2f174e734835,0101000020E61000000E6BA6521E28424025FEEE3EC3C24040,ساحة عرنوس - جانب عصير أبو عبدو,ساحة عرنوس - جانب عصير أبو عبدو,شيك بيك,Chick Beak,damascus,syria,chick-beak,draft,restaurant,2023-10-12 11:07:53.518423 +00:00,,,false
747cb266-a0f9-4c9f-bdf4-b86418960302,0101000020E6100000AE211F91C2264240DB4CE8A2DFC44040,غساني- مواجه سيرجون سناك,غساني- مواجه سيرجون سناك,كراج كافيه,Garage Cafe,damascus,syria,garage-cafe,draft,restaurant,2023-10-12 11:07:53.518423 +00:00,,,false
379039b0-2420-4e9c-9b95-6e7b4acbc639,0101000020E6100000C118366FC12342403DF92E8420C24040,شارع الهجرة و الجوازات مقابل مدرسة الفنون,شارع الهجرة و الجوازات مقابل مدرسة الفنون,بوستان,Bostan,damascus,syria,bostan,draft,restaurant,2023-10-12 11:07:53.518423 +00:00,,,false
75ff3876-0a9f-4a15-a6aa-d10badae2951,0101000020E61000004D2A01CEDE224240EABB32DA70C04040,Across from Dar Al-Salam School,"شعلان مقابل مدرسة دار السلام
ممنووع الوقوف امام المطعم",كريزي كارت,Crazy Cart ,damascus,syria,crazy-cart,draft,restaurant,2023-10-12 11:07:53.518423 +00:00,,,false
ea629627-3803-4e99-9cbb-d8e0c61510a8,0101000020E6100000BAF8FCAC89204240B77D8FFA6BC04040,المزة - مجمع السندباد - مجمع up town,المزة - مجمع السندباد - مجمع up town,وافل ستيك,Zaki,damascus,syria,zaki,draft,restaurant,2023-10-12 11:07:53.518423 +00:00,,,false
8be10259-0b57-4ee5-a0a8-1b892d57e0aa,0101000020E6100000FD0BEB63912B4240A1AF494C8ABE4040,Jaramana - President Square - opposite MTN,جرمانا - ساحة الرئيس - مقابلMTN,كرم فروت,Waffle Stick,damascus,syria,waffle-stick,draft,restaurant,2023-10-12 11:07:53.518423 +00:00,,,false
c7901cf8-3134-473b-9c41-933d0f8334c1,0101000020E610000023B3A3060D1F424046C9B3E4D4BF4040,Abu Remmaneh,موقف نورة,نيزوس,Jazeel,damascus,syria,jazeel,draft,restaurant,2023-10-12 11:07:53.518423 +00:00,,,false
9ee4fd6b-495e-44d6-be28-8cb63129fbeb,0101000020E61000006B2BF6975D25424054FDCE1F68BF4040,Midan Mall Massa Plaza,ميدان مول ماسا بلازا,بيتوتي,Karam Fruit,damascus,syria,karam-fruit,draft,restaurant,2023-10-12 11:07:53.518423 +00:00,,,false
48c0c01b-2f63-42bc-b795-7e1e0a3605be,0101000020E610000083A60448DD204240C28C42F583C04040,Mazzeh - behind the housing - opposite Al Wahda Park,مزة-خلف الاسكان-مقابل حديقة الوحدة,فروج وائل,Rawan,damascus,syria,rawan,draft,restaurant,2023-10-12 11:07:53.518423 +00:00,,,false
564231d1-3064-4f3b-b9e8-8ccd6b569911,0101000020E6100000410B2A26C62742406B0004E600C34040,Al-Qusour next to Al-Qusour Gas Station,القصور بجانب كازية القصور -دخلة مقابل الكازية - ثاني بناء عاليسار بجانب مكتبة إبلا مقابل مكتب سومر العقاري طابق الثالث,دريم بايت,Baytoti,damascus,syria,baytoti,draft,restaurant,2023-10-12 11:07:53.518423 +00:00,,,false
34c6c059-080c-48c3-8a2e-89e60efd75fe,0101000020E610000061F481896425424079264DE64CBE4040,الميدان كورنيش بعد دار الايتام,الميدان كورنيش بعد دار الايتام,ايرون بار,Wael Chicken,damascus,syria,wael-chicken,draft,restaurant,2023-10-12 11:07:53.518423 +00:00,,,false
3742ecd7-c9cf-43f4-af21-10a3a6a397dd,0101000020E6100000821974BE2F264240B1BA59ACF6BE4040,"ميدان تحت جسر الميدان , قريب البيغ 5 , مقابل المخفر","ميدان تحت جسر الميدان , قريب البيغ 5 , مقابل المخفر",بيت ستوب,Dream Bite,damascus,syria,dream-bite,draft,restaurant,2023-10-12 11:07:53.518423 +00:00,,,false
2e84d1da-d015-4460-a8d7-9a73de97ff4b,0101000020E61000004C0148F11A1F4240A0A56DF498BF4040,"Mazza Gharbia, Tala Tower, inside Mammoth Club","مزة غربية , برج تالة , داخل نادي ماموث",فطيرة ومنقوشة ,Iron Bar,damascus,syria,iron-bar,draft,restaurant,2023-10-12 11:07:53.518423 +00:00,,,false
bdf0be42-7155-467a-bbe8-033402fda31a,0101000020E6100000870959CCBE2442400C38322C52C24040,"Next to Bank Byblos, Al-Ameer Ezz Al-Deen Street",شعلان  حارة بنك بيبلوس- جانب مطعم جيميني و ديلي سوشي  - شارع الأمير عز الدين,الفرن اللبناني ,Pit Stop,damascus,syria,pit-stop,draft,restaurant,2023-10-12 11:07:53.518423 +00:00,,,false
dd35a4a9-1148-42aa-8f7d-97f91500f1b7,0101000020E61000002D9D6A888524424006FD9EBB51C24040,ابو رمانة _شارع الجلاء,ابو رمانة شارع الجلاء بين السفارة السعودية وحيقة المدفع مقابل مجوهرات توفيق الحلاق,كريب & صاج ستيشن,Lebanese Bakery,damascus,syria,lebanese-bakery,draft,restaurant,2023-10-12 11:07:53.518423 +00:00,,,false
05dad618-a904-4b35-9bc4-a417ad904654,0101000020E6100000507F6A7A582942409AB31DD72FC44040,شرقي التجارة - جنب مدرسة الواقدي - جنب مدرسة الشرطة النسائية,شرقي التجارة - جنب مدرسة الواقدي - جنب مدرسة الشرطة النسائية,حلويات الرئيس,Pizza w Manoucheh,damascus,syria,pizza-w-manoucheh,draft,restaurant,2023-10-12 11:07:53.518423 +00:00,,,false
5ce6efe4-56e6-46eb-84ea-ab83b4b13eab,0101000020E6100000A4688AA5ED254240618DB3E908BF4040,ميدان تحت الجسر قريب البيغ5,ميدان تحت الجسر قريب البيغ5,حلويات و قطايف طنطا,Dream Juice,damascus,syria,dream-juice,draft,restaurant,2023-10-12 11:07:53.518423 +00:00,,,false
774698fa-044b-4218-8874-c8b49371ccb8,0101000020E6100000F76EFB37121C42402A8E03AF16C34040,مشروع دمر جزيرة 10 مواجه مطعم روندو,مشروع دمر جزيرة 10 مواجه مطعم روندو,شيش كباب,Mkarmesh,damascus,syria,mkarmesh,draft,restaurant,2023-10-12 11:07:53.518423 +00:00,,,false
03edd7d2-a10f-4c5a-9c91-2a9dfdf0a967,0101000020E61000006CFC913BCF234240D8433D7513C34040,جانب ناظم باشا موقف الباشكاتي,جانب ناظم باشا موقف الباشكاتي,حلويات الماهر,Shawarma Saad Aldin,damascus,syria,shawarma-saad-aldin,draft,restaurant,2023-10-12 11:07:53.518423 +00:00,,,false
63966d69-ce87-4469-b429-096a8f526490,0101000020E61000004E147C2EAE254240B8C0CC1446C24040,"Salhia, in front of Al-Hamra Theater",صالحية مقابل مسرح الحمراء,كاستيلا,Murad Sweets,damascus,syria,murad-sweets,draft,restaurant,2023-10-12 11:07:53.518423 +00:00,,,false
8b8eae16-96bd-477c-a3e4-16c5d807e44c,0101000020E61000003342CBFC9B254240DC9FAC9475C44040,ساحة شمدين مقابيل  جامع ومدرسة الركنيه,ساحة شمدين مقابيل  جامع ومدرسة الركنيه,مطبخ وحلويات الصديق ,Shawerma & Chicken Alqusur,damascus,syria,shawerma-chicken-alqusur,draft,restaurant,2023-10-12 11:07:53.518423 +00:00,,,false
3e9742c6-f7a7-40c0-9deb-0d2b5363d4f7,0101000020E6100000224F92AE991C4240D6C56D3480C34040,Mashrou3 Dummar,مشروع دمر,بن الشامي - مشروع دمر,ALShami Cafe-Mashroo3dummer,damascus,syria,alshami-cafe-mashroo3dummer,draft,restaurant,2023-10-25 08:57:27.858491 +00:00,,,false
f04b1709-e983-4495-8789-e2d79a34b30a,0101000020E6100000E8461EA93A264240FD0658714BBF4040,ميدان - الجزماتية - مقابل جامع الرفاعي,ميدان - الجزماتية - مقابل جامع الرفاعي,سويركيز,Al Maher Sweets,damascus,syria,al-maher-sweets,draft,restaurant,2023-10-12 11:07:53.518423 +00:00,,,false
89bad267-bfdd-4cc1-8bda-6b6eabda7438,0101000020E6100000D408C3A1B3234240DC6B9CA880C24040,"Abdel Moneim Riyad Street, opposite Al-Maliki Club
",شارع عبد المنعم رياض مقابل نادي المالكي,فروج المختار,Shareef Beik,damascus,syria,shareef-beik,draft,restaurant,2023-10-12 11:07:53.518423 +00:00,,,false
1fbf2e04-eeb4-49fe-9c5c-155ecc7a5c46,0101000020E6100000F73ACA3D34254240AE205902A1C24040,"Al-Hamra Street, next to Blue Tower - Arnous Park","شارع الحمرا, مقابل بلو تاور - حديقة عرنوس",سناك و مطبخ العماد,Al Hamra Foods,damascus,syria,al-hamra-foods,draft,restaurant,2023-10-12 11:07:53.518423 +00:00,,,false
fbe36019-d71b-49bb-bbb2-ccc05495bbea,0101000020E61000006B163FF81627424032A06A3687BE4040,زاهرة جديدة جانب ايماتيل,زاهرة جديدة جانب ايماتيل,مطبخ تيتا لطيفة,Castilla,damascus,syria,castilla,draft,restaurant,2023-10-12 11:07:53.518423 +00:00,,,false
c7ece513-59ac-4792-a3bf-339015e0abe4,0101000020E61000000C246229962842407576CF0D0FC24040,ساحة برج الروس مواجه صيدلية  نورا,ساحة برج الروس مواجه صيدلية  نورا,القيصر,Al Mukhtar Chicken,damascus,syria,al-mukhtar-chicken,draft,restaurant,2023-10-12 11:07:53.518423 +00:00,,,false
7c12ae4d-03ea-47e9-99f7-19e27104eb0d,0101000020E61000006877AB5BFB244240A88CC1BB43C44040,ساحة الشيخ ابراهيم,ساحة الشيخ ابراهيم,اوكتان كوفي,Snack & Kitchen Al-Emad,damascus,syria,snack-kitchen-al-emad,draft,restaurant,2023-10-12 11:07:53.518423 +00:00,,,false
e0a5e3a6-23e9-43eb-b433-6dcdf36cb03e,0101000020E61000003AA88ACA02284240A7A8C0EA44C34040,"Al-Qusour Square, in the direction of commerce, fourth building on the left",ساحة القصور باتجاه التجارة رابع بناء على اليسار,اولغاز كب كيك,Teta Latifa Catering,damascus,syria,teta-latifa-catering,draft,restaurant,2023-10-12 11:07:53.518423 +00:00,,,false
9a77c95f-b99c-48bb-9919-3011368d53ac,0101000020E6100000E30B0700162342405F71C49C18C04040,كفر سوسة,شام سيتي سنتر،الطابق E,دريم جوس,Fatera W Manqushe,damascus,syria,fatera-w-manqushe,draft,restaurant,2023-10-12 11:07:53.518423 +00:00,,,false
f1804b4e-1e51-4b6b-bae1-1d70b5598d66,0101000020E61000007C97F7DD1923424025954AF409C04040,"Damascus, Kafarsouseh, Cham Center",الشام سنتر - طابق E - نفس مطعم غراند مارت ,زمانو,Grand Mart Food,damascus,syria,grand-mart-food,draft,restaurant,2023-10-12 11:07:53.518423 +00:00,,,false
b2e6f722-7149-4844-be3f-fcd469bb5c83,0101000020E6100000BAD8B45208244240A72215C616C04040,Kafar Sousah,كفرسوسة,شاورما أنس,Anas Shawrma,damascus,syria,anas-shawrma,draft,restaurant,2023-10-25 08:57:27.858491 +00:00,,,false
4cd7d065-d58d-4c49-aa22-c24e6ce9579a,0101000020E61000000C6B32FC8A1C4240516D2E06A8C34040,مشروع دمر دوار التراسات,"مشروع دمر
مقابل صيدلية شمس
قريب من دوار التراسات
تحت الكراج 
الدخلة صغيرة قريبة من صيدلية شمس ومصبغة تويتي",عرايس,Crave It,damascus,syria,crave-it,draft,restaurant,2023-10-12 11:07:53.518423 +00:00,,,false
fffbae9c-a64c-4953-952d-c9d40df72ee4,0101000020E6100000F632FE3BAA254240BDFB46E825C24040,"Almohafaza Square, kaisar Hotel",ساحة المحافظة - فندق القيصر,بروتين بار,Kaisar,damascus,syria,kaisar,draft,restaurant,2023-10-12 11:07:53.518423 +00:00,,,false
d9a17280-78a3-49f7-b050-d27b4f52bc7a,0101000020E6100000531DF66B801F42409D64ABCBA9BF4040,مزة مول مقابل كازية السياسية,مزة مول مقابل كازية السياسية,اوركيد بيكري,Octane Coffee,damascus,syria,octane-coffee,draft,restaurant,2023-10-12 11:07:53.518423 +00:00,,,false
cab83239-2be9-4f9c-b543-99a5e6073736,0101000020E6100000A7CA9CD3512842400F93F45933C14040,باب شرقي القشلة مقابل فندق بيت زمان,باب شرقي القشلة مقابل فندق بيت زمان,عصير وسلطات فواكه بينك,Olgas Cupcake,damascus,syria,olgas-cupcake,draft,restaurant,2023-10-12 11:07:53.518423 +00:00,,,false
e6364cdf-a2ff-4b5e-a61d-826df9aca44e,0101000020E61000002585C31C4E254240FE0DB99D26C24040,Shaalan - next to Damer ice cream - the entrance to the church,شعلان - جانب بوظة دامر-  دخلة الكنيسة,اراندا,Zamano,damascus,syria,zamano,draft,restaurant,2023-10-12 11:07:53.518423 +00:00,,,false
afca03ba-23a1-4ed7-9cf2-d3004cce94f4,0101000020E6100000C64E57FBE41C424085FDC7D758C34040,مشروع دمر الجزيرة ١٠ أ - طلعة الإطفائية - خلف مجمع الآب تاون,مشروع دمر الجزيرة ١٠ أ - طلعة الإطفائية - خلف مجمع الآب تاون,داون تاون,Arayes ,damascus,syria,arayes-,draft,restaurant,2023-10-12 11:07:53.518423 +00:00,,,false
fa2a6dba-5029-4df4-ad52-f5a680cc097e,0101000020E6100000CDB83EE662284240688709B405C34040,Al-Ghassani -Tinawi square,الغساني - ساحة التيناوي,اسعد صاج ,Protein Bar,damascus,syria,protein-bar,draft,restaurant,2023-10-12 11:07:53.518423 +00:00,,,false
ab8ce047-978a-4873-9c38-18af9130d1b9,0101000020E610000074E1939040244240B206182B24C24040,Abu Rummaneh - Mahdi Bin Baraka Street - behind the UAE Embassy,ابو رمانة - شارع مهدي بن بركة - بعد الآمرية عاليمين - خلف السفارة الاماراتية - بناء جانب محل أزهار Bambo - طابق 3 بيت الايوبي - انترفون بيت الايوبي التحتاني 0959493555 ((يرجى عدم استخدام المصعد)),حلويات بي بيك,Orchid Bakery,damascus,syria,orchid-bakery,draft,restaurant,2023-10-12 11:07:53.518423 +00:00,,,false
5e0efa90-1dcb-4a27-a7de-53ea4b1b146c,0101000020E6100000BE3EE72CBB27424074ECE22E29C14040,"Extension of Medhat Pasha's market,  hay Al-Amin , before the Mariamiya Church, in front of Al-Sayeda Al-Zahra Mosque",امتداد سوق مدحت باشا حي الامين قبل الكنيسة المريمية مقابل مسجد السيدة الزهراء -  يرجى عند استلام الطلبات الخروج من شارع الأمين,اللقمة الطيبة,Pink Juices & Fruits Salads,damascus,syria,pink-juices-fruits-salads,draft,restaurant,2023-10-12 11:07:53.518423 +00:00,,,false
58164610-5eaf-467d-8c34-d4d439296f0b,0101000020E61000006BBB09BEE9254240A15089CA8AC24040,"29th May Street - Julia Domna Hotel
",شارع 29 أيار - فندق جوليا دومنا,حسون,Aranda,damascus,syria,aranda,draft,restaurant,2023-10-12 11:07:53.518423 +00:00,,,false
fbfb7c9f-c948-46c1-b4e4-c09c39fd4ca3,0101000020E610000042796163C52542406A8E07B6A5C04040,فحامة قبل دخلة جامع زيد بن ثابت مقابل مطعم العدنان,فحامة قبل دخلة جامع زيد بن ثابت مقابل مطعم العدنان,لقمة عالماشي,Damascene Sweets,damascus,syria,damascene-sweets,draft,restaurant,2023-10-12 11:07:53.518423 +00:00,,,false
1f5e8e9b-75ef-4e84-ad8d-423ed38a5ab1,0101000020E61000001A34366CC224424001E6524338C24040,شعلان مواجه جيميني,شعلان مواجه جيميني,سندويشة جلال,Down Town,damascus,syria,down-town,draft,restaurant,2023-10-12 11:07:53.518423 +00:00,,,false
3dccdbda-fadf-49d9-b855-10cdf5808e4a,0101000020E6100000640B7BB953264240B651B6AB84BF4040,ميدان جزماتية مقابل ماكولات المحبة,ميدان جزماتية مقابل ماكولات المحبة,شاورما ابو سعيد فويغو,Be Beik,damascus,syria,be-beik,draft,restaurant,2023-10-12 11:07:53.518423 +00:00,,,false
95903ff8-4ce2-48a1-b99e-a6a4751742c8,0101000020E61000006BAC2FD82E25424008E3E98D41C24040,شعلان - مقابل تايم اوت,"شعلان - مقابل تايم اوت
 يرجى انتظار الطلب خارج الصالة لحين انتهاءه ليتم تسليمه لك من مشرف الصالة",فطيرة ,Abu Rateb,damascus,syria,abu-rateb,draft,restaurant,2023-10-12 11:07:53.518423 +00:00,,,false
cc6623da-d336-439f-9154-5dd76070261e,0101000020E6100000CE8DC8FB6126424027A7B031B3BF4040,Maidan - Jazmia - before Alsahabeh Mosque,ميدان - جزماتية - قبل جامع الصحابة,بفلاي برغر,Alluqmah Altayiba,damascus,syria,alluqmah-altayiba,draft,restaurant,2023-10-12 11:07:53.518423 +00:00,,,false
526756db-7d2a-4418-9c49-736579d12641,0101000020E6100000A25598842C244240E97A6840B9C24040,ساحة الروضة عند الموقف,ساحة الروضة عند الموقف,معجنات مجد الشام,Abu Abdo Alrawdah,damascus,syria,abu-abdo-alrawdah,draft,restaurant,2023-10-12 11:07:53.518423 +00:00,,,false
8deb1f41-6733-4963-857c-78a7dccb8056,0101000020E61000008973FD50A31B424054447EE4F3C24040,Mshrouaa Dummar - island 11 - side of the church,مشروع دمر جزيرة 11 جانب الكنيسة,سناك بسام,Aranes Almashroo3,damascus,syria,aranes-almashroo3,draft,restaurant,2023-10-12 11:07:53.518423 +00:00,,,false
cfebcdc7-cb2c-46b8-b7e6-3e16c972b53b,0101000020E61000005A6D591968264240540220F6DBBF4040,باب مصلى-باتجاه نادي المجد,باب مصلى-باتجاه نادي المجد,باستا كوب,Abu Alez Juice,damascus,syria,abu-alez-juice,draft,restaurant,2023-10-12 11:07:53.518423 +00:00,,,false
1c7cdfc7-4e82-4d65-a2d3-848855ced67b,0101000020E6100000D951073F1224424000553FE380C24040,Abo Remaneh - Restaurants Square near Ono,ابو رمانه - ساحة المطاعم جانب أونو,بيتزا ومنقوشة ,Fuego Shawarma Abo Saaed ,damascus,syria,fuego-shawarma-abo-saaed-,draft,restaurant,2023-10-12 11:07:53.518423 +00:00,,,false
a0db1073-a515-4429-82de-bc19a1edd799,0101000020E6100000A7E03A10232642400282D64FC1C44040,"Asad El Din Street, opposite Kardan Mosque",شارع اسد الدين مقابل جامع كردان,ابو عصام,Shish Kebab,damascus,syria,shish-kebab,draft,restaurant,2023-10-12 11:07:53.518423 +00:00,,,false
c1c0fb36-2946-4105-995f-6453a56a9a1d,0101000020E6100000BD9ED8D8DF2542405F8BAB046AC24040,شارع 29ايار مقابل مشفى الشرق,شارع 29ايار مقابل مشفى الشرق,كريف ايت,La Casa De Taco,damascus,syria,la-casa-de-taco,draft,restaurant,2023-10-12 11:07:53.518423 +00:00,,,false
91861f47-9f5d-40d0-a9c9-d658c4e641d9,0101000020E610000099E688426C28424024BE0B4216C14040,Mazzeh behind Aljalaa,مزة خلف الجلاء,ستيد,Al Samah Arbash Brothers,damascus,syria,al-samah-arbash-brothers,draft,restaurant,2023-10-12 11:07:53.518423 +00:00,,,false
961560fc-d0b2-4a32-8b7c-bbb2ac98881b,0101000020E610000078280AF48924424046425BCEA5C04040,Al Baramkeh,البرامكة,ابو لؤي,Abo Loay,damascus,syria,abo-loay,draft,restaurant,2023-10-25 08:57:27.858491 +00:00,,,false
bceb7db4-c822-4e14-aab5-44ca3860e0b6,0101000020E6100000BD35B055822D4240C425C79DD2BD4040,Jaramana,جرمانا,شاورما ابو عكاش,Abu Aakash Shawerma,damascus,syria,abu-aakash-shawerma,draft,restaurant,2023-10-25 08:57:27.858491 +00:00,,,false
6141ec6c-1d04-4185-9145-91769ad24771,0101000020E6100000E4141DC9E52342402D5BEB8B84C24040,Abou Roummaneh,ابو رمانة,ابو علي,Abu Ali,damascus,syria,abu-ali,draft,restaurant,2023-10-25 08:57:27.858491 +00:00,,,false
7a296ebc-6605-4b43-9c6f-d09af7d7d938,0101000020E6100000E1EEACDD76254240B4E55C8AABC24040,Arnous,عرنوس,عصير ابو الروض - عرنوس,Abu Al Roud Juice - Arnous,damascus,syria,abu-al-roud-juice-arnous,draft,restaurant,2023-10-25 08:57:27.858491 +00:00,,,false
f3ad8794-4131-4ca4-81ff-8ae878e472f8,0101000020E61000006C41EF8D21264240A8FC6B79E5BE4040,Midan,الميدان,بن الشامي-الميدان,ALShami Cafe -Midan,damascus,syria,alshami-cafe-midan,draft,restaurant,2023-10-25 08:57:27.858491 +00:00,,,false
8a4fee2e-2f4e-46eb-afb0-97bb5b58f087,0101000020E6100000A8A9656B7D254240423EE8D9ACC24040,Arnous,عرنوس,عسل الجبّان اكسبريس,Al Jabban Honey Express,damascus,syria,al-jabban-honey-express,draft,restaurant,2023-10-25 08:57:27.858491 +00:00,,,false
7c7ab3f7-ca0e-43d0-9358-0041b95f66f9,0101000020E61000006920F1868F2842409A5E622C53C34040,Jaber Bin Hayyan Street - Next to Al Hamwi Office - Building a fourth floor,"منزل جاكوب يعقوب الطابق الرابع في بناء مكتب الحموي - تجارة - شارع جاير بن حيان 
التواصل على الرقم 0991074802
او على الرقم 0932079376",تماري الورد,Pasta Cup,damascus,syria,pasta-cup,draft,restaurant,2023-10-12 11:07:53.518423 +00:00,,,false
098e3af0-106b-4d41-bc1e-02f5bfcd2d9e,0101000020E6100000871EAD414A2542409299A83163C24040,al hamraa street,شارع الحمراء مقابل مراب الحمراء بناء رقم 9,زيرو فات ,Tamari ALward,damascus,syria,tamari-alward,draft,restaurant,2023-10-12 11:07:53.518423 +00:00,,,false
784b072a-16f8-4b7d-b882-205037fd0acd,0101000020E6100000925708277920424011D15C6575C04040,المزة - عند مدينة السندباد,المزة - عند مدينة السندباد,حلويات الدمشقية,Zero Fat,damascus,syria,zero-fat,draft,restaurant,2023-10-12 11:07:53.518423 +00:00,,,false
bd7c5865-2177-4846-bd0a-e099e5579fc2,0101000020E61000005D9ACF77BF2342402E640155D4BF4040,"كفرسوسة , بعد حلويات الوسام جانب بوظة امية","جانب بوظة امية ,كفرسوسة , بعد حلويات الوسام",مطبخ وحلويات فادي أبو الجدي,Fadi Abu AlJeddi Food & Sweets,damascus,syria,fadi-abu-aljeddi-food-sweets,draft,restaurant,2023-10-12 11:07:53.518423 +00:00,,,false
961674ae-71e7-4171-a0fd-ae77601cc59f,0101000020E610000013556C8ACF244240713150630CC24040,Next to Japanese Embassy,أبو رمانة جانب السفارة اليابانية,شابلن ,Chaplin,damascus,syria,chaplin,draft,restaurant,2023-10-12 11:07:53.518423 +00:00,,,false
654affca-2ea2-4cfc-be7f-c6135994df96,0101000020E61000001BB1FD01E227424055956C2B2CC14040,bab sharqii،Near the Church of almaryamia,باب شرقي دخلة الكنيسة المريمية طالع الفضة,ذا باربر شوب,The Barbershop ,damascus,syria,the-barbershop-,draft,restaurant,2023-10-12 11:07:53.518423 +00:00,,,false
55c3c51e-2bad-4ad9-a3df-8f38dc0df67d,0101000020E61000006555849B0C204240564BF8AD6FC04040,مزة جبل عند موقف الفتح,مزة جبل عند موقف الفتح,شاورما ابو عبيدة,Al Sondos Food,damascus,syria,al-sondos-food,draft,restaurant,2023-10-12 11:07:53.518423 +00:00,,,false
6cef28cf-de51-4627-8729-31170d20be2e,0101000020E6100000E8212ABFD22342404414D55312C34040,مهاجرين سكة موقف الباشكاتب,مهاجرين سكة موقف الباشكاتب,غراند مارت,Alsedik Food And Sweet,damascus,syria,alsedik-food-and-sweet,draft,restaurant,2023-10-12 11:07:53.518423 +00:00,,,false
5e0dbd0b-8f34-4ce4-9710-0e1ee046a5ec,0101000020E6100000DE39F7CBE51D4240C1A22ABF6FBF4040,Shaalan - First Haboubi,"شعلان  شارع معتمد بن عباد - حبوبي أول
ممنووووع الوقوف امام المطعم ",تايم اوت,Time Out,damascus,syria,time-out,draft,restaurant,2023-10-12 11:07:53.518423 +00:00,,,false
a6dfbe19-70a5-4d1e-becc-6913ec50afd2,0101000020E610000061161C569F274240315F7F8EE6BD4040,زاهرة دف الشوك صيدلية ابو الدهب,زاهرة دف الشوك صيدلية ابو الدهب,شريف بيك,Majd Alsham,damascus,syria,majd-alsham,draft,restaurant,2023-10-12 11:07:53.518423 +00:00,,,false
30808624-1663-4dcf-a4d0-c20bdbd05eba,0101000020E6100000A2410A9EC22342406D4D808287C24040,مالكي خلف السفارة البابوية جانب LG,مالكي خلف السفارة البابوية جانب LG,مأكولات السندس,Baytoutoi,damascus,syria,baytoutoi,draft,restaurant,2023-10-12 11:07:53.518423 +00:00,,,false
3c36f426-ca63-4cdd-8aea-915eaa5be435,0101000020E61000007C85FD85BB2442400BDDDBE33BC24040,"Midan - Al Masa Plaza Mall
",ميدان - مول الماسا بلازا,فليم اكسبريس ,Flame Express,damascus,syria,flame-express,draft,restaurant,2023-10-12 11:07:53.518423 +00:00,,,false
7c34fa8e-b95b-426d-aa3f-9247022baea5,0101000020E610000011F73F5DB0234240AD4AE84F17C04040,Fourth Haboubi - Across from the British Cultural Center,شعلان حبوبي رابع- مقابل المركز الثقافي البريطاني                                                                                 ,نينو,Merlan,damascus,syria,merlan,draft,restaurant,2023-10-12 11:07:53.518423 +00:00,,,false
f00ec374-6079-4a9c-b2fb-9d8a032b413c,0101000020E6100000328D6833351F4240B590BA7CEFBF4040,Opposite Al Madfa Garden - behind Fransabank - next to Al- Rouad Institute,مقابل حديقة المدفع - خلف فرنسبنك - جانب معهد الرّواد,كارما ,Karma,damascus,syria,karma,draft,restaurant,2023-10-12 11:07:53.518423 +00:00,,,false
8b928e4a-9fd7-4d55-86da-8b4f62ac1afd,0101000020E610000042CDB138F32242404D61ADF352C24040,"Nizar Qabbani Street, next to the Food Court",شارع نزار قباني جانب ساحة المطاعم,بيت ياقوت,Pizzaro,damascus,syria,pizzaro,draft,restaurant,2023-10-12 11:07:53.518423 +00:00,,,false
216af559-5550-4848-838a-fd7fa539a03f,0101000020E610000029791264C6204240A541FABB31C04040,Mazzeh Highway - opposite Syriatel Center,اتستراد المزة - مقابل مركز سيرياتل - بعد ماجستي ان,شاورما سعد الدين,Patisserie Empress,damascus,syria,patisserie-empress,draft,restaurant,2023-10-12 11:07:53.518423 +00:00,,,false
d3813638-1f7d-473a-9514-9ac316736b48,0101000020E61000009326F79EBE2542407ADF5B05EFBF4040,مشروع دمر جزيرة 10 تحت مطعم مأكولات الشام,مشروع دمر جزيرة 10 تحت مطعم مأكولات الشام,جزيل,AlDagher,damascus,syria,aldagher,draft,restaurant,2023-10-12 11:07:53.518423 +00:00,,,false
2dcac705-3c30-4fc5-956c-2fa5a629251a,0101000020E61000008A8DFD5515284240529731AA31C64040,ميدان بعد جامع المنصور دخلة جامع الحسن ماسة بلازا مول,ميدان بعد جامع المنصور دخلة جامع الحسن ماسة بلازا مول,تشارليز ,Multi Culti,damascus,syria,multi-culti,draft,restaurant,2023-10-12 11:07:53.518423 +00:00,,,false
5a7400d0-216d-45ca-b8de-ba842a2e47b6,0101000020E61000001D177A692F204240BDFF4DF7D3BF4040,Kasaa,قصاع - مقابل درج الغساني,سناك هني,Steed,damascus,syria,steed,draft,restaurant,2023-10-12 11:07:53.518423 +00:00,,,false
e0d00f78-061d-4809-9cfc-1e020693253d,0101000020E6100000B83A42FE801F42401A587D64A9BF4040,مول المزة ارضي مقابل كازية السياسية,مول المزة ارضي مقابل كازية السياسية,دكتور برغر,Dr Burger,damascus,syria,dr-burger-b,draft,restaurant,2023-10-12 11:07:53.518423 +00:00,,,false
a7df0187-dab7-4c15-9c51-a4f7ceb19835,0101000020E61000006F9406C8E12542406C18705CE7BF4040,مشروع دمر- سوق الشام- مواجه المصرف العقاري,مشروع دمر- سوق الشام- مواجه المصرف العقاري,بلانتا,Norsin,damascus,syria,norsin,draft,restaurant,2023-10-12 11:07:53.518423 +00:00,,,false
ed6ef129-2e74-4283-8a5b-2b24d73c437c,0101000020E610000080464CFDFA27424089DC04C617C34040,"Al-Qusour Square, next to Karkar Roastery",ساحة القصور جانب محمصة كركر,وازاب برغر,French Corner,damascus,syria,french-corner,draft,restaurant,2023-10-12 11:07:53.518423 +00:00,,,false
9e369f33-62fd-4352-8180-d715095b3933,0101000020E6100000C2953F21B32442403A73301748C24040,"Mashrue Dumar , Island 10",مشروع دمر جزيرة 10,ابو عبدو,Rondo,damascus,syria,rondo,draft,restaurant,2023-10-12 11:07:53.518423 +00:00,,,false
0a91fa15-de56-4ba9-9e12-f0925f1ebf72,0101000020E6100000E60386D5ED22424004F3C263E0C24040,Al-Huda Roundabout,مزة جبل - آخر الخط - مقابل جامع الهدى,معجنات المحبة ,Al Mahaba,damascus,syria,al-mahaba,draft,restaurant,2023-10-12 11:07:53.518423 +00:00,,,false
d632b911-69a0-4b28-8bef-340be17d2ae4,0101000020E6100000AF05627E13254240F3537F3199C24040,"In front of Four Seasons, Next to Al-Tawfik Hospital",أبو رمانة ، مقابل الفورسيسونز ، جانب مشفى التوفيق,كالي,Tanour Shawarma,damascus,syria,tanour-shawarma,draft,restaurant,2023-10-12 11:07:53.518423 +00:00,,,false
cd88f8ac-a51f-4bda-aa4c-bf541af004ee,0101000020E61000006B2BF6975D25424054FDCE1F68BF4040,"Shalan Haboubi, the second entrance to Bait Fairouz",شعلان حبوبي ثاني دخلة بيت فيروز (يرجى عدم الوقوف على باب المطعم لانتظار الطلب في جميع الأوقات),دوبامين ,Bu Maria,damascus,syria,bu-maria,draft,restaurant,2023-10-12 11:07:53.518423 +00:00,,,false
3b318e73-b14d-4d72-82b1-57cbc3ed0e61,0101000020E61000002788BA0F40264240E8F692C668C14040,AL Naser Street,شارع النصر,مطعم الجناني,Al Jenane Restaurant,damascus,syria,al-jenane-restaurant,draft,restaurant,2023-10-25 08:57:27.858491 +00:00,,,false
f5d5bb6e-ea13-422a-9099-98879f939d89,0101000020E6100000AEAFE044152842401CC28413C9C24040,al koussour square - al-kindi street - al rahma shawarma side,ساحة القصور شارع الكندي جانب شاورما الرحمة,كريسبي واي ,Q Restaurant,damascus,syria,q-restaurant,draft,restaurant,2023-10-12 11:07:53.518423 +00:00,,,false
9519559e-404c-4b94-b9af-5e2588938339,0101000020E61000009F04B2AE3C234240FB09A16220C04040,Western Villas in front of the Muhammadi Mosque,فيلات غربية مقابل جامع المحمدي,مهراجا,Mahraja,damascus,syria,mahraja,draft,restaurant,2023-10-12 11:07:53.518423 +00:00,,,false
07c1fc2a-9a56-444c-907b-47737753e46d,0101000020E61000000870406C652442401764EC005FBF4040,Bab Tuma Al-Bakri Avenue,باب توما ، جادة البكري ، مقابل حمام البكري,سرجون سناك,Choco Swamp,damascus,syria,choco-swamp-1,draft,restaurant,2023-10-12 11:07:53.518423 +00:00,,,false
d0619dcd-4d87-4c10-b55b-40c90e48dc10,0101000020E6100000AAED6814F924424061C8451042C24040,"Al Midan - Massa Plaza Mall, opposite Al-Hassan Mosque",ميدان - مول الماسة بلازا مقابل جامع الحسن,مطعم مكاني,Roadhouse Express,damascus,syria,roadhouse-express,draft,restaurant,2023-10-12 11:07:53.518423 +00:00,,,false
e10eef11-d8fa-4870-aae7-e8ee7bb58226,0101000020E61000009A1F66CCB02342406223182034C24040,ابو رمانة - شارع أحمد شوقي,ابو رمانة - شارع أحمد شوقي,معجنات الروان,Swirkies,damascus,syria,swirkies,draft,restaurant,2023-10-12 11:07:53.518423 +00:00,,,false
91e956d8-4faa-47c4-a07f-eea128276d64,0101000020E6100000C5C74872D01F4240A593192D0FC04040,"Mezzeh Street villas in front of Al-Talaea Park, the commercial market",مزة-فيلات مقابل حديقة الطلائع -السوق التجاري,ابو جواد,Abo Jawad,damascus,syria,abo-jawad,draft,restaurant,2023-10-12 11:07:53.518423 +00:00,,,false
50b72c13-8a59-4353-afd6-dbc6c096aae7,0101000020E6100000EAD53A502B25424082A87F3948C24040,شعلان شارع حافظ ابراهيم مقابل الوجبة السريعة,شعلان شارع حافظ ابراهيم مقابل الوجبة السريعة, امية ,Omaya,damascus,syria,omaya,draft,restaurant,2023-10-12 11:07:53.518423 +00:00,,,false
4f677a9d-ccb0-4ecb-8fd9-d476c08662e1,0101000020E61000002B8716D9CE23424014D2753CC1BF4040,Kafarsouseh near the police station in front of the towers,كفرسوسة طريق المخفر مقابل الابراج,تارتار,Abo Salah,damascus,syria,abo-salah,draft,restaurant,2023-10-12 11:07:53.518423 +00:00,,,false
cef0da0c-b53c-4d5b-8d47-575354e5f0fd,0101000020E6100000428F7B67F2224240E6E35E8955C24040,"Abu Rummaneh, Noura stop, Damascus, Syria",أبو رمانة موقف نورا,ابو حسن,Traces Café,damascus,syria,traces-cafe,draft,restaurant,2023-10-12 11:07:53.518423 +00:00,,,false
4798b750-eae8-40dc-aa8b-929802d6aaaa,0101000020E610000069F8BB1C9B214240F65D11FC6FC14040,Kafarsouseh - Kafarsouseh Square,كفرسوسة - دوار كفرسوسة,رومينزا ,Rominsa,damascus,syria,rominsa,draft,restaurant,2023-10-12 11:07:53.518423 +00:00,,,false
d391a50d-7c98-4aac-93da-1c6b0ff5e502,0101000020E6100000FB4BFF50382842403FDF5848A7C14040,Al-Ghassani - Abu Khalil Qabbani Street - opposite the Church of Jesus Nur,الغساني - شارع أبو خليل القباني - مقابل كنيسة يسوع نور,شاورما تنور ,Sargon Snack,damascus,syria,sargon-snack,draft,restaurant,2023-10-12 11:07:53.518423 +00:00,,,false
84516d5b-20d6-47e4-b74e-1cd6588679e6,0101000020E6100000F1EF543C0525424036BB62045CC24040,Al-Jahiz near the American School,أبو رمانة  الجاحظ بالقرب من المدرسة الاميركية,عيدو,EIDO,damascus,syria,eido,draft,restaurant,2023-10-12 11:07:53.518423 +00:00,,,false
c66cc6dd-8cca-44db-9d21-f5207d5b107d,0101000020E61000009577FE82172542409B2EF624D1C34040,Mezzeh facing the political station inside the Mazzeh Mall,مزة -  مواجه كازية السياسية داخل مول المزة,موتو برغر ,Fruit Cup,damascus,syria,fruit-cup,draft,restaurant,2023-10-12 11:07:53.518423 +00:00,,,false
2c5f1a6a-0bdd-4343-9a95-624906ed1dda,0101000020E61000000FF93E873F234240200746DA1DC04040,"كفرسوسة - دامسكينو مول, طابق B2","كفرسوسة - دامسكينو مول, طابق B2",زاكي,Crispy Way,damascus,syria,crispy-way,draft,restaurant,2023-10-12 11:07:53.518423 +00:00,,,false
e6019dbc-f9f8-488f-a296-734f9b8fcd39,0101000020E610000083E32AFDA12342408676EB8885BF4040,Saudi Embassy Street,أبو رمانة ساحة المطاعم,ماكولات ايار,AKs,damascus,syria,aks,draft,restaurant,2023-10-12 11:07:53.518423 +00:00,,,false
030f4a48-e262-46e4-94e5-2bc215a9b808,0101000020E6100000454772F90F25424026DF6C7363C24040,Shalaan,الشعلان,مأكولات السبكي,Sebki Food,damascus,syria,sebki-food,draft,restaurant,2023-10-25 08:57:27.858491 +00:00,,,false
08d661ca-97a4-41ce-9f48-c1bf679dac66,0101000020E6100000862C5E6EA8284240AA2FC70211C24040,"Qasa'a, Al-Rous Tower, next to Al-Qasaa Pharmacy",قصاع برج الروس جانب صيدلية القصاع ( يرجى الانتظار خارج المحل ), عصير ابو العز ,Asaad Saj,damascus,syria,asaad-saj,draft,restaurant,2023-10-12 11:07:53.518423 +00:00,,,false
3e077f66-c2e1-484d-b07c-5cd107337bee,0101000020E610000052F2EA1C031E4240B875374F75C44040,Mashrou3 Dummar Expended,مشروع دمر,عصير ابو الروض - مشروع دمر,Abu Al Roud Juice - Mashrou3 Dummar,damascus,syria,abu-al-roud-juice-mashrou3-dummar,draft,restaurant,2023-10-25 08:57:27.858491 +00:00,,,false
e22ef5a8-b20e-4d27-8a8a-dde6368e0c0f,0101000020E61000007D0569C6A22542401895D40968C24040,Al Salhiyeh,الصالحية,عصير ابو السعود,Abu Al-Soud Juice,damascus,syria,abu-al-soud-juice,draft,restaurant,2023-10-25 08:57:27.858491 +00:00,,,false
7724ccf5-992a-460d-be02-903793c94332,0101000020E610000029965B5A0D21424026361FD786C24040,Al Rabwah,الربوة,مطعم ابو شفيق,Abu Shafiq Restaurant,damascus,syria,abu-shafiq-restaurant,draft,restaurant,2023-10-25 08:57:27.858491 +00:00,,,false
d29713f6-41af-4b9a-9461-77af16054461,0101000020E6100000994528B6821E424032E36DA5D7BE4040,Al Mazzeh,المزة,علاء الدين,Aladdin,damascus,syria,aladdin,draft,restaurant,2023-10-25 08:57:27.858491 +00:00,,,false
09bea28c-d313-4838-bcbd-6a0e4177c7fd,0101000020E61000004E250340152542404E7FF62345C04040,Kafar Sousah,كفرسوسة,مندي الأفندي,Al Afandi,damascus,syria,al-afandi,draft,restaurant,2023-10-25 08:57:27.858491 +00:00,,,false
84518c42-079b-4962-ac4b-2ac2eb2f62dc,0101000020E6100000A2EE0390DA244240977329AE2AC34040,Al Jessr Al Abied,الجسر الابيض,بن عالبال - الجسر الأبيض,Albal Coffee -Al Jessr Al Abied,damascus,syria,albal-coffee-al-jessr-al-abied,draft,restaurant,2023-10-25 08:57:27.858491 +00:00,,,false
198745d2-2576-40f8-a754-2bec8bc18b38,0101000020E610000073BA2C26361F42402D095053CBBE4040,Mazzeh,المزة,سناك البلخي,Al Balkhi Snack,damascus,syria,al-balkhi-snack,draft,restaurant,2023-10-25 08:57:27.858491 +00:00,,,false
e6d4f31e-c46b-455e-8f50-409d1b46d7e4,0101000020E6100000A7CB6262F32542403B014D840DBF4040,Al Midan,الميدان,مطعم البالون,Al Ballon Restaurant,damascus,syria,al-ballon-restaurant,draft,restaurant,2023-10-25 08:57:27.858491 +00:00,,,false
387788ff-9905-4efe-bef6-c5c61a0c7048,0101000020E61000007077D66EBB244240E561A1D634C34040,Afif,العفيف,سناك البراء,Al-Bara Snack,damascus,syria,al-bara-snack,draft,restaurant,2023-10-25 08:57:27.858491 +00:00,,,false
bec90335-99fd-4c0c-b881-f56d1d2d2196,0101000020E61000009357E718902542403C8386FE09C24040,Maysaloon,ميسلون,مطعم الباشا,Al-Basha Restaurant,damascus,syria,al-basha-restaurant,draft,restaurant,2023-10-25 08:57:27.858491 +00:00,,,false
1e21354b-0e15-4ffe-bffd-7c885d4c8e55,0101000020E6100000E9263108AC2042400612143FC6C04040,Al Mazzeh,المزة,باتيسيري الإمام,ALemam Patisserie,damascus,syria,alemam-patisserie,draft,restaurant,2023-10-25 08:57:27.858491 +00:00,,,false
c6f0f2a8-454d-4879-9e90-f744df0072bf,0101000020E6100000001FBC76692342405AF3E32F2DC24040,Malky,المالكي,الفاروق,Al Farouk,damascus,syria,al-farouk,draft,restaurant,2023-10-25 08:57:27.858491 +00:00,,,false
98d37fb9-1f09-48a8-b3d0-1cc75636bc0e,0101000020E6100000B9AAECBB221C42403A92CB7F48C34040,Mashroo3 Dummer,مشروع دمر,مطعم الفاروق - مشروع دمر,Al Farouk - Mashroo3 Dummer,damascus,syria,al-farouk-mashroo3-dummer,draft,restaurant,2023-10-25 08:57:27.858491 +00:00,,,false
5048ae7a-99d6-402a-a854-6b40f6aa3881,0101000020E61000007311DF8959234240D97C5C1B2AC24040,Al Malky,المالكي,سناكس الفاروق,Al Farouk Snax,damascus,syria,al-farouk-snax,draft,restaurant,2023-10-25 08:57:27.858491 +00:00,,,false
42b1263c-279e-4453-83a4-563a4bfea7c1,0101000020E6100000D673D2FBC6274240D8B628B341C24040,Baghdad Avenue,شارع بغداد,مأكولات الغدير,Al Ghadeer Snack,damascus,syria,al-ghadeer-snack,draft,restaurant,2023-10-25 08:57:27.858491 +00:00,,,false
2462f678-701e-47ed-89e4-beef3404ca9e,0101000020E6100000C993A46B262742403E3F8C101EC14040,Old Damascus,دمشق القديمة,بن وشوكولا الحلبي,Al-Halabi Coffee & Chocolate,damascus,syria,al-halabi-coffee-chocolate,draft,restaurant,2023-10-25 08:57:27.858491 +00:00,,,false
9ca0b1e5-6771-4bf9-866d-050525f0bf5c,0101000020E61000008CDCD3D51D234240B7F1272A1BC04040,Kafar Sousah,كفرسوسة,الجبل بلودان,Al Jabal Bloudan,damascus,syria,al-jabal-bloudan,draft,restaurant,2023-10-25 08:57:27.858491 +00:00,,,false
f43319c1-764c-4d67-bdc1-7878b3d1d5a3,0101000020E610000012F758FAD0254240672C9ACE4EC24040,29th May Street,شارع 29 آيار,مطعم الكمال,Al Kamal Restaurant,damascus,syria,al-kamal-restaurant,draft,restaurant,2023-10-25 08:57:27.858491 +00:00,,,false
5b8482fc-f363-4c31-bcd0-5f1fe1e4e9d7,0101000020E6100000397F130A11284240E7E3DA5031C64040,Masakn Barzeh,مساكن برزة,سناك ع الخفيف,Al Khafeef Snack,damascus,syria,al-khafeef-snack,draft,restaurant,2023-10-25 08:57:27.858491 +00:00,,,false
8f6436f4-265c-4086-b085-87a9149da88c,0101000020E6100000E2CCAFE600294240F645425BCEC54040,Masakn Barzeh,مساكن برزة,محمصة الملك,Al-Malek Roastery,damascus,syria,al-malek-roastery,draft,restaurant,2023-10-25 08:57:27.858491 +00:00,,,false
dee8d10a-9298-4ce2-84c6-d5774c518eaf,0101000020E61000005BB6D617092542403468E89FE0C24040,Arrawdah,الروضة,المنفوش,AlManfoush,damascus,syria,almanfoush,draft,restaurant,2023-10-25 08:57:27.858491 +00:00,,,false
176d75bc-7452-4158-abf3-88d9523b7fe7,0101000020E610000036B05582C52942404968CBB914C74040,Barzeh,برزة,المنسف العربي,Almansaf Alarabi,damascus,syria,almansaf-alarabi,draft,restaurant,2023-10-25 08:57:27.858491 +00:00,,,false
b8afb4da-8e5a-4de1-a5c4-9d1ec2800c87,0101000020E61000000FEECEDA6D1F4240B476DB85E6BE4040,Al Mazzeh,المزة,مطعم المير,Al-Mir Restaurant,damascus,syria,al-mir-restaurant,draft,restaurant,2023-10-25 08:57:27.858491 +00:00,,,false
a8a67236-c9a1-4130-83ae-9785fdb87882,0101000020E610000085CE6BEC1225424072F90FE9B7C34040,Al Jebbeh,الجبة,المهباني فطائر بالرقائق,AlMouhbani Chips Pies,damascus,syria,almouhbani-chips-pies,draft,restaurant,2023-10-25 08:57:27.858491 +00:00,,,false
0d59efa0-67a7-4257-a66a-4ff03adf0e75,0101000020E6100000A73FFB912226424028B8585183C14040,Al Marjeh Square,ساحة المرجة,النجمة,Al Negma,damascus,syria,al-negma,draft,restaurant,2023-10-25 08:57:27.858491 +00:00,,,false
512a14ab-3dcf-4db5-9b8a-042e2dcef9dc,0101000020E61000005C77F35487284240E6913F1878C24040,Al Qassaa,القصاع,مخبز القصاع الحديث,Al Qassaa Modern Bakery,damascus,syria,al-qassaa-modern-bakery,draft,restaurant,2023-10-25 08:57:27.858491 +00:00,,,false
2d949af1-7eea-4291-aa2d-db0c81ef57da,0101000020E610000013F241CF66254240FBAE08FEB7C24040,Arnous,عرنوس,بيتزا و معجنات السنيور,Al Saniour Pizza & Pastry,damascus,syria,al-saniour-pizza-pastry,draft,restaurant,2023-10-25 08:57:27.858491 +00:00,,,false
54cfa3ea-835e-4a7f-970a-5c57f66fced8,0101000020E61000008C67D0D03F25424051BD35B055C24040,Shalaan,الشعلان,الشعلان كارت,Al-Shalaan Cart,damascus,syria,al-shalaan-cart,draft,restaurant,2023-10-25 08:57:27.858491 +00:00,,,false
74dffb68-68e7-45e7-9708-840246bdb719,0101000020E610000021EA3E00A92542401ADD41EC4CC14040,Al Halbouni,الحلبوني,بن الشامي - الحلبوني,ALShami Cafe - Al Halbouni,damascus,syria,alshami-cafe-al-halbouni,draft,restaurant,2023-10-25 08:57:27.858491 +00:00,,,false
3f410f95-910f-4943-92cb-db9b763e6ca6,0101000020E610000014ED2AA4FC204240A96A82A8FBC04040,Al Mazzeh,المزة,بن الشامي - الشيخ سعد,ALShami Cafe - Al-Shaykh Saad,damascus,syria,alshami-cafe-al-shaykh-saad,draft,restaurant,2023-10-25 08:57:27.858491 +00:00,,,false
c4035f35-74ae-4009-a532-32ec8b319bb4,0101000020E6100000D13FC1C58A2642405BD3BCE314C14040,Bab Al- Jabiyeh,باب الجابية,بن الشامي - باب الجابية,ALShami Cafe - Bab AlJabiyeh,damascus,syria,alshami-cafe-bab-aljabiyeh,draft,restaurant,2023-10-25 08:57:27.858491 +00:00,,,false
def2b900-12ab-4e39-96f1-b6b2b40187a4,0101000020E6100000A2B437F8C22C4240CBF8F71917BE4040,Jaramana,جرمانا,بن الشامي - جرمانا,ALShami Cafe - Jaramana,damascus,syria,alshami-cafe-jaramana,draft,restaurant,2023-10-25 08:57:27.858491 +00:00,,,false
531c6a91-9235-45c0-864e-30e2993c06f5,0101000020E6100000975643E21E234240EDB776A224C04040,Kafar Sousah,كفرسوسة,بن الشامي - كفرسوسة,ALShami Cafe -kafarsouseh,damascus,syria,alshami-cafe-kafarsouseh,draft,restaurant,2023-10-25 08:57:27.858491 +00:00,,,false
43067368-4038-42b8-9cc2-f499decddb3b,0101000020E6100000376C5B94D9284240207BBDFBE3C54040,Masakn Barzeh,مساكن برزة,بن الشامي - مساكن برزة,ALShami Cafe - Masakn Barzeh,damascus,syria,alshami-cafe-masakn-barzeh,draft,restaurant,2023-10-25 08:57:27.858491 +00:00,,,false
4eafd52e-e23e-41e6-bc16-411bc2848c13,0101000020E6100000F67D38488828424073F1B73D41C24040,Al Qassaa,القصاع,بن الشامي - قصاع,ALShami Cafe - Qassaa,damascus,syria,alshami-cafe-qassaa,draft,restaurant,2023-10-25 08:57:27.858491 +00:00,,,false
b7a50751-ea1e-4409-86e6-842d41c7b4d3,0101000020E61000008AB0E1E995264240302AA913D0C44040,Ruken Al Din,ركن الدين,بن الشامي - ركن الدين,ALShami Cafe - Ruken aldin,damascus,syria,alshami-cafe-ruken-aldin,draft,restaurant,2023-10-25 08:57:27.858491 +00:00,,,false
d6103b7c-af03-41fd-963f-7cb515ed34c5,0101000020E6100000B745990D32254240FFB3E6C75FC24040,Shalaan,الشعلان,بن الشامي-شعلان,ALShami Cafe -Shaalan,damascus,syria,alshami-cafe-shaalan,draft,restaurant,2023-10-25 08:57:27.858491 +00:00,,,false
cf66e7c5-ead0-4725-9480-e26a7c7d7498,0101000020E610000020B58993FB254240D15790662CC24040,29th May Street,شارع 29 آيار,مأكولات الشامي,Al Shami Foods,damascus,syria,al-shami-foods,draft,restaurant,2023-10-25 08:57:27.858491 +00:00,,,false
d1eb7cd0-e1b0-4fec-a5c9-c44d56ecb629,0101000020E61000008BA6B393C11D424024624A24D1C34040,Mashrou3 Dummar Expended,مشروع دمر,قصر الشامي,Al Shami Palace,damascus,syria,al-shami-palace,draft,restaurant,2023-10-25 08:57:27.858491 +00:00,,,false
91064983-3e7f-4217-ba1b-5aea584deebc,0101000020E610000052448655BC2542400DFD135CACC04040,Khaled Ibn Al Walid Street,شارع خالد بن الوليد,محمصة الشيخ سعد - شارع خالد بن الوليد,Al-Shaykh Saad Roastery - Khaled Ibn Al Walid Street,damascus,syria,al-shaykh-saad-roastery-khaled-ibn-al-walid-street,draft,restaurant,2023-10-25 08:57:27.858491 +00:00,,,false
2051a670-0398-4393-9335-88780ea17938,0101000020E610000095D4096822284240E7525C55F6C54040,Masakn Barzeh,مساكن برزة,محمصة الشيخ سعد - مساكن برزة,Al-Shaykh Saad Roastery - Masakn Barzeh,damascus,syria,al-shaykh-saad-roastery-masakn-barzeh,draft,restaurant,2023-10-25 08:57:27.858491 +00:00,,,false
afa92c46-cdf3-482b-bc88-fe091d74491e,0101000020E6100000FE60E0B9F72042404D327216F6C04040,Mazzeh,المزة,محمصة الشيخ سعد - مزة,Al-Shaykh Saad Roastery - Mazzeh,damascus,syria,al-shaykh-saad-roastery-mazzeh,draft,restaurant,2023-10-25 08:57:27.858491 +00:00,,,false
df34a146-451f-4975-94d4-09084bb93b35,0101000020E6100000E71890BDDE2542401B649291B3C04040,Khaled Ibn Al Walid Street,شارع خالد ابن الوليد,مطعم الست الشامية,Al-Sit Alshamiya Restaurant,damascus,syria,al-sit-alshamiya-restaurant,draft,restaurant,2023-10-25 08:57:27.858491 +00:00,,,false
6e447408-033e-43c6-ac52-6b5395215bde,0101000020E610000058E2016553264240C93CF20703C34040,Al-Mazraa,المزرعة,حلويات السلطان - المزرعة,AlSultan Sweets - Al-Mazraa,damascus,syria,alsultan-sweets-al-mazraa,draft,restaurant,2023-10-25 08:57:27.858491 +00:00,,,false
519fcdfd-93a7-4c8f-982d-c8282993929d,0101000020E6100000B2632310AF2742407CD5CA845FC24040,Baghdad Avenue,شارع بغداد,حلويات السلطان - شارع بغداد,AlSultan Sweets - Baghdad Avenue,damascus,syria,alsultan-sweets-baghdad-avenue,draft,restaurant,2023-10-25 08:57:27.858491 +00:00,,,false
e5cf7870-9f8a-4422-9e39-619cb6c810c9,0101000020E6100000E275FD82DD284240D9CEF753E3C54040,Masakn Barzeh,مساكن برزة,فروج الزين - مساكن برزة,Al Zain Chicken - Barzeh,damascus,syria,al-zain-chicken-barzeh,draft,restaurant,2023-10-25 08:57:27.858491 +00:00,,,false
8dc252c4-efad-43ac-81aa-abb71a53a94a,0101000020E61000003480B740822A424089EFC4AC17BF4040,Jaramana,جرمانا,فروج الزين - جرمانا,Al Zain Chicken - Jaramana,damascus,syria,al-zain-chicken-jaramana,draft,restaurant,2023-10-25 08:57:27.858491 +00:00,,,false
075e5106-a31e-4c81-beaa-eccf8f8e2fe6,0101000020E6100000B9FC87F4DB2342406EC0E78711C24040,Abou Roummaneh,ابو رمانة,اميلي بيكري,Amelie Bakery,damascus,syria,amelie-bakery,draft,restaurant,2023-10-25 08:57:27.858491 +00:00,,,false
d11327f1-708a-41af-8f55-d1ea09d7f5ce,0101000020E61000009274CDE49B254240C898BB9690C34040,Maysat Square,ساحة الميسات,A & M Food House,A & M Food House,damascus,syria,a-m-food-house,draft,restaurant,2023-10-25 08:57:27.858491 +00:00,,,false
4c75b913-ba84-4661-b9b5-bd5f9aea788e,0101000020E61000005704FF5BC9224240E6913F1878C24040,Al Malky,المالكي,امولة,Ammoula,damascus,syria,ammoula,draft,restaurant,2023-10-25 08:57:27.858491 +00:00,,,false
7353a5d0-4f67-4178-9250-827b5d4f2db7,0101000020E61000006CCF2C0950274240863DEDF0D7C04040,Old Damascus,دمشق القديمة,مطعم آرارات,Ararat Restaurant,damascus,syria,ararat-restaurant,draft,restaurant,2023-10-25 08:57:27.858491 +00:00,,,false
5c26de54-18c0-4704-9173-d70b8522130c,0101000020E6100000419FC893A4234240494BE5ED08C34040,Al Mouhajrin,المهاجرين,سجق ارون,Aron Sujuk,damascus,syria,aron-sujuk,draft,restaurant,2023-10-25 08:57:27.858491 +00:00,,,false
86597fc2-f259-4ea8-968e-5e7b5bf7dfb3,0101000020E6100000B341261939234240C0CFB87020C04040,Kafar Souseh,كفرسوسة,عروسة الملك العادل,Arouset AlMalek AlAdel,damascus,syria,arouset-almalek-aladel,draft,restaurant,2023-10-25 08:57:27.858491 +00:00,,,false
2fc1c521-fc93-4665-bb03-17875504ceed,0101000020E61000008FC360FE0A2542406F2D93E178C24040,Shalaan,الشعلان,اطيب لقمة - شعلان,Atyab Le2me - Shaalan,damascus,syria,atyab-le2me-shaalan,draft,restaurant,2023-10-25 08:57:27.858491 +00:00,,,false
43f04ee7-c920-4339-8c31-255d9d0678fc,0101000020E610000004FF5BC98E254240CBF8F71917BE4040,Al Midan,الميدان,ايام زمان,Ayam Zaman,damascus,syria,ayam-zaman,draft,restaurant,2023-10-25 08:57:27.858491 +00:00,,,false
fb9b9616-776f-4d1f-ac48-c67f9e053fe4,0101000020E6100000CD58349D9D20424070CE88D2DEC04040,Al Mazzeh,المزة,افران بلدي,Baladi Bakeries,damascus,syria,baladi-bakeries,draft,restaurant,2023-10-25 08:57:27.858491 +00:00,,,false
3a20baa5-d4e4-440e-98a5-14c1ad8e8ce9,0101000020E61000005CC98E8D4028424089247A19C5C24040,Al Ghasani,الغساني,بارون هاكوب,Baron Hagop,damascus,syria,baron-hagop,draft,restaurant,2023-10-25 08:57:27.858491 +00:00,,,false
18dea19f-e33b-4e3d-87a6-54faf90149ef,0101000020E6100000B8239C16BC244240ED9E3C2CD4C24040,Taliani,الطلياني,بيبوس لاب,Bebos Lab,damascus,syria,bebos-lab,draft,restaurant,2023-10-25 08:57:27.858491 +00:00,,,false
895b4c54-b289-4120-adb7-1d9b872387be,0101000020E6100000DC63E9431724424043AD69DE71C24040,Abou Roummaneh,ابو رمانة,بي دور كافيه,Bee Dor Cafe,damascus,syria,bee-dor-cafe,draft,restaurant,2023-10-25 08:57:27.858491 +00:00,,,false
da22e9e8-3419-4a07-8714-70ad4d70c8fc,0101000020E6100000417DCB9C2E1F4240FAEDEBC039BF4040,Al Mazzeh,المزة,بي باتيسري - المزة,Bee Patisserie - Mazzeh,damascus,syria,bee-patisserie-mazzeh,draft,restaurant,2023-10-25 08:57:27.858491 +00:00,,,false
8371f820-2556-4154-a8db-5d0a2345886b,0101000020E6100000E17F2BD9B1254240A73FFB9122C24040,Al Salhiyeh,الصالحية,بي باتيسري - صالحية,Bee Patisserie - Salhieh,damascus,syria,bee-patisserie-salhieh,draft,restaurant,2023-10-25 08:57:27.858491 +00:00,,,false
b5d23e0a-2dbd-4bd1-9bc5-8e682c28fc67,0101000020E61000008FC70C54C6274240D061BEBC00C34040,Al-Koussour,القصور,مطبخ بيتنا,Beytna Catering,damascus,syria,beytna-catering,draft,restaurant,2023-10-25 08:57:27.858491 +00:00,,,false
1af1914b-d369-4f81-b161-ac5eb6f0ce21,0101000020E61000009EEA909BE1264240EF1B5F7B66C54040,Ruken Al Din,ركن الدين,ب فريش,B Fresh,damascus,syria,b-fresh,draft,restaurant,2023-10-25 08:57:27.858491 +00:00,,,false
abc3d737-b4e7-4b50-a8b4-ceaba9fc976a,0101000020E610000014E81379922442402310AFEB17C24040,Abou Roummaneh,ابو رمانة,بيغ تراك برغر,Big Truck Burger,damascus,syria,big-truck-burger,draft,restaurant,2023-10-25 08:57:27.858491 +00:00,,,false
aba03668-9f0f-4b0d-ae66-5113df9470fe,0101000020E61000008672A25D85244240255D33F966BF4040,Kafar Sousah,كفرسوسة,بيتزا بينغو,Bingo Pizza,damascus,syria,bingo-pizza,draft,restaurant,2023-10-25 08:57:27.858491 +00:00,,,false
c23cec92-d996-4435-a2da-01aa46329105,0101000020E6100000551344DD07244240359886E123C24040,Abou Roummaneh,ابو رمانة,بلاك بوتيك كافيه,Blaque Boutique Cafe,damascus,syria,blaque-boutique-cafe,draft,restaurant,2023-10-25 08:57:27.858491 +00:00,,,false
54491b50-332a-4106-a3a1-42a0ebc9bb02,0101000020E6100000AF27BA2EFC1C42400400C79E3DC34040,Mashrou3 Dummar Expended,مشروع دمر,بوهو,Boho,damascus,syria,boho,draft,restaurant,2023-10-25 08:57:27.858491 +00:00,,,false
45eb7dcc-5d53-479c-99d2-1a6ef2b63318,0101000020E610000036AB3E575B254240D68BA19C68BF4040,Midan,الميدان,بوهو غريل اند مور,Boho Grill & More,damascus,syria,boho-grill-more,draft,restaurant,2023-10-25 08:57:27.858491 +00:00,,,false
15b6effe-fd70-4e21-ad87-b6bbeb00a10e,0101000020E61000005C72DC291D2042401D8F19A88CBF4040,Al Mazzeh,المزة,بون فاير,Bonfire,damascus,syria,bonfire,draft,restaurant,2023-10-25 08:57:27.858491 +00:00,,,false
750c7b03-f733-40dd-ba69-f7ceaf5d396b,0101000020E6100000191C25AFCE2542405DF92CCF83C34040,Almesat,الميسات,بوز الجدي - الميسات,Bouz Al Jedi - Almesat,damascus,syria,bouz-al-jedi-almesat,draft,restaurant,2023-10-25 08:57:27.858491 +00:00,,,false
a774e24f-4a55-4fe5-9af8-11660bd3923f,0101000020E6100000C30FCEA78E25424033DFC14F1CC24040,Maysaloon,ميسلون,فايبس,Vibes,damascus,syria,vibes,draft,restaurant,2023-10-25 08:57:27.858491 +00:00,,,false
2b2d74af-5fe0-4f35-93a8-6e6cbd933d18,0101000020E610000053910A630B2542406649809A5AC24040,Shalaan,الشعلان,مطعم بوز الجدي - شعلان,Bouz Al Jedi Restaurant - Shaalan,damascus,syria,bouz-al-jedi-restaurant-shaalan,draft,restaurant,2023-10-25 08:57:27.858491 +00:00,,,false
65fe3005-4a3c-49cb-92a2-47513b4c21c7,0101000020E610000010FF55ECD4274240447E479E35C64040,Masakn Barzeh,مساكن برزة,برويل باي ستيشن,Broil By Station,damascus,syria,broil-by-station,draft,restaurant,2023-10-25 08:57:27.858491 +00:00,,,false
e3be6e45-2ff1-4e81-8f1a-68d6e784d28d,0101000020E610000069C6A2E9EC2442405166834C32C24040,Shalaan,الشعلان,برانش,Brunch,damascus,syria,brunch,draft,restaurant,2023-10-25 08:57:27.858491 +00:00,,,false
58d05ce9-73cd-4eb2-8187-a5945ed60273,0101000020E6100000A301BC0512284240A03715A930C64040,Masakn Barzeh,مساكن برزة,بوتشرز غريل,Butchers Grill,damascus,syria,butchers-grill,draft,restaurant,2023-10-25 08:57:27.858491 +00:00,,,false
fc823f6c-5fa9-4a7e-a6f7-89e9862bb04e,0101000020E61000007BDAE1AFC91A4240DF15C1FF56C24040,Mashrou3 Dummar Expended,مشروع دمر,كيك بيتي,Cake Bete,damascus,syria,cake-bete,draft,restaurant,2023-10-25 08:57:27.858491 +00:00,,,false
70ea9a57-3c03-4033-a768-92372439095a,0101000020E6100000B341261939234240C0CFB87020C04040,Kafar Souseh,كفرسوسة,تشيز & باستا,Cheese & Pasta,damascus,syria,cheese-pasta,draft,restaurant,2023-10-25 08:57:27.858491 +00:00,,,false
ae714e4b-4ceb-4dcc-a294-118ee9097984,0101000020E61000004F401361C32342408A1F63EE5AC24040,Abou Roummaneh,ابو رمانة,شي بسام - ابو رمانة,Chez Bassam - Abou Roummaneh,damascus,syria,chez-bassam-abou-roummaneh,draft,restaurant,2023-10-25 08:57:27.858491 +00:00,,,false
cf0115a6-1a9b-49d9-adc8-e34cf42adedf,0101000020E610000040DEAB562628424082A8FB00A4C24040,Al Qassaa,القصاع,شي بسام - قصاع,Chez Bassam - Qassaa,damascus,syria,chez-bassam-qassaa,draft,restaurant,2023-10-25 08:57:27.858491 +00:00,,,false
363e382c-28be-4c54-ad1f-568cf6fac01c,0101000020E61000001A34F44F70254240FB3DB14E95C34040,Al-Mazraa,المزرعة,شيلاكس كافيه,Chillax Cafe,damascus,syria,chillax-cafe,draft,restaurant,2023-10-25 08:57:27.858491 +00:00,,,false
5489ed73-73dc-431e-8555-eb0dc2a391b0,0101000020E6100000BB0D6ABFB5254240B6F468AA27C34040,Al-Mazraa,المزرعة,تشيزا,Chizza,damascus,syria,chizza,draft,restaurant,2023-10-25 08:57:27.858491 +00:00,,,false
461b4f59-ea07-4deb-ad08-f5d75dadbf61,0101000020E6100000992B836A83274240D4D51D8B6DC24040,Baghdad Avenue,شارع بغداد,بيت الشوكولا,Chocolate House,damascus,syria,chocolate-house,draft,restaurant,2023-10-25 08:57:27.858491 +00:00,,,false
6639158a-4c1d-461f-9a06-a26db9a22fef,0101000020E6100000C9022670EB2642402C9FE57970BF4040,Midan,الميدان,شوكو تماري,Choco Tamari,damascus,syria,choco-tamari,draft,restaurant,2023-10-25 08:57:27.858491 +00:00,,,false
05767efc-ea55-4aa6-adb4-8a11fad92349,0101000020E6100000B3EA73B515234240399CF9D51CC04040,Kafar Souseh,كفرسوسة,كوك دور - كفرسوسة,Cook Door - Kafar Souseh,damascus,syria,cook-door-kafar-souseh,draft,restaurant,2023-10-25 08:57:27.858491 +00:00,,,false
171135cf-fc26-4b3d-b935-7940867c59af,0101000020E6100000C7D79E5912284240A03715A930C64040,Masakn Barzeh,مساكن برزة,كوك دور - قاسيون مول,Cook Door - Qasyon Mall,damascus,syria,cook-door-qasyon-mall,draft,restaurant,2023-10-25 08:57:27.858491 +00:00,,,false
7c0faeb3-dfab-4492-8379-c28b5c730e6d,0101000020E61000000647C9AB7324424014B35E0CE5C04040,Al Baramkeh,البرامكة,ديلي ايتاليان بيتزا,Daily Italian Pizza,damascus,syria,daily-italian-pizza,draft,restaurant,2023-10-25 08:57:27.858491 +00:00,,,false
ee26f9f4-c45e-47fb-b108-29f0bc4b31f9,0101000020E610000026E4839ECD1E424058E71890BDBE4040,Al Mazzeh,المزة,مطعم الدمشقي,Damascene Restaurant,damascus,syria,damascene-restaurant,draft,restaurant,2023-10-25 08:57:27.858491 +00:00,,,false
8c7bec46-e6ba-4b57-ad36-122eeef50f2e,0101000020E61000006CCF2C0950274240431A1538D9C04040,Medhat Basha,مدحت باشا,دار مسك,Darmisk,damascus,syria,darmisk,draft,restaurant,2023-10-25 08:57:27.858491 +00:00,,,false
132a338f-390f-4735-a623-ef284ab71f81,0101000020E61000006CCF2C0950274240431A1538D9C04040,Medhat Basha,مدحت باشا,حلويات دارمسك,Darmisk Desserts,damascus,syria,darmisk-desserts,draft,restaurant,2023-10-25 08:57:27.858491 +00:00,,,false
803f7cd9-61dc-444b-8a24-8668fc9e1491,0101000020E6100000A301BC0512284240C30DF8FC30C64040,Masakn Barzeh,مساكن برزة,دبس وحد,Debs w Had,damascus,syria,debs-w-had,draft,restaurant,2023-10-25 08:57:27.858491 +00:00,,,false
a9cb807b-c0d7-4ef4-8f4b-594e10a56546,0101000020E61000006AF5D55581244240D95DA0A4C0C24040,Arrawdah,الروضة,ديلي كيك,Delicake,damascus,syria,delicake,draft,restaurant,2023-10-25 08:57:27.858491 +00:00,,,false
f53094c5-a18b-4330-b422-70595b746bc2,0101000020E61000004C546F0D6C2542403546EBA86AC24040,Al Salhiyeh,الصالحية,ديفرنت برغر,Different Burger,damascus,syria,different-burger,draft,restaurant,2023-10-25 08:57:27.858491 +00:00,,,false
c2583e09-7d09-4eb5-acfd-ff97f6149458,0101000020E610000041B79734462342407923F3C81FC04040,Kafar Souseh,كفرسوسة,ديزني,Disney,damascus,syria,disney,draft,restaurant,2023-10-25 08:57:27.858491 +00:00,,,false
7c4a8312-1362-40d2-b678-a92b5a450d14,0101000020E6100000A0C37C7901264240EC4CA1F31ABF4040,Midan,الميدان,دونر شكرجي,Doner By Sekerci,damascus,syria,doner-by-sekerci,draft,restaurant,2023-10-25 08:57:27.858491 +00:00,,,false
8d65a3df-62a6-4607-a418-613cfdf8c77f,0101000020E610000036AB3E575B254240D68BA19C68BF4040,Midan,الميدان,دونتس هاوس - ميدان,Donuts House - Midan,damascus,syria,donuts-house-midan,draft,restaurant,2023-10-25 08:57:27.858491 +00:00,,,false
f4b7d129-9a63-4688-9496-3175dffca845,0101000020E6100000AB7823F3C82342400A85083884C24040,Al Malky,المالكي,دوو & كوو - نادي المالكي الرياضي,Doo & Coo - Malki Gym,damascus,syria,doo-coo-malki-gym,draft,restaurant,2023-10-25 08:57:27.858491 +00:00,,,false
1d423866-3f5f-4c7b-8be1-96b56adb0bdb,0101000020E610000041481630811F4240EB7420EBA9BF4040,Al Mazzeh,المزة,د. برغر,Dr. Burger,damascus,syria,dr-burger,draft,restaurant,2023-10-25 08:57:27.858491 +00:00,,,false
dcc78a3a-8a0b-408c-b686-d719a3b42a86,0101000020E61000008DD13AAA9A2C4240C364AA6054BE4040,Jaramana,جرمانا,د.كريب,Dr.Crepe,damascus,syria,dr-crepe,draft,restaurant,2023-10-25 08:57:27.858491 +00:00,,,false
6622ead5-39bf-41fa-a92d-aa2f051712ab,0101000020E6100000DBF97E6ABC20424095D4096822C04040,Al Mazzeh,المزة,باتيسري ايمبرس,Empress Patisserie,damascus,syria,empress-patisserie,draft,restaurant,2023-10-25 08:57:27.858491 +00:00,,,false
9fa1961c-1f5b-40d1-9846-23f58498fb04,0101000020E6100000C5E6E3DA5025424012312592E8C14040,The President Bridge,جسر الرئيس,مطعم ام شريف,Em Sherif Restaurant,damascus,syria,em-sherif-restaurant,draft,restaurant,2023-10-25 08:57:27.858491 +00:00,,,false
c7e7c9e5-79d1-4b6c-a07b-18324bf7a290,0101000020E6100000CCEEC9C342214240143FC6DCB5C04040,Al Mazzeh,المزة,سناك ايفريدي,Everyday Snack,damascus,syria,everyday-snack,draft,restaurant,2023-10-25 08:57:27.858491 +00:00,,,false
a924ef6b-b372-4de3-ae26-23e00df5ac26,0101000020E6100000670FB40243224240747B4963B4C24040,Al Mouhajrin,المهاجرين,فابيان,Fabian,damascus,syria,fabian,draft,restaurant,2023-10-25 08:57:27.858491 +00:00,,,false
f5d0cfbb-0a9e-4c37-94b2-e7a5ab9e2e1b,0101000020E6100000E7559DD50225424062670A9DD7C24040,Teliani,الطلياني,فلافل الأرز - الطلياني,Falafel Al Arz - Teliani,damascus,syria,falafel-al-arz-teliani,draft,restaurant,2023-10-25 08:57:27.858491 +00:00,,,false
ec16026d-0ec6-48d2-bfeb-b29a64ee3197,0101000020E6100000BBD05CA791264240DD0720B589BF4040,Al Zahera,الزاهرة,فلافل الراعي - فرع 2,Falafel Alraaei - Branch 2,damascus,syria,falafel-alraaei-branch-2,draft,restaurant,2023-10-25 08:57:27.858491 +00:00,,,false
5cb19432-932a-44ee-9812-5a4e34e03eff,0101000020E61000002BDEC83CF2234240A4FCA4DAA7BF4040,Kafar Souseh,كفرسوسة,فلافل الوليد - كفرسوسة,Falafel Al Waleed - Kafar Sousah,damascus,syria,falafel-al-waleed-kafar-sousah,draft,restaurant,2023-10-25 08:57:27.858491 +00:00,,,false
2d07baf1-3b30-4fe3-b8c1-c92da53e5915,0101000020E6100000BF654E97C524424097900F7A36C34040,Afif,عفيف,فلافل ابن الوليد,Falafel Ibn Al Waleed,damascus,syria,falafel-ibn-al-waleed,draft,restaurant,2023-10-25 08:57:27.858491 +00:00,,,false
1df19dff-4926-46c4-b008-33fd99740c7e,0101000020E6100000C4B46FEEAF2442406760E4654DC24040,Shalaan,الشعلان,سيارة مأكولات فيرمو,Fermo Truck,damascus,syria,fermo-truck,draft,restaurant,2023-10-25 08:57:27.858491 +00:00,,,false
e0a92236-9d94-46f7-baba-79735b937467,0101000020E6100000751DAA29C9244240346953758FC24040,Arrawdah,الروضة,فيرست & بيست -  الروضة,First & Best - Arrawdah,damascus,syria,first-best-arrawdah,draft,restaurant,2023-10-25 08:57:27.858491 +00:00,,,false
7c347c46-7161-4cd1-8525-f31e1261e083,0101000020E610000073BA2C26361F42402D095053CBBE4040,Al Mazzeh,المزة,فيش آند مور,Fish & More,damascus,syria,fish-more,draft,restaurant,2023-10-25 08:57:27.858491 +00:00,,,false
6f0c0d5b-1866-4627-9d6e-41e6f46c74fd,0101000020E61000006C43C5387F234240B1A206D330C04040,Kafar Souseh,كفرسوسة,فيشوز,Fishos,damascus,syria,fishos,draft,restaurant,2023-10-25 08:57:27.858491 +00:00,,,false
0da7e141-e462-4846-947d-6c20cc53c654,0101000020E6100000179AEB34D21E4240B9533A58FFBF4040,Mazzeh,المزة,فرنجكجي,Frenjakji,damascus,syria,frenjakji,draft,restaurant,2023-10-25 08:57:27.858491 +00:00,,,false
5f33d977-91f1-4079-aa78-ca2b3cf69ee8,0101000020E610000057CF49EF1B2342408733BF9A03C04040,Kafar Sousah,كفرسوسة,مطعم فريش كورنر,Fresh Corner Restaurant,damascus,syria,fresh-corner-restaurant,draft,restaurant,2023-10-25 08:57:27.858491 +00:00,,,false
ffc8b815-7e83-4564-bbaf-f889ef054112,0101000020E610000065A54929E81E4240174850FC18BF4040,Al Mazzeh,المزة,فريش كيتشن,Fresh Kitchen,damascus,syria,fresh-kitchen,draft,restaurant,2023-10-25 08:57:27.858491 +00:00,,,false
b3a2b751-4821-4bf7-a335-c67c685b3eb7,0101000020E6100000D388997D1E234240BE16F4DE18C04040,Kafar Sousah,كفرسوسة,فروت سالاد,Fruit Salad,damascus,syria,fruit-salad,draft,restaurant,2023-10-25 08:57:27.858491 +00:00,,,false
0dde7726-fc18-48fb-9157-2343deff4db7,0101000020E6100000FC1873D712264240C7293A92CBC34040,Al-Mazraa,المزرعة,غاردن,Garden,damascus,syria,garden,draft,restaurant,2023-10-25 08:57:27.858491 +00:00,,,false
a34302c4-cecb-4562-b9e6-89a02bab011f,0101000020E6100000F2B1BB40492542407B32FFE89BC24040,Arnous,عرنوس,بيت الغوفر,Gaufre,damascus,syria,gaufre,draft,restaurant,2023-10-25 08:57:27.858491 +00:00,,,false
b9facc5b-420c-43f9-bbb2-bf7c1ba96390,0101000020E6100000B7973446EB1C424097CADB114EC34040,Mashrou3 Dummar Expended,مشروع دمر,بيت الغوفر - آب تاون,Gaufre - Up Town,damascus,syria,gaufre-up-town,draft,restaurant,2023-10-25 08:57:27.858491 +00:00,,,false
1e7b8fd3-9932-490b-991a-59756d3878c0,0101000020E610000010FF55ECD4274240447E479E35C64040,Masakn Barzeh,مساكن برزة,غاناش - نيو قاسيون مول,Ghanache - New Qasyon Mall,damascus,syria,ghanache-new-qasyon-mall,draft,restaurant,2023-10-25 08:57:27.858491 +00:00,,,false
a3148e6b-2091-43bf-889c-c271eee95718,0101000020E6100000D3DEE00B93214240BF4868CBB9C04040,Al Mazzeh,المزة,غولدن بيكري,Golden Bakery,damascus,syria,golden-bakery,draft,restaurant,2023-10-25 08:57:27.858491 +00:00,,,false
b7ffcd17-d802-4b13-853b-2a66c85e7c98,0101000020E61000005B99F04BFD244240AD174339D1C24040,Al Jessr Al Abied,الجسر الأبيض,الفروج الذهبي,Golden Chicken,damascus,syria,golden-chicken,draft,restaurant,2023-10-25 08:57:27.858491 +00:00,,,false
09ce9586-1d12-47df-83ca-aca8bba1a322,0101000020E61000005F24B4E55C26424034A2B437F8BE4040,Al Zahera,الزاهرة,غولدن تشيكن - الزاهرة,Golden Chicken - Al Zahera,damascus,syria,golden-chicken-al-zahera,draft,restaurant,2023-10-25 08:57:27.858491 +00:00,,,false
40446722-7565-4c2c-856b-f8031bdfce3f,0101000020E610000032C9C859D8234240FB96395D16C34040,Al Mouhajrin,المهاجرين,غولدن تشيكن - مهاجرين,Golden Chicken - Mouhajrin,damascus,syria,golden-chicken-mouhajrin,draft,restaurant,2023-10-25 08:57:27.858491 +00:00,,,false
bfbc421b-ade5-4a17-888f-c8a1ddd78986,0101000020E61000003D9B559FAB254240D690B8C7D2C34040,Almesat,الميسات,غراند بيكرز - الميسات,Grand Bakers - Almesat,damascus,syria,grand-bakers-almesat,draft,restaurant,2023-10-25 08:57:27.858491 +00:00,,,false
5c782265-7417-4339-b659-65d9614a3bec,0101000020E61000004C546F0D6C1D42402BD9B11188C34040,Mashrou3 Dummar Expended,مشروع دمر,غراند بيكرز - مشروع دمر,Grand Bakers - Mashrou3 Dummar,damascus,syria,grand-bakers-mashrou3-dummar,draft,restaurant,2023-10-25 08:57:27.858491 +00:00,,,false
30998890-7493-4555-8ce6-42aaeda9d63f,0101000020E61000009CA223B9FC2342402827DA5548C14040,Al Baramkeh,البرامكة,غراند كوفي شوب آند مور,Grand Coffee Shop & More,damascus,syria,grand-coffee-shop-more,draft,restaurant,2023-10-25 08:57:27.858491 +00:00,,,false
caf8bbde-09c4-4e10-a71e-4e2e959d15cc,0101000020E6100000A12E52280B2542406211C30E63C24040,Shalaan,الشعلان,غرين آبل,Green Apple,damascus,syria,green-apple,draft,restaurant,2023-10-25 08:57:27.858491 +00:00,,,false
c8fcc24d-e940-4186-9bd7-6cae4edc8046,0101000020E610000041481630811F42404F0647C9ABBF4040,Mazzeh,المزة,HB Station,HB Station,damascus,syria,hb-station,draft,restaurant,2023-10-25 08:57:27.858491 +00:00,,,false
71bca0f7-c65f-4a35-b3a2-019040eb71f5,0101000020E6100000AB7823F3C82342400A85083884C24040,Al Malky,المالكي,هيلثي ليشزز - نادي المالكي الرياضي,Healthy Liciouses - Malki Gym,damascus,syria,healthy-liciouses-malki-gym,draft,restaurant,2023-10-25 08:57:27.858491 +00:00,,,false
b616eedf-afec-426d-a5c9-c869abdd6948,0101000020E61000001EC4CE143A2342408048BF7D1DC04040,Kafar Sousah,كفرسوسة,مطعم هاينيس,Highness Restaurant,damascus,syria,highness-restaurant,draft,restaurant,2023-10-25 08:57:27.858491 +00:00,,,false
d7a4f39d-ce20-42c0-b75c-73bcfcb2112b,0101000020E6100000738577B988274240137EA99F37C14040,Old Damascus,دمشق القديمة,هوكيز,Hookies,damascus,syria,hookies,draft,restaurant,2023-10-25 08:57:27.858491 +00:00,,,false
9b314957-39e5-46e4-a1dd-fb571986e4d7,0101000020E6100000EBAD81AD1228424067F2CD3637C64040,Masakn Barzeh,مساكن برزة,هوت بيكري,Hot Bakery,damascus,syria,hot-bakery,draft,restaurant,2023-10-25 08:57:27.858491 +00:00,,,false
e63202f3-7889-430c-a6ea-fb2418ced086,0101000020E6100000B282DF86182342406C2409C215C04040,Kafar Sousah,كفرسوسة,هنغري باني,Hungry Bunny,damascus,syria,hungry-bunny,draft,restaurant,2023-10-25 08:57:27.858491 +00:00,,,false
6579b4f4-0bb4-4f47-9f01-84eef639d8d5,0101000020E610000068AED3484B2542408481E7DEC3C14040,The President Bridge,جسر الرئيس,مطعم إل دون,IL DON Restaurant,damascus,syria,il-don-restaurant,draft,restaurant,2023-10-25 08:57:27.858491 +00:00,,,false
b9cba357-b4f9-46ef-bd35-e8ce1fb30b8d,0101000020E6100000D1915CFE431E4240168733BF9ABF4040,Al Mazzeh,المزة,قهوتي,Il Mio Cafe,damascus,syria,il-mio-cafe,draft,restaurant,2023-10-25 08:57:27.858491 +00:00,,,false
d35dc19d-4140-4427-bd34-c12a467cba67,0101000020E610000004FF5BC98E2542407B4E7ADFF8C24040,Shahbandar Square,ساحة الشهبدر,مطبخ ايمان,Iman Kitchen,damascus,syria,iman-kitchen,draft,restaurant,2023-10-25 08:57:27.858491 +00:00,,,false
a9c8f1f1-2685-445b-8dab-1f96ec3b0ba2,0101000020E6100000DC80CF0F232842404777103B53C04040,Al Zahera,الزاهرة,امبريو,Imperio,damascus,syria,imperio,draft,restaurant,2023-10-25 08:57:27.858491 +00:00,,,false
6869709f-81c8-4418-a59c-a06b5802fcd6,0101000020E6100000F792C6681D254240DF89592F86C24040,Shalaan,الشعلان,ان اند اوت,In & Out,damascus,syria,in-out,draft,restaurant,2023-10-25 08:57:27.858491 +00:00,,,false
cbf74e9b-8f00-4bf9-adc9-e6d6514bc7ff,0101000020E6100000130A1170081D4240B35E0CE544C34040,Mashrou3 Dummar Expended,مشروع دمر,جيلي بيلي,Jelly Belly,damascus,syria,jelly-belly,draft,restaurant,2023-10-25 08:57:27.858491 +00:00,,,false
b153657e-5a9b-43d3-a543-b0354ad42a21,0101000020E61000000CCD751A69254240522CB7B41AC24040,Maysaloon,ميسلون,جولياز,Julias,damascus,syria,julias,draft,restaurant,2023-10-25 08:57:27.858491 +00:00,,,false
98b1237a-a2b4-44b5-b46d-0a61a9623c91,0101000020E6100000B79C4B71552542402788BA0F40C24040,AL Hamra Street,شارع الحمرا,اكلات القدموس,Kadmous Eatery,damascus,syria,kadmous-eatery,draft,restaurant,2023-10-25 08:57:27.858491 +00:00,,,false
2ec08eb6-55cb-479e-869e-c6e82cb6c109,0101000020E610000076711B0DE0254240FA7E6ABC74C34040,Al-Mazraa,المزرعة,مطعم كاجو,Kajo Restaurant,damascus,syria,kajo-restaurant,draft,restaurant,2023-10-25 08:57:27.858491 +00:00,,,false
07115e98-12b7-44d1-8da4-58513334196a,0101000020E6100000CF66D5E76A1F4240ABB2EF8AE0C34040,Mashrou3 Dummar,مشروع دمر,كالهاري لاونج,Kalahari Lounge,damascus,syria,kalahari-lounge,draft,restaurant,2023-10-25 08:57:27.858491 +00:00,,,false
8ceacdc6-b1a1-412f-b21d-2457de2d831e,0101000020E6100000D717096D39234240B9AAECBB22C04040,Kafar Sousah,كفرسوسة,كباب لينك,Kebab Link,damascus,syria,kebab-link,draft,restaurant,2023-10-25 08:57:27.858491 +00:00,,,false
a0910d84-691c-422d-a8f1-8b739e629765,0101000020E610000041B79734462342407923F3C81FC04040,Kafar Souseh,كفرسوسة,KFC,KFC,damascus,syria,kfc,draft,restaurant,2023-10-25 08:57:27.858491 +00:00,,,false
2c38f23c-b152-4253-baf3-2ddf0d12da57,0101000020E6100000FE9AAC510F25424043E7357689BE4040,Midan,الميدان,مطبخ خطاب و حموي,Khattab & Hamwi Kitchen,damascus,syria,khattab-hamwi-kitchen,draft,restaurant,2023-10-25 08:57:27.858491 +00:00,,,false
14760705-5523-4e5b-bfc3-9b3965fbcbc7,0101000020E6100000AB05F6984823424008008E3D7BC24040,Al Malky,المالكي,خبزة و جبنة,Khbzeh W Jbneh,damascus,syria,khbzeh-w-jbneh,draft,restaurant,2023-10-25 08:57:27.858491 +00:00,,,false
a511582e-4477-4ce8-a92d-a6ec390411e7,0101000020E61000002BA391CF2B264240EE08A7052FC44040,Al Maisat,الميسات,خبزة وشاورما,khbzeh W Shawerma,damascus,syria,khbzeh-w-shawerma,draft,restaurant,2023-10-25 08:57:27.858491 +00:00,,,false
058a9bff-92c6-4254-9fd3-a289eafdff96,0101000020E6100000B7973446EB1C424097CADB114EC34040,Mashrou3 Dummar Expended,مشروع دمر,كوكسال بابا,Koksal Baba,damascus,syria,koksal-baba,draft,restaurant,2023-10-25 08:57:27.858491 +00:00,,,false
3b911b89-2e2b-467b-a820-7aa4db64186a,0101000020E6100000A75CE15D2E1A4240E197FA7953C54040,Qudssaya Suburb,ضاحية قدسيا,لا كاسا دي برغر,La Casa De Burger,damascus,syria,la-casa-de-burger,draft,restaurant,2023-10-25 08:57:27.858491 +00:00,,,false
e84c0399-4308-4cf1-a3af-f5f49e8f3d1f,0101000020E610000043C472F0F1104240FD851E317AC64040,Qura Al Assad,قري الأسد,لا ميزون,La Maison,damascus,syria,la-maison,draft,restaurant,2023-10-25 08:57:27.858491 +00:00,,,false
b79c03ea-692b-4661-8da8-666d598965f6,0101000020E6100000DCD78173462C4240982F2FC03EBE4040,Jaramana,جرمانا,لامينارو,Laminaro,damascus,syria,laminaro,draft,restaurant,2023-10-25 08:57:27.858491 +00:00,,,false
ecc36459-d2e8-4681-8846-d7912be4bcc4,0101000020E610000073BA2C26361F42402D095053CBBE4040,Al Mazzeh,المزة,لازانيا دي ميلانو,Lasagna De Milano,damascus,syria,lasagna-de-milano,draft,restaurant,2023-10-25 08:57:27.858491 +00:00,,,false
a84a1cbd-9675-456d-b2c5-409671281617,0101000020E6100000B1E1E995B22842402098A3C7EFC54040,Masakn Barzeh,مساكن برزة,لا فيسبارو,La Vesparo,damascus,syria,la-vesparo,draft,restaurant,2023-10-25 08:57:27.858491 +00:00,,,false
726ba009-1fb3-421b-b1fe-c37ba5743853,0101000020E6100000098A1F63EE224240350C1F1153C24040,Malki,المالكي,ليتس بان,Lets Bun,damascus,syria,lets-bun,draft,restaurant,2023-10-25 08:57:27.858491 +00:00,,,false
41e2a7ec-a1e0-43c3-9534-abbaade8ebf2,0101000020E61000004D158C4AEA244240AA9A20EA3EC04040,Kafar Sousah,كفرسوسة,لايك فريش,Like Fresh,damascus,syria,like-fresh,draft,restaurant,2023-10-25 08:57:27.858491 +00:00,,,false
8600e6ad-433e-48a1-9b23-921b89ab4b92,0101000020E610000019E76F4221224240AFEB17EC86C14040,Al Mazzeh,المزة,ماجيكال تيست,Magical Taste,damascus,syria,magical-taste,draft,restaurant,2023-10-25 08:57:27.858491 +00:00,,,false
44724a13-955e-4e78-8289-d63c11c35a7f,0101000020E6100000BA83D899421F4240D8F50B76C3BE4040,Al Mazzeh,المزة,محمصة نظام الرئيسية - المزة,Main Nizam Roastery - Al Mazzeh,damascus,syria,main-nizam-roastery-al-mazzeh,draft,restaurant,2023-10-25 08:57:27.858491 +00:00,,,false
d0f9b9b4-b7bd-4abc-adf9-64be8ff89651,0101000020E6100000D40E7F4DD6224240213F1BB96EC24040,Malky,المالكي,ميزون سليق,Maison slik,damascus,syria,maison-slik,draft,restaurant,2023-10-25 08:57:27.858491 +00:00,,,false
1d4ab1f9-8f0d-4ecb-97ff-7b3fc051c25b,0101000020E6100000F7AFAC3429254240F5A10BEA5BC24040,Shalaan,شعلان,ملك العوامة,Malek Al Awameh,damascus,syria,malek-al-awameh,draft,restaurant,2023-10-25 08:57:27.858491 +00:00,,,false
05db6db0-5027-4672-9b1f-6ea8e8876798,0101000020E6100000868F8829912842403EE8D9ACFAC04040,Old Damascus,دمشق القديمة,مطبخ ماما سميرة,Mama Samira Catering,damascus,syria,mama-samira-catering,draft,restaurant,2023-10-25 08:57:27.858491 +00:00,,,false
418fdf77-586c-4aad-a454-63de006749b1,0101000020E6100000B54FC7630626424010406A1327C34040,Al-Mazraa,المزرعة,قصر المندي,Mandi Palace,damascus,syria,mandi-palace,draft,restaurant,2023-10-25 08:57:27.858491 +00:00,,,false
64bbeb7e-0a13-43bf-9b42-5ea46fa80c4f,0101000020E6100000B438639813244240F5DBD78173C24040,Abou Roummaneh,ابو رمانة,مارانيللو,Maranello,damascus,syria,maranello,draft,restaurant,2023-10-25 08:57:27.858491 +00:00,,,false
cfc7e78d-e813-4695-8245-3ce240a2ab40,0101000020E6100000F6EE8FF7AA25424034D769A4A5C24040,Pakistan,شارع الباكستان,مرايا,Maraya,damascus,syria,maraya,draft,restaurant,2023-10-25 08:57:27.858491 +00:00,,,false
48a30d62-5b7b-4528-8b55-28b49a1477f3,0101000020E610000097A8DE1AD8264240D07EA4880CC34040,Al-Adawi,العدوي,مأكولات مارتا,Marta Foods,damascus,syria,marta-foods,draft,restaurant,2023-10-25 08:57:27.858491 +00:00,,,false
baf55181-ed32-47e5-99bd-4bdaa1838a72,0101000020E61000007F6ABC7493244240DB334B02D4C04040,Al Baramkeh,البرامكة,مارفل غريل,Marvel Grill,damascus,syria,marvel-grill,draft,restaurant,2023-10-25 08:57:27.858491 +00:00,,,false
20e1a54f-96f6-4f01-9ee5-30708ea15e38,0101000020E61000008672A25D85244240255D33F966BF4040,Kafar Souseh,كفرسوسة,مطبخ ستي,Matbakh Sitti,damascus,syria,matbakh-sitti,draft,restaurant,2023-10-25 08:57:27.858491 +00:00,,,false
a86f6411-863d-491b-b770-3d61952b324e,0101000020E6100000DDCEBEF2201F424084BD892139BF4040,Mazzeh,المزة,متليك اكسبرس,Matleek Express,damascus,syria,matleek-express,draft,restaurant,2023-10-25 08:57:27.858491 +00:00,,,false
2a6be82d-fa37-4a84-bf06-f65a67e01dfc,0101000020E61000000CE544BB0A254240FC1D8A027DC24040,Shalaan,شعلان,مطعم ميداس,Medas Restaurant,damascus,syria,medas-restaurant,draft,restaurant,2023-10-25 08:57:27.858491 +00:00,,,false
a0954d05-c1a5-41a8-b173-d7174c0fe99e,0101000020E6100000E09F5225CA2242409A5C8C8175C24040,Al Malky,المالكي,ميلت,Melt,damascus,syria,melt,draft,restaurant,2023-10-25 08:57:27.858491 +00:00,,,false
e38d59c4-9f62-4984-82ab-65ab2710bc3c,0101000020E6100000B8239C16BC244240ED9E3C2CD4C24040,Abo Rummaneh,ابو رمانة,ميس سينابون,Miss Cinnabon,damascus,syria,miss-cinnabon,draft,restaurant,2023-10-25 08:57:27.858491 +00:00,,,false
631862af-36b2-41d5-8a02-568d54f536e8,0101000020E610000041B79734462342407923F3C81FC04040,Kafar Souseh,كفرسوسة,ام آند امز,M & Ms,damascus,syria,m-ms,draft,restaurant,2023-10-25 08:57:27.858491 +00:00,,,false
417f6f7d-fea0-45cc-bbb7-c45a503b9afb,0101000020E6100000314278B4711C4240D6E253008CC34040,Mashrou3 Dummar Expended,مشروع دمر,المعجناتي,Mouajanati,damascus,syria,mouajanati,draft,restaurant,2023-10-25 08:57:27.858491 +00:00,,,false
f00f16e1-9501-4d26-9e0e-8a148022db41,0101000020E6100000AEB9A3FFE5204240B612BA4BE2C04040,Al Mazzeh,المزة,ملوك الشاورما,Moulouk Shawerma,damascus,syria,moulouk-shawerma,draft,restaurant,2023-10-25 08:57:27.858491 +00:00,,,false
ee47bdb3-7c12-4719-aad2-ebcef66dec5b,0101000020E6100000850838842A2542407CD5CA845FC24040,Shalaan,الشعلان,مستر بنانا,Mr Banana,damascus,syria,mr-banana,draft,restaurant,2023-10-25 08:57:27.858491 +00:00,,,false
f7addd8d-957f-4245-ada2-0360cd558b72,0101000020E6100000F0332E1C081D4240B35E0CE544C34040,Mashru3 Dummer,مشروع دمر,مستر سينابون,Mr.Cinnabon,damascus,syria,mr-cinnabon,draft,restaurant,2023-10-25 08:57:27.858491 +00:00,,,false
52a24b0d-3914-4f10-a518-747f5e7a27a7,0101000020E61000000DAB7823F324424051DA1B7C61C24040,Shaalan,الشعلان,مستر كومبرينو - شعلان,Mr Kompreno - Shaalan,damascus,syria,mr-kompreno-shaalan,draft,restaurant,2023-10-25 08:57:27.858491 +00:00,,,false
21a83548-3001-4bc5-a1a9-a0115f4d2714,0101000020E6100000CF6A813D2620424077F700DD97BF4040,Mazzeh,المزة,مستر كويك,Mr Quick,damascus,syria,mr-quick,draft,restaurant,2023-10-25 08:57:27.858491 +00:00,,,false
a80e0548-30cb-4db1-b791-f7befbd22bfa,0101000020E61000001CB62DCA6C284240ED815660C8C24040,Al Ghasani,الغساني,ماي بيكر - الغساني,My Baker - Al Ghasani,damascus,syria,my-baker-al-ghasani,draft,restaurant,2023-10-25 08:57:27.858491 +00:00,,,false
11fe192c-0b48-4d8c-8843-217c4fe453f2,0101000020E6100000ECFA05BB612342408A7615527EC24040,Malky,المالكي,ماي بيكر - المالكي,My Baker - Al-Malky,damascus,syria,my-baker-al-malky,draft,restaurant,2023-10-25 08:57:27.858491 +00:00,,,false
a3a72b36-a926-45fe-b0b7-dc5447b960e4,0101000020E6100000B22E6EA301104240C0E78711C2C34040,Al Saboura,الصبورة,ماي بيكر - الصبورة,My Baker - Al Saboura,damascus,syria,my-baker-al-saboura,draft,restaurant,2023-10-25 08:57:27.858491 +00:00,,,false
9e9f4220-d4f8-465c-8812-5647c674b2e3,0101000020E61000001B4CC3F011254240618907944DC14040,Al - Baramkeh,البرامكة,نبيل نفيسة - البرامكة,Nabeel Nafisah - Al Baramkeh,damascus,syria,nabeel-nafisah-al-baramkeh,draft,restaurant,2023-10-25 08:57:27.858491 +00:00,,,false
98ebdcb0-0510-4291-9c29-e1673acd05d6,0101000020E61000002FBFD364C625424049D576137CC14040,Al Hijaz,الحجاز,نبيل نفيسة - الحجاز,Nabeel Nafisah - Al Hijaz,damascus,syria,nabeel-nafisah-al-hijaz,draft,restaurant,2023-10-25 08:57:27.858491 +00:00,,,false
89520a5a-46c0-4b06-b264-376cbb22be27,0101000020E6100000F8C610001C2142405AD5928E72C04040,Al Mazzeh,المزة,نبيل نفيسة - المزة اوتستراد,Nabeel Nafisah - Al Mazzeh Highway,damascus,syria,nabeel-nafisah-al-mazzeh-highway,draft,restaurant,2023-10-25 08:57:27.858491 +00:00,,,false
afe0b091-4173-4417-80e0-83087d64ba95,0101000020E610000075594C6C3E2642404512BD8C62C14040,AL Naser Street,شارع النصر,نبيل نفيسة - شارع النصر,Nabeel Nafisah - AL Naser Street,damascus,syria,nabeel-nafisah-al-naser-street,draft,restaurant,2023-10-25 08:57:27.858491 +00:00,,,false
d332857d-e0ab-4568-8772-f9e97fc16b84,0101000020E61000007E00529B38254240E5B33C0FEEC24040,Arnous,عرنوس,نبيل نفيسة - عرنوس,Nabeel Nafisah - Arnous,damascus,syria,nabeel-nafisah-arnous,draft,restaurant,2023-10-25 08:57:27.858491 +00:00,,,false
6430ad5b-e45a-40b9-8143-2e4b487f33b0,0101000020E6100000EC34D252792B4240A661F88898BE4040,Jaramana,جرمانا,نبيل نفيسة - جرمانا,Nabeel Nafisah - Jaramana,damascus,syria,nabeel-nafisah-jaramana,draft,restaurant,2023-10-25 08:57:27.858491 +00:00,,,false
59183892-2a69-4763-9ef3-fb5d83863159,0101000020E6100000705D3123BC234240F5D6C05609C04040,Kafar Sousah,كفرسوسة,نبيل نفيسة - كفرسوسة,Nabeel Nafisah - Kafar Sousah,damascus,syria,nabeel-nafisah-kafar-sousah,draft,restaurant,2023-10-25 08:57:27.858491 +00:00,,,false
8eeea799-e6c2-43a4-977b-2a1fc4bed2c9,0101000020E610000051DB865110284240DBF813950DC34040,Al-Koussour,القصور,نبيل نفيسة - القصور,Nabeel Nafisah - Koussour,damascus,syria,nabeel-nafisah-koussour,draft,restaurant,2023-10-25 08:57:27.858491 +00:00,,,false
fee37838-3c94-4717-920f-0f3de7588c09,0101000020E61000001A868F88291F42405A2E1B9DF3BF4040,Al Mazzeh,المزة,كنافة نبيل نفيسة - المزة ساحة الهدى,Nabeel Nafisah Kunafa -  Al Mazzeh Al Huda Square,damascus,syria,nabeel-nafisah-kunafa-al-mazzeh-al-huda-square,draft,restaurant,2023-10-25 08:57:27.858491 +00:00,,,false
34017580-26e5-4aa3-b026-8f8275ee1bd4,0101000020E610000030478FDFDB284240FDA4DAA7E3C54040,Masakn Barzeh,مساكن برزة,نبيل نفيسة - مساكن برزة,Nabeel Nafisah - Masakn Barzeh,damascus,syria,nabeel-nafisah-masakn-barzeh,draft,restaurant,2023-10-25 08:57:27.858491 +00:00,,,false
4df40fb1-e460-4da1-954c-a6cf0f8b78c2,0101000020E6100000E9B985AE441C4240DFFB1BB457C34040,Mashrou3 Dummar Expended,مشروع دمر,نبيل نفيسة - مشروع دمر,Nabeel Nafisah - Mashrou3 Dummar,damascus,syria,nabeel-nafisah-mashrou3-dummar,draft,restaurant,2023-10-25 08:57:27.858491 +00:00,,,false
871793fd-f5b8-49d2-93d9-8ac012574868,0101000020E610000011E15F048D21424033C4B12E6EC14040,Mazzeh,المزة,نبيل نفيسة - دوار المواساة,Nabeel Nafisah - Muasaa Square,damascus,syria,nabeel-nafisah-muasaa-square,draft,restaurant,2023-10-25 08:57:27.858491 +00:00,,,false
752fb10f-39a3-4cd8-95a5-1618e6a5a284,0101000020E610000065E42CEC691B42403D0FEECEDAC54040,Qudssaya,قدسيا البلد,نبيل نفيسة - قدسيا,Nabeel Nafisah - Qudssaya,damascus,syria,nabeel-nafisah-qudssaya,draft,restaurant,2023-10-25 08:57:27.858491 +00:00,,,false
77eb8cf7-a38e-40d1-906b-1d1accfbb1b8,0101000020E61000008D28ED0DBE184240A3409FC893C44040,Qudssaya Suburb,ضاحية قدسيا,نبيل نفيسة - ضاحية قدسيا,Nabeel Nafisah - Qudssaya Suburb,damascus,syria,nabeel-nafisah-qudssaya-suburb,draft,restaurant,2023-10-25 08:57:27.858491 +00:00,,,false
ab73b108-3845-440b-8f42-12a51c768e1a,0101000020E6100000A2EE0390DA24424020D26F5F07C24040,Abou Roummaneh,ابو رمانة,نوماد,Nomad,damascus,syria,nomad,draft,restaurant,2023-10-25 08:57:27.858491 +00:00,,,false
1eae88ba-253b-4895-80ee-1dfdbd359026,0101000020E61000005704FF5BC9224240E6913F1878C24040,Al Malky,المالكي,نات فليكس,Nutflix,damascus,syria,nutflix,draft,restaurant,2023-10-25 08:57:27.858491 +00:00,,,false
977251bc-870a-482b-9f7e-dd05712d632d,0101000020E610000062F3716DA824424092B3B0A71DC24040,Abou Roummaneh,ابو رمانة,اوكي سوشي,Oki Sushi,damascus,syria,oki-sushi,draft,restaurant,2023-10-25 08:57:27.858491 +00:00,,,false
ad91721b-70fc-4d8d-b36e-fd0ede161f9d,0101000020E6100000A01A2FDD241A4240058BC3995FC54040,Qudssaya Suburb,ضاحية قدسيا,بابلو,Pablo,damascus,syria,pablo,draft,restaurant,2023-10-25 08:57:27.858491 +00:00,,,false
6b22fa3d-147f-469b-be2e-31ad3a32c55c,0101000020E6100000594C6C3EAE254240A67EDE54A4C24040,Arnous,عرنوس,عصير الباكستان,Pakistan Juice,damascus,syria,pakistan-juice,draft,restaurant,2023-10-25 08:57:27.858491 +00:00,,,false
77be1342-0454-4e32-a830-165c51409e6f,0101000020E610000058A835CD3B26424005A8A9656BC14040,AL Naser Street,شارع النصر,باندا سندويش - شارع النصر,Panda Sandwich - AL Naser Street,damascus,syria,panda-sandwich-al-naser-street,draft,restaurant,2023-10-25 08:57:27.858491 +00:00,,,false
cd4612b3-773d-4277-8c54-acc9474a3830,0101000020E61000002384471B471C424096E7C1DD59C34040,Mashrou3 Dummar Expended,مشروع دمر,باندا سناك - مشروع دمر,Panda Snack - Mashrou3 Dummar,damascus,syria,panda-snack-mashrou3-dummar,draft,restaurant,2023-10-25 08:57:27.858491 +00:00,,,false
13b9a397-6d72-4fe1-bb95-4b69ca2da18a,0101000020E610000038328FFCC1244240CA32C4B12EC24040,Shalaan,الشعلان,باسكوتشي اكسبريس,Pascucci Express,damascus,syria,pascucci-express,draft,restaurant,2023-10-25 08:57:27.858491 +00:00,,,false
69586436-cc6e-49ce-b265-367101f7000d,0101000020E6100000B41F2922C31E42406C5B94D920BF4040,Al Mazzeh,المزة,باشن ناتس,Passion Nuts,damascus,syria,passion-nuts,draft,restaurant,2023-10-25 08:57:27.858491 +00:00,,,false
065ace32-38b4-4d98-9030-45426ed58691,0101000020E6100000AD342905DD1A424083177D0569C24040,Mashrou3 Dummar Expended,مشروع دمر,مطعم حبق,Pesto Roof Restaurant,damascus,syria,pesto-roof-restaurant,draft,restaurant,2023-10-25 08:57:27.858491 +00:00,,,false
c2ec234d-5eea-48e9-bf10-7d968c5d6c1f,0101000020E610000001309E41432342407923F3C81FC04040,Kafar Souseh,كفرسوسة,الفطيرة الساخنة - كفرسوسة,Pizza Hot - B2,damascus,syria,pizza-hot-b2,draft,restaurant,2023-10-25 08:57:27.858491 +00:00,,,false
ed96176a-3843-41ea-84a2-8ffc78695c89,0101000020E6100000941117804623424032C85D8429C24040,Malky,المالكي,الفطيرة الساخنة - المالكي,Pizza Hot - Malki,damascus,syria,pizza-hot-malki,draft,restaurant,2023-10-25 08:57:27.858491 +00:00,,,false
9de4104e-9f84-4ec9-90a2-70831794dcbd,0101000020E61000002A55A2EC2D2542409DD5027B4CC24040,Shalaan,الشعلان,بيتزا مشلتت,Pizza Meshaltet,damascus,syria,pizza-meshaltet,draft,restaurant,2023-10-25 08:57:27.858491 +00:00,,,false
df1104e6-6f06-44c1-ba28-9a3ff72dc0a6,0101000020E6100000F0BF95ECD8284240D68BA19C68C34040,East Al Tijara,شرق التجارة,بيتزا ون,Pizza One,damascus,syria,pizza-one,draft,restaurant,2023-10-25 08:57:27.858491 +00:00,,,false
cda381be-4265-42ca-83cd-25add6ae70a3,0101000020E6100000E8BD3104002542403F912749D7C24040,Teliani,الطلياني,بيتزا ومعجنات الأرز,Pizza & Pastry Alarz,damascus,syria,pizza-pastry-alarz,draft,restaurant,2023-10-25 08:57:27.858491 +00:00,,,false
d5ab6a8f-fb63-4daa-942a-291c95ef7001,0101000020E61000005C1D007157254240FC6D4F90D8C24040,Arnous,عرنوس,بيتزارلي - عرنوس,Pizzarelli - Arnous,damascus,syria,pizzarelli-arnous,draft,restaurant,2023-10-25 08:57:27.858491 +00:00,,,false
76ce705f-c1c4-4790-8644-285da4174868,0101000020E61000006C3EAE0D15234240DC63E94317C04040,Kafar Souseh,كفرسوسة,بيتزارلي - الشام سيتي سنتر,Pizzarelli - Cham City Center,damascus,syria,pizzarelli-cham-city-center,draft,restaurant,2023-10-25 08:57:27.858491 +00:00,,,false
2dea33b9-a007-40df-9429-f2b830b460bf,0101000020E61000005D8940F50F284240FED7B96933C64040,Masakn Barzeh,مساكن برزة,بيتزارلي - قاسيون مول,Pizzarelli - Qasyon mall,damascus,syria,pizzarelli-qasyon-mall,draft,restaurant,2023-10-25 08:57:27.858491 +00:00,,,false
8c8610ac-bd20-4c79-b862-a5b3077501e3,0101000020E6100000EB1F4432E41C4240605628D2FDC24040,Mashrou3 Dummar,مشروع دمر,بيتزا وسجق,Pizza & Sausage,damascus,syria,pizza-sausage,draft,restaurant,2023-10-25 08:57:27.858491 +00:00,,,false
d100f699-1b08-4535-af3f-fc49d1cf8a7b,0101000020E6100000B282DF86182342406C2409C215C04040,Kafar Sousah,كفرسوسة,بفيز - كفرسوسة,Puffys - Kafar Sousah,damascus,syria,puffys-kafar-sousah,draft,restaurant,2023-10-25 08:57:27.858491 +00:00,,,false
21973d3f-b33c-4742-bbde-5ba2f0e7de66,0101000020E61000007AC7293A9223424010E9B7AF03C34040,Al Mouhajrin,المهاجرين,مطعم قاسيون,Qasyon Restaurant,damascus,syria,qasyon-restaurant,draft,restaurant,2023-10-25 08:57:27.858491 +00:00,,,false
c6c34a05-ef18-4ad2-bbd8-ccff4e7a9634,0101000020E6100000B28009DCBA1B4240999EB0C403C64040,Qudssaya,قدسيا,ريان الفرات,Rayan Al-Furat,damascus,syria,rayan-al-furat,draft,restaurant,2023-10-25 08:57:27.858491 +00:00,,,false
04ead4d1-1b63-4f37-9a45-38fa01510fc9,0101000020E61000004EEE77280A284240174850FC18C34040,Al-Koussour,القصور,بيت رز,Rice House,damascus,syria,rice-house,draft,restaurant,2023-10-25 08:57:27.858491 +00:00,,,false
2d3f6b5f-a985-462d-84ce-08868d11e117,0101000020E61000006C3EAE0D152342402310AFEB17C04040,Kafar Sousah,كفرسوسة,روبوروستر برغر وجوانح,Roborooster Burger & Wings,damascus,syria,roborooster-burger-wings,draft,restaurant,2023-10-25 08:57:27.858491 +00:00,,,false
f92f291c-8365-43fc-aabc-7064ba6f6d51,0101000020E61000008D976E12832842403EB324404DC14040,Old Damascus,دمشق القديمة,روسيني,Rossini,damascus,syria,rossini,draft,restaurant,2023-10-25 08:57:27.858491 +00:00,,,false
20a340dd-b7a4-44c9-8e56-aa8f155c9d3a,0101000020E6100000CE1951DA1B2842406FBBD05CA7C14040,Bab Tuma,باب توما,روت 66,Route 66,damascus,syria,route-66,draft,restaurant,2023-10-25 08:57:27.858491 +00:00,,,false
bbfa4659-c314-4f53-8981-153546247a84,0101000020E6100000BE13B35E0C2542408A1F63EE5AC24040,Shalaan,الشعلان,الوجبة الملكية,Royal Meal,damascus,syria,royal-meal,draft,restaurant,2023-10-25 08:57:27.858491 +00:00,,,false
e06718ba-f458-41c9-b2f4-8ae7cd5eedeb,0101000020E6100000D8648D7A882242402788BA0F40C24040,Al Malky,المالكي,صح النوم,Sah El Nom,damascus,syria,sah-el-nom,draft,restaurant,2023-10-25 08:57:27.858491 +00:00,,,false
734102a3-521a-4d9c-a3af-71b2401fd2ff,0101000020E6100000D74CBED9E6224240DE54A4C2D8C24040,Al Mouhajrin,المهاجرين,سهرية,Sahria,damascus,syria,sahria,draft,restaurant,2023-10-25 08:57:27.858491 +00:00,,,false
9b4d094b-8cc2-4beb-af84-d8982a363475,0101000020E6100000C7D79E5912284240A03715A930C64040,Masakn Barzeh,مساكن برزة,صاج محل,Saj Mahal,damascus,syria,saj-mahal,draft,restaurant,2023-10-25 08:57:27.858491 +00:00,,,false
d37ec990-4d1d-4bf0-b9eb-87cf1c5e21c7,0101000020E610000078280AF48924424046425BCEA5C04040,Al Baramkeh,البرامكة,صوصي & صوص - البرامكة,Sauci & Sauce - Al Baramkeh,damascus,syria,sauci-sauce-al-baramkeh,draft,restaurant,2023-10-25 08:57:27.858491 +00:00,,,false
30c02040-4a14-400e-bd0a-28ce687836b1,0101000020E6100000016A6AD95A2342406DE7FBA9F1C24040,Al Mouhajrin,المهاجرين,صوصي & صوص - مهاجرين,Sauci & Sauce - Mouhajrin,damascus,syria,sauci-sauce-mouhajrin,draft,restaurant,2023-10-25 08:57:27.858491 +00:00,,,false
e4bae5eb-d998-44ff-b0b3-6fb45357004d,0101000020E6100000F19D98F56218424022FDF675E0C44040,Qudssaya Suburb,ضاحية قدسيا,صوصي & صوص - ضاحية قدسيا,Sauci & Sauce - Qudssaya Suburb,damascus,syria,sauci-sauce-qudssaya-suburb,draft,restaurant,2023-10-25 08:57:27.858491 +00:00,,,false
040e3b8a-ba6c-4b93-8fc6-e0afe4b05c59,0101000020E61000007ADFF8DA33234240E3A59BC420C04040,Kafar Souseh,كفرسوسة,شكرجي - كفرسوسة,Sekerci - Kafar Sousah,damascus,syria,sekerci-kafar-sousah,draft,restaurant,2023-10-25 08:57:27.858491 +00:00,,,false
ffc5b567-e8a8-4c22-a55d-070a8e4ae321,0101000020E6100000A0C37C7901264240EC4CA1F31ABF4040,Midan,الميدان,شكرجي - ميدان,Sekerci - Midan,damascus,syria,sekerci-midan,draft,restaurant,2023-10-25 08:57:27.858491 +00:00,,,false
981d5bfa-e9f8-457f-acfb-a0b7dddb301c,0101000020E61000009EB5DB2E34234240B285200725C04040,Kafar Souseh,كفرسوسة,سيرجية,Serjieh,damascus,syria,serjieh,draft,restaurant,2023-10-25 08:57:27.858491 +00:00,,,false
e04ef030-7507-4a7a-a1b3-ebc0e5e03b41,0101000020E6100000EB8B84B69C274240265305A392C64040,Masakn Barzeh,مساكن برزة,مطبخ ست النكهات,Set Alnakahat Kitchen,damascus,syria,set-alnakahat-kitchen,draft,restaurant,2023-10-25 08:57:27.858491 +00:00,,,false
0bdfe61d-3945-4930-9da2-71be99cf2220,0101000020E610000073BA2C26361F42402D095053CBBE4040,Mazzeh,المزة,شبابيك,Shababeek,damascus,syria,shababeek,draft,restaurant,2023-10-25 08:57:27.858491 +00:00,,,false
3515a6ce-1705-47fc-96c5-d4bfda81e6ed,0101000020E61000002C2B4D4A412342401C08C90226C04040,Kafar Souseh,كفرسوسة,شاه بار,Shah Bar,damascus,syria,shah-bar,draft,restaurant,2023-10-25 08:57:27.858491 +00:00,,,false
216997c4-e4be-4186-b071-05a25404e563,0101000020E61000009CC420B0722442405B5F24B4E5C04040,Al Baramkeh,البرامكة,عسل شهد,Shahd Honey,damascus,syria,shahd-honey,draft,restaurant,2023-10-25 08:57:27.858491 +00:00,,,false
36b0554a-110b-44dd-8c3b-a7b782b36346,0101000020E6100000C3F01131252642409F3C2CD49AC24040,Baghdad Avenue,شارع بغداد,مأكولات الشام - شارع بغداد,Sham Foods - Baghdad Avenue,damascus,syria,sham-foods-baghdad-avenue,draft,restaurant,2023-10-25 08:57:27.858491 +00:00,,,false
01c35373-2fa5-4050-9b82-cffa846fca4d,0101000020E6100000BE6A65C22F1D4240CF31207BBDC34040,Mashrou3 Dummar Expended,مشروع دمر,مأكولات الشام - مشروع دمر,Sham Foods - Mashrou3 Dummar,damascus,syria,sham-foods-mashrou3-dummar,draft,restaurant,2023-10-25 08:57:27.858491 +00:00,,,false
9c4afbb5-7b4a-4e58-b336-10b47614d1fe,0101000020E61000008D976E12832842407B4963B48EC24040,Al Qassaa,القصاع,شاروز سناك هاوس,Sharos Snack House,damascus,syria,sharos-snack-house,draft,restaurant,2023-10-25 08:57:27.858491 +00:00,,,false
ae9a6642-1524-43bf-9e99-d4a18009ebd3,0101000020E6100000CAC4AD821828424022C32ADEC8C24040,Al - Koussour,القصور,شاورما الرحمة,Shawerma AL Rahamah,damascus,syria,shawerma-al-rahamah,draft,restaurant,2023-10-25 08:57:27.858491 +00:00,,,false
4934d654-5b7e-439f-b8d2-0cacfb2480c9,0101000020E6100000CA37DBDC98264240F67F0EF3E5C14040,Al Thawra Street,شارع الثورة,مطعم شيخ مجاهد,Sheikh Mujahid Restaurant,damascus,syria,sheikh-mujahid-restaurant,draft,restaurant,2023-10-25 08:57:27.858491 +00:00,,,false
f933babf-3d0f-4a85-9c87-b2c95f55abcd,0101000020E6100000DDCF29C8CF244240416667D13BC14040,Al Baramkeh,البرامكة,شي ناهي,She Nahe,damascus,syria,she-nahe,draft,restaurant,2023-10-25 08:57:27.858491 +00:00,,,false
3ca96217-f28b-4987-a103-bf3b6bfce766,0101000020E61000003ED00A0C5925424035D252793BC24040,AL Hamra Street,شارع الحمرا,سيمبلي,Simply,damascus,syria,simply,draft,restaurant,2023-10-25 08:57:27.858491 +00:00,,,false
9a92dde6-a185-450e-8b47-3d78874d559b,0101000020E6100000130A1170081D4240B35E0CE544C34040,Mashrou3 Dummar Expended,مشروع دمر,سيب لاونج,Sip Lounge,damascus,syria,sip-lounge,draft,restaurant,2023-10-25 08:57:27.858491 +00:00,,,false
8994b373-1f9f-42a3-851f-a50d257daac9,0101000020E6100000F8DF4A766C244240E88711C2A3C14040,President Bridge,جسر الرئيس,سماش,Smash,damascus,syria,smash,draft,restaurant,2023-10-25 08:57:27.858491 +00:00,,,false
3e17db07-172e-47a0-ad45-62ce98c0c6c0,0101000020E6100000AA4885B1852442406C09F9A067BF4040,Kafar Souseh,كفرسوسة,سناك شاك,Snack Shack,damascus,syria,snack-shack,draft,restaurant,2023-10-25 08:57:27.858491 +00:00,,,false
a0924cfe-999b-4e79-820c-d1e4206749dc,0101000020E61000006DAD2F12DA26424027C286A757C24040,Baghdad Avenue,شارع بغداد,صوفي لا ميل,Sofy la MIEL,damascus,syria,sofy-la-miel,draft,restaurant,2023-10-25 08:57:27.858491 +00:00,,,false
16e8fe51-2a33-451f-8eee-336a72c5e30f,0101000020E61000008655BC91791C42407AFCDEA63FC34040,Mashro3 Dummer,مشروع دمر,سبينتي - مشروع دمر,Spenti - Mashrou3 Dummar,damascus,syria,spenti-mashrou3-dummar,draft,restaurant,2023-10-25 08:57:27.858491 +00:00,,,false
a8168f04-c229-44cf-a43a-a2f0cb9bfc26,0101000020E61000008DD13AAA9A1842404C4F58E201C54040,Qudssaya Suburb,ضاحية قدسيا,سبينتي - ضاحية قدسيا,Spenti - Qudssaya Suburb,damascus,syria,spenti-qudssaya-suburb,draft,restaurant,2023-10-25 08:57:27.858491 +00:00,,,false
7aaf2704-2851-4d7c-877b-1b682ba202eb,0101000020E6100000C5C9FD0E45294240B341261939C34040,Al Abbasiyyin,العباسيين,مفرزات سبرينغ,Spring Frozen Food,damascus,syria,spring-frozen-food,draft,restaurant,2023-10-25 08:57:27.858491 +00:00,,,false
d5c5d8a8-7a66-44c0-b507-de5b83d02223,0101000020E6100000AFCF9CF52925424043ACFE08C3C24040,Arnous,عرنوس,سلطان,Sultan,damascus,syria,sultan,draft,restaurant,2023-10-25 08:57:27.858491 +00:00,,,false
b17bcb2a-6ecd-44de-a575-4403c5a49a0f,0101000020E6100000F5BEF1B5671E42400E10CCD1E3C34040,Mashrou3 Dummar Expended,مشروع دمر,سويت آند ساور,Sweet & Sour,damascus,syria,sweet-sour,draft,restaurant,2023-10-25 08:57:27.858491 +00:00,,,false
47743ce8-8094-4a37-a3a6-c74f5e0c4e69,0101000020E610000091990B5C1E234240D8F15F2008C04040,Kafar Souseh,كفرسوسة,طه شيف - كفرسوسة,Taha Chef - Kafarsousseh,damascus,syria,taha-chef-kafarsousseh,draft,restaurant,2023-10-25 08:57:27.858491 +00:00,,,false
02cf2ef2-e02f-4f9a-9cf6-166322001e36,0101000020E6100000FB592C45F21D42407C0C569C6ABF4040,Mazzeh,المزة,طه شيف - المزة,Taha Chef - Mazzeh,damascus,syria,taha-chef-mazzeh,draft,restaurant,2023-10-25 08:57:27.858491 +00:00,,,false
d3f5feae-0879-45df-a01f-f825ff5cc2d9,0101000020E610000010FF55ECD4274240447E479E35C64040,Masakn Barzeh,مساكن برزة,طه شيف - قاسيون مول,Taha Chef - Qasyon Mall,damascus,syria,taha-chef-qasyon-mall,draft,restaurant,2023-10-25 08:57:27.858491 +00:00,,,false
a36d3511-12bd-4841-9b9b-6ae9f550280e,0101000020E61000004CFDBCA948254240095053CBD6C24040,Arnous,عرنوس,حلويات تاج كلاس,Taj Class Sweets,damascus,syria,taj-class-sweets,draft,restaurant,2023-10-25 08:57:27.858491 +00:00,,,false
2f8b6854-ee7c-4b2e-971a-a94d40c7c8ba,0101000020E610000050C8CEDBD82842400C01C0B167C34040,East Al Tijara,شرق التجارة,طلبك عالنار,Talabak 3alnar,damascus,syria,talabak-3alnar,draft,restaurant,2023-10-25 08:57:27.858491 +00:00,,,false
b59a7d91-c44b-40ae-b8bc-2120804fdf38,0101000020E6100000E1D1C6116B254240D847A7AE7CC24040,Al Salhiyeh,الصالحية,تماري علاء الدين,Tamari Aladdin,damascus,syria,tamari-aladdin,draft,restaurant,2023-10-25 08:57:27.858491 +00:00,,,false
a1264bce-ee14-4dd0-92e9-382f8fbcf43e,0101000020E61000005665DF15C1234240EC2FBB270FC34040,Al Mouhajrin,المهاجرين,ترويقة,Tarwika,damascus,syria,tarwika,draft,restaurant,2023-10-25 08:57:27.858491 +00:00,,,false
3317bc0a-86b0-4074-a510-6bcc561e090c,0101000020E61000008750A5660F2442406C26DF6C73C34040,Al Mouhajrin,المهاجرين,مطبخ طيبات الشام,Taybat Al-Sham Kitchen,damascus,syria,taybat-al-sham-kitchen,draft,restaurant,2023-10-25 08:57:27.858491 +00:00,,,false
8c73e6c6-1d6c-4c95-800c-5266c034c2e1,0101000020E610000062F8889812214240C5724BAB21C14040,Al Mazzeh,المزة,سناك تكرم,Tekram Snack,damascus,syria,tekram-snack,draft,restaurant,2023-10-25 08:57:27.858491 +00:00,,,false
fa149dde-8bb2-4f3d-a0a5-18abf345a348,0101000020E6100000BDC804FC1A2342405BED612F14C04040,Kafar Souseh,كفرسوسة,دجاج تكساس,Texas Chicken,damascus,syria,texas-chicken,draft,restaurant,2023-10-25 08:57:27.858491 +00:00,,,false
b5efc312-c296-4650-9dbc-abb00a45d083,0101000020E6100000C3F17C06D423424051DA1B7C61C24040,Abou Roummaneh,ابو رمانة,توليدو,Toledo Restaurant,damascus,syria,toledo-restaurant,draft,restaurant,2023-10-25 08:57:27.858491 +00:00,,,false
96805024-a5f5-436a-90bf-3ea3c9a63742,0101000020E6100000C4CE143AAF25424004560E2DB2C14040,Al Bahsa,البحصة,مطعم طوني,Tony Restaurant,damascus,syria,tony-restaurant,draft,restaurant,2023-10-25 08:57:27.858491 +00:00,,,false
3a41cf33-4500-4a3b-81e0-0887b6a00c2c,0101000020E6100000213CDA38622542403480B74082C24040,Al Salhiyeh,الصالحية,انكل ديك,Uncle Deek,damascus,syria,uncle-deek,draft,restaurant,2023-10-25 08:57:27.858491 +00:00,,,false
c9afc56f-19ae-4195-9668-7dbce24c08db,0101000020E6100000062B4EB5162442407EFCA5457DC24040,Abou Roummaneh,ابو رمانة,اونو,Uno,damascus,syria,uno,draft,restaurant,2023-10-25 08:57:27.858491 +00:00,,,false
412ca1c9-cbf0-4712-8ae1-47d021bd00fc,0101000020E6100000EBAD81AD12284240C30DF8FC30C64040,Masakn Barzeh,مساكن برزة,فانيللو,Vanillo,damascus,syria,vanillo,draft,restaurant,2023-10-25 08:57:27.858491 +00:00,,,false
a9f26bfe-e281-4f1b-b3e9-1a3134252f56,0101000020E61000003067B62BF42542404206F2ECF2C14040,Al Bahsa,البحصة,فينيسيا,Venezia,damascus,syria,venezia,draft,restaurant,2023-10-25 08:57:27.858491 +00:00,,,false
130f8680-70c6-46f6-b95a-052387db3d38,0101000020E610000022B4D430322342404E95946016C04040,Kafar Sousah,كفرسوسة,فيردان,Verdant,damascus,syria,verdant,draft,restaurant,2023-10-25 08:57:27.858491 +00:00,,,false
bd071848-c57e-4fe6-95d5-cf9d96fda18a,0101000020E61000006A1327F73B284240C87BD5CA84C34040,East Al Tijara,شرق التجارة,فيستا - التجارة,Vista - Al Tijara,damascus,syria,vista-al-tijara,draft,restaurant,2023-10-25 08:57:27.858491 +00:00,,,false
6dff9a6d-d71d-4a36-b690-c232cc9b68d2,0101000020E6100000D3307C444C25424082FFAD64C7C24040,Arnous,عرنوس,فيستا - عرنوس,Vista - Arnous,damascus,syria,vista-arnous,draft,restaurant,2023-10-25 08:57:27.858491 +00:00,,,false
31738331-da6a-43c3-b029-4cecf4efdf57,0101000020E61000001990BDDEFD1D4240F8DF4A766CC44040,Mashrou3 Dummar Expended,مشروع دمر,فيستا - مشروع دمر,Vista - Mashrou3 Dummar,damascus,syria,vista-mashrou3-dummar,draft,restaurant,2023-10-25 08:57:27.858491 +00:00,,,false
b9e4cd54-6ca0-417e-95c5-4c9c08c00e57,0101000020E610000090882991441F4240ED9E3C2CD4BE4040,Al Mazzeh,المزة,فيستا - مزة,Vista - Mazzeh,damascus,syria,vista-mazzeh,draft,restaurant,2023-10-25 08:57:27.858491 +00:00,,,false
3965c56b-ddd4-4296-b769-c835f4d16260,0101000020E61000003BC780ECF51E424047551344DDBF4040,Al Mazzeh,المزة,مطعم ويستر,Wester Restaurant,damascus,syria,wester-restaurant,draft,restaurant,2023-10-25 08:57:27.858491 +00:00,,,false
00ee6dbc-80af-4e3b-9b24-b30a74a33cd9,0101000020E6100000E21E4B1FBA2042401ADD41EC4CC14040,Al Mazzeh,المزة,وايت تشكن - المزة,White Chicken - Al Mazzeh,damascus,syria,white-chicken-al-mazzeh,draft,restaurant,2023-10-25 08:57:27.858491 +00:00,,,false
07c2df6c-2e7f-4b30-b63c-29b42bdd0e50,0101000020E610000019FF3EE3C22542402766BD18CAC14040,Victoria Bridge,جسر فكتوريا,وايت تشكن - جسر فكتوريا,White Chicken - Victoria Bridge,damascus,syria,white-chicken-victoria-bridge,draft,restaurant,2023-10-25 08:57:27.858491 +00:00,,,false
524d73d8-d3c5-4e05-b38a-cf264914298c,0101000020E610000021B0726891254240520FD1E80EC24040,Maysaloon,ميسلون,وايلد نات,Wild Nut,damascus,syria,wild-nut,draft,restaurant,2023-10-25 08:57:27.858491 +00:00,,,false
e241609b-7e9f-4ee8-af09-63fef0579189,0101000020E6100000A950DD5CFC2342405F45460724C34040,Al Mouhajrin,المهاجرين,وينبي,Winby,damascus,syria,winby,draft,restaurant,2023-10-25 08:57:27.858491 +00:00,,,false
19f75929-7bee-4f72-ac1f-baa1db198975,0101000020E61000002A3A92CB7F2442401895D40968C24040,Abou Roummaneh,ابو رمانة,شوكولا ووترز,Wouters Chocolate,damascus,syria,wouters-chocolate,draft,restaurant,2023-10-25 08:57:27.858491 +00:00,,,false
cce4b89c-22f5-473a-a2e2-d0b4a77e9960,0101000020E61000004DDBBFB2D22042406ADE718A8EC04040,Al Mazzeh,المزة,سناك اكس او,XO Snack,damascus,syria,xo-snack,draft,restaurant,2023-10-25 08:57:27.858491 +00:00,,,false
53c97f89-f48d-4930-86aa-423c22f2cc08,0101000020E6100000C5E6E3DA5025424012312592E8C14040,The President Bridge,جسر الرئيس,XO Terrace by Four Seasons Hotel,XO Terrace by Four Seasons Hotel,damascus,syria,xo-terrace-by-four-seasons-hotel,draft,restaurant,2023-10-25 08:57:27.858491 +00:00,,,false
41b623ff-8b65-4eef-984d-ace2bcfe9ef3,0101000020E6100000179AEB34D2224240C6BFCFB870C04040,Kafar Souseh,كفرسوسة,ياهو سوشي,Yahoo Sushi,damascus,syria,yahoo-sushi,draft,restaurant,2023-10-25 08:57:27.858491 +00:00,,,false
08a7a80d-b8e7-4821-a333-fc19813e34d4,0101000020E610000036C8242367254240DAAA24B20FC24040,Maysaloon,ميسلون,ياسمينا,Yasmina,damascus,syria,yasmina,draft,restaurant,2023-10-25 08:57:27.858491 +00:00,,,false
e01d938c-dae2-4323-aea0-953b61258a37,0101000020E610000052616C21C82542404D672783A3C04040,Khaled Ibn Al Walid Street,شارع خالد ابن الوليد,مطعم زاد الخير,Zad Al-Khair Restaurant,damascus,syria,zad-al-khair-restaurant,draft,restaurant,2023-10-25 08:57:27.858491 +00:00,,,false
d9edad1b-907e-40bb-8fa8-4d4fc3895e88,0101000020E6100000B2BAD573D22B4240DE02098A1FBF4040,Jaramana,جرمانا,زيت و زعتر - جرمانا,Zeit W Zaatar - Jaramana,damascus,syria,zeit-w-zaatar-jaramana,draft,restaurant,2023-10-25 08:57:27.858491 +00:00,,,false
